[{"type":"farm","street":"9211 Sloan Rd","city":"Mustang","state":"ok","zip":"73064","x":"-97.681934","y":"35.373981","name":"Buffalo Creek Berry Farm","website":"","facebook":"","twitter":"","tags":"fresh-fruits fresh-vegetables"},{"type":"farm","street":"1010 CS 2930","city":"Tuttle","state":"ok","zip":"73089","x":"-97.777551","y":"35.245987","name":"Chisholm Trail Farm LLC","website":"www.chisholmtrailfarm.com","facebook":"","twitter":"","tags":""},{"type":"farm","street":"409 N 11th","city":"Thomas","state":"ok","zip":"73669","x":"-98.751283","y":"35.747020","name":"Crispin Murray Grey Grass-Fed Beef","website":" http://crispin-grassfedbeef.com","facebook":"","twitter":"","tags":"red-meat non-poultry-meat"},{"type":"farm","street":"211th Between Harvard & Lewis","city":"Liberty-Mounds","state":"ok","zip":"74047","x":"-95.961522","y":"35.856606","name":"Endicott Farms LLC","website":"www.endicottfarms.com","facebook":"","twitter":"","tags":"fresh-fruits nuts"},{"type":"farm","street":"23200 CR 1480","city":"Cyril","state":"ok","zip":"73029","x":"-98.215386","y":"34.869930","name":"Forbidden Fruits Farm","website":"www.forbiddenfruitsfarm.com","facebook":"www.facebook.com/forbiddenfruitsfarm","twitter":"","tags":"coffee tea eggs herbs fresh-vegetables red-meat non-poultry-meat wine spirits beer hard-cider"},{"type":"farm","street":"897 Redwood Road","city":"Broken Bow","state":"ok","zip":"74728","x":"-94.774638","y":"34.054489","name":"HoneyBear Ranch","website":"www.honeybear-ranch.com","facebook":"HoneyBear Ranch","twitter":"","tags":"bedding plants canned preserved eggs herbs fresh-vegetables nursery-stock"},{"type":"farm","street":"1400 Seeley Chapel Rd","city":"Connerville","state":"ok","zip":"74836","x":"-96.628693","y":"34.460187","name":"Inslee Fish Farm","website":"","facebook":"https://www.facebook.com/pages/Inslee-Fish-Farm/123937417683643","twitter":"","tags":"crafts woodworking eggs fish seafood herbs"},{"type":"farm","street":"10219 us hwy 177","city":"Stratford","state":"ok","zip":"74872","x":"-96.966834","y":"34.860704","name":"Peach Crest Farm","website":"","facebook":"","twitter":"","tags":""},{"type":"farm","street":"11714 CR 1690","city":"Roff","state":"ok","zip":"74865","x":"-96.745575","y":"34.564565","name":"Real-Ranch LLC","website":"real-ranch.com","facebook":"https://www.facebook.com/realranch","twitter":"","tags":"eggs"},{"type":"farm","street":"16963 CR NS 227","city":"Manitou","state":"ok","zip":"73555","x":"-98.933473","y":"34.557891","name":"Red Truck Farm","website":"","facebook":"https://www.facebook.com/Red-Truck-Farm-1441855589413794/?ref=bookmarks","twitter":"","tags":"eggs red-meat non-poultry-meat"},{"type":"farm","street":"9211 Sloan Rd.","city":"Mustang ","state":"ok","zip":"73064","x":"-97.681907","y":"35.374633","name":"SandStone Spring Vineyard","website":"","facebook":"","twitter":"","tags":"fresh-fruits"},{"type":"farm","street":"7920 W 133 St So","city":"Sapulpa","state":"ok","zip":"74066","x":"-96.080329","y":"35.970830","name":"The Peppermint Dragon Herb and Oriental Gardens","website":"","facebook":"","twitter":"","tags":"crafts woodworking cut-flowers fresh-fruits fresh-vegetables honey"},{"type":"farm","street":"12th and Vilas","city":"Guthrie ","state":"ok","zip":"73044","x":"-97.443558","y":"35.875703","name":"Vision Farms","website":"http://vision-farms.org","facebook":"https://www.facebook.com/visionfarms","twitter":"","tags":""},{"type":"farm","street":"12647 SW 104th Street","city":"Mustang","state":"ok","zip":"73064","x":"-97.754910","y":"35.363025","name":"Whispering Springs Greenhouse","website":"","facebook":"","twitter":"","tags":""},{"type":"farm","street":"7645 N 429 Road","city":"Adair","state":"ok","zip":"74330","x":"-95.368498","y":"36.418079","name":"Wild Rose Strawberry Farm","website":"wild rose strawberry farm @g mail.com","facebook":"","twitter":"","tags":"fresh-fruits"},{"type":"farm","street":"700 Beaty Avenue","city":"Pocola","state":"ok","zip":"74902","x":"-94.446848","y":"35.303899","name":"Wild Things Farm","website":"www.wildthingsfarm.com","facebook":"www.facebook.com/pages/Wild-Things-Farm/309163820790","twitter":"","tags":"baked-goods canned preserved cut-flowers eggs herbs fresh-fruits fresh-vegetables honey prepared-foods soap body-care"},{"type":"farm","street":"19400 Ne 63rd Street 18499 NE 50th Street","city":"Harrah","state":"ok","zip":"73045","x":"-97.186475","y":"35.535937","name":"Wind Drift Orchards","website":"www.winddriftorchards.com","facebook":"https://www.facebook.com/pages/Wind-Drift-Orchards/465391816870294","twitter":"","tags":""},{"type":"farm","street":"17153 CR 1380","city":"Anadarko","state":"ok","zip":"73005","x":"-98.326276","y":"35.013603","name":"Woods & Waters Winery & Vineyards & Berry Farm","website":"www.woodsandwaterswinery.com","facebook":"Facebook.com/woodsandwaters/","twitter":"","tags":"fresh-fruits fresh-vegetables wine spirits beer hard-cider"},{"type":"farm","street":"32757 Hwy 9","city":"Pink ","state":"ok","zip":"74873","x":"-97.074740","y":"35.257996","name":"ZaKK Farms; Home of OKBelties","website":"okbelties.weebly.com","facebook":"","twitter":"","tags":"eggs red-meat non-poultry-meat"},{"type":"market","name":"Fairland Farmers Market","website":"","facebook":"FairlandFarmersMarket","twitter":"","street":"50 N. Pine St. ","city":"Fairland","state":"ok","zip":"74343","x":"-94.854471","y":"36.747475","tags":"baked goods crafts flowers eggs herbs vegetables honey jams meat soap trees wine coffee fruits wild"},{"type":"market","name":"Paseo Farmers Market","website":"http://www.paseofarmersmarket.com","facebook":"paseofarmersmkt","twitter":"","street":"3100 N Walker Ave","city":"Oklahoma City","state":"ok","zip":"73103","x":"-97.524820","y":"35.501891","tags":"organic baked goods cheese crafts flowers eggs herbs vegetables honey jams meat nuts plants poultry prepared-foods soap trees wine coffee fruits mushrooms"},{"type":"market","name":"Pittsburg County Farmers Market","website":"http://oces.okstate.edu/pittsburg/farmers-market","facebook":"","twitter":"","street":"SW Corner of Main and Choctaw","city":"McAlester ","state":"ok","zip":"74501","x":"-95.769944","y":"34.926816","tags":"baked goods cheese eggs herbs vegetables honey nuts plants fruits"},{"type":"market","name":"Quapaw Farmers Market","website":"","facebook":"https://www.facebook.com/QuapawFarmersMarket/","twitter":"","street":"326 N Main St","city":"Quapaw","state":"ok","zip":"74363","x":"-94.787418","y":"36.955063","tags":"baked goods cheese crafts flowers eggs herbs vegetables honey jams meat nuts prepared-foods soap wine coffee beans fruits grains mushrooms"},{"type":"market","name":"Woodward Farmers' Market Association","website":"http://www.woodwardfarmersmarket.com","facebook":"Woodward Farmers Market Association","twitter":"@wwfarmers","street":"13th St. and Locust Ave. ","city":"Woodward","state":"ok","zip":"73801","x":"-99.3957807","y":"36.4314963","tags":"baked goods crafts flowers eggs herbs vegetables honey jams meat plants poultry prepared-foods soap fruits"}]
