[{"type":"farm","street":"1918 Brush Run Road","city":"Gay","state":"wv","zip":"25244","x":"-81.555851","y":"38.770123","name":"Beeappy Farm","website":"beeappy.com","facebook":"https://www.facebook.com/BeeappyFarmLLC","twitter":"","tags":"eggs honey poultry fowl soap body-care"},{"type":"farm","street":"HC 69 Box 30-Tate Creek Road","city":"Clem","state":"wv","zip":"26623","x":"-80.9142710","y":"38.6342643","name":"Garden Treasures WV","website":"www.gardentreasureswv.com","facebook":"https://www.facebook.com/gardentreasureswv","twitter":"","tags":"bedding plants crafts woodworking cut-flowers eggs herbs fresh-vegetables mushrooms nursery-stock soap body-care wild-harvested forest-products"},{"type":"farm","street":"Rt 1 Box 79A","city":"Burlington","state":"wv","zip":"26710","x":"-78.869068","y":"39.367164","name":"Green Family Farm","website":"greenfamilyfarm.org","facebook":"","twitter":"","tags":"poultry fowl red-meat non-poultry-meat"},{"type":"farm","street":"6920 Flowing Springs Rd","city":"Shenandoah Junction","state":"wv","zip":"25442","x":"-77.8168320","y":"39.3861820","name":"Harmony Hill Farm","website":"www.HarmonyHillFarmWV.com","facebook":"","twitter":"","tags":"eggs poultry fowl red-meat non-poultry-meat"},{"type":"farm","street":"554 Joy Cabin Run Road","city":"West Union","state":"wv","zip":"26456","x":"-80.873430","y":"39.226951","name":"JP Family Farms","website":"","facebook":"","twitter":"","tags":"fresh-fruits fresh-vegetables grains flour"},{"type":"farm","street":"1806 Buffalo Creek Rd.","city":"Lost Creek","state":"wv","zip":"26385","x":"-80.440978","y":"39.212277","name":"L & M Farms","website":"","facebook":"https://www.facebook.com/pages/L-M-Farms/168574719871551","twitter":"","tags":"bedding plants canned preserved coffee tea crafts woodworking eggs herbs fresh-fruits fresh-vegetables honey soap body-care wild-harvested forest-products"},{"type":"farm","street":"98 Atlantic Road","city":"Tunnelton","state":"wv","zip":"26444","x":"-79.748395","y":"39.39176","name":"Mountain Diamond Longhorns, LLC","website":"","facebook":"","twitter":"","tags":""},{"type":"farm","street":"699 Nolen Lane","city":"Williamsburg","state":"wv","zip":"24991","x":"-80.4923023","y":"37.9701195","name":"Mountain Meadows Farm","website":"http://www.mtmeadowsfarm.com","facebook":"http://www.facebook.com/mountainmeadowsfarmwv","twitter":"","tags":"crafts woodworking red-meat non-poultry-meat"},{"type":"farm","street":"1771 Oak Grove Rd","city":"Terra Alta","state":"wv","zip":"26764","x":"-79.5144706","y":"39.4845137","name":"Possum Tail Farm","website":"www.possumtailfarm.com","facebook":"https://www.facebook.com/PossumTailFarm","twitter":"","tags":"cut-flowers eggs pet-food poultry fowl red-meat non-poultry-meat"},{"type":"farm","street":"1260 Keller Lane","city":"Williamstown","state":"wv","zip":"26187","x":"-81.480821","y":"39.345092","name":"Ridge View Farm","website":"ridgeviewfarmbeef.com","facebook":"","twitter":"","tags":""},{"type":"farm","street":"825 Jenny Wren Drive","city":"Martinsburg","state":"wv","zip":"25404","x":"-77.929560","y":"39.461883","name":"Shepherd's Whey Creamery","website":"shepherdswheycreamery.com","facebook":"shepherd's Whey Creamery","twitter":"","tags":"dairy products eggs red-meat non-poultry-meat"},{"type":"farm","street":"696 Glicks Rd","city":"Renick","state":"wv","zip":"24966","x":"-80.437171","y":"38.066520","name":"Sunshine Farm & Gardens","website":"www.sunfarm.com","facebook":"https://www.facebook.com/Glickster","twitter":"https://www.twitter.com/sunfarmtweets","tags":"bedding plants cut-flowers nursery-stock wild-harvested forest-products"},{"type":"farm","street":"State Route 19 ","city":"Good Hope","state":"wv","zip":"26385","x":"-80.439108","y":"39.175611","name":"TarryLeas Farms","website":"","facebook":"https://www.facebook.com/WVGrassfedMeats/","twitter":"","tags":"baked-goods bedding plants crafts woodworking cut-flowers herbs fresh-fruits fresh-vegetables red-meat non-poultry-meat soap body-care"},{"type":"farm","street":"28813 SR 55","city":"Wardensville","state":"wv","zip":"26851","x":"-78.5920181","y":"39.0835447","name":"Wardensville Garden Market","website":"wardensvillegardenmarket.org","facebook":"https://www.facebook.com/wardensvillegardenmarket/","twitter":"","tags":"bedding plants coffee tea cut-flowers eggs herbs fresh-fruits fresh-vegetables mushrooms"},{"type":"farm","street":"1700 Brownstown Road","city":"Renick","state":"wv","zip":"24966","x":"-80.3363820","y":"37.9994470","name":"White Oak Farm","website":"www.whiteoakberryfarm.com","facebook":"https://www.facebook.com/whiteoakberryfarm","twitter":"","tags":"fresh-fruits fresh-vegetables"},{"type":"farm","street":"17 Reckart Mill","city":"Terra Alta","state":"wv","zip":"26764","x":"-79.5280250","y":"39.5535670","name":"Working H Farms","website":"www.workinghfarms.com","facebook":"https://www.facebook.com/workinghfarms","twitter":"","tags":"eggs poultry fowl red-meat non-poultry-meat"},{"type":"market","name":"Berkeley Springs Farmers Market","website":"http://www.berkeleyspringsfarmersmarket.com","facebook":"https://www.facebook.com/pages/Berkeley-Springs-Farmers-Market/354062496235","twitter":"","street":"129 Fairfax Street at Washington Street/522","city":"Berkeley Springs","state":"wv","zip":"25411","x":"-78.227534","y":"39.624722","tags":"organic baked goods cheese crafts flowers eggs herbs vegetables honey jams meat plants poultry prepared-foods soap coffee fruits juices mushrooms wild"},{"type":"market","name":"Pleasants Area Farmers Market","website":"","facebook":"Pleasants Area Farmers Market","twitter":"N/A","street":"2nd Street ","city":"St. Marys","state":"wv","zip":"26170","x":"-81.205928","y":"39.390828","tags":"baked goods crafts eggs herbs vegetables honey meat plants fruits"},{"type":"market","name":"The Lewis Co. Farmers Market, Inc.","website":"","facebook":"The Lewis Co. Farmers Market","twitter":"","street":"210 Center Ave","city":"Weston","state":"wv","zip":"26452","x":"-80.465764","y":"39.037553","tags":"baked goods crafts eggs vegetables honey jams maple meat fruits wild"},{"type":"market","name":"Webster Springs Farmer's Market","website":"","facebook":"","twitter":"","street":"Baker's Island","city":"Webster Springs","state":"wv","zip":"26288","x":"-80.415459","y":"38.478420","tags":"baked goods vegetables honey fruits"},{"type":"market","name":"Western Greenbrier Farmers Market","website":"","facebook":"https://www.facebook.com/RainelleRupertQuinwood/","twitter":"","street":"Main and 11th st","city":"Rainelle ","state":"wv","zip":"25962","x":"-80.760056","y":"37.972743","tags":"baked goods crafts flowers eggs herbs vegetables honey jams maple plants prepared-foods soap fruits"},{"type":"market","name":"Williamson Farmers Market","website":"http://www.healthyinthehills.com","facebook":"https://www.facebook.com/WilliamsonFarmersMarket/","twitter":"","street":"100 East 2nd Ave.","city":"Williamson","state":"wv","zip":"25661","x":"-82.276602","y":"37.670411","tags":"baked goods crafts eggs herbs vegetables honey jams meat soap fruits mushrooms"}]
