[{"type":"farm","street":"3275 Cold Springs Road","city":"Baldwinsville","state":"ny","zip":"13027","x":"-76.281483","y":"43.144523","name":"Abbott Farms","website":"abbottfarms.com","facebook":"abbottfarmsny","twitter":"","tags":"baked-goods canned preserved coffee tea dairy products dry beans eggs herbs fresh-fruits fresh-vegetables grains flour honey juices ciders maple-products nuts prepared-foods red-meat non-poultry-meat soap body-care"},{"type":"farm","street":"1109 Drum Street","city":"Hogansburg","state":"ny","zip":"13655","x":"-74.593024","y":"44.988345","name":"AMERICAN INDIAN Gray's Homestead Farm","website":"","facebook":"https://www.facebook.com/grayshomesteadfarm/","twitter":"","tags":"baked-goods canned preserved coffee tea dairy products eggs herbs fresh-fruits fresh-vegetables honey maple-products soap body-care wild-harvested forest-products"},{"type":"farm","street":"273 Morrill Rd","city":"Canton","state":"ny","zip":"13617","x":"-75.044278","y":"44.555825","name":"Annies Garlic","website":"www.anniesgarlic.com","facebook":"www.facebook.com/anniesgarlic","twitter":"","tags":""},{"type":"farm","street":"810 Broadway Rt. 9W","city":"Ulster Park","state":"ny","zip":"12487","x":"-73.9695269","y":"41.8467297","name":"Apple Bin Farm Market","website":"www.theapplebinfarmmarket.com","facebook":"Apple Bun Farm Market","twitter":"","tags":"baked-goods bedding plants canned preserved coffee tea dairy products eggs herbs fresh-fruits fresh-vegetables honey juices ciders maple-products nursery-stock nuts prepared-foods soap body-care"},{"type":"farm","street":"1319 Sacandaga Rd","city":"West Charlton","state":"ny","zip":"12010","x":"-74.029509","y":"42.971771","name":"Arnold's Farm Fresh Produce","website":"www.arnoldsproduce.com","facebook":"","twitter":"","tags":"baked-goods canned preserved coffee tea crafts woodworking cut-flowers dairy products herbs fresh-fruits fresh-vegetables honey maple-products nuts red-meat non-poultry-meat soap body-care"},{"type":"farm","street":"685 Argersinger Rd","city":"Fultonviille","state":"ny","zip":"12072","x":"-74.393467","y":"42.902931","name":"Bellinger's Orchard","website":"www.bellingersorchard.com","facebook":"https://www.facebook.com/pages/Bellingers-Orchard/117953028227463","twitter":"https://twitter.com/Bellingersapple","tags":"baked-goods canned preserved dairy products fresh-fruits fresh-vegetables honey"},{"type":"farm","street":"10628 Roberts Road","city":"Frankfort","state":"ny","zip":"13340","x":"-75.192754","y":"43.00074","name":"Brick House Acres - Greenhouse & Berry Farm","website":"","facebook":"","twitter":"","tags":""},{"type":"farm","street":"106 Norman Rd","city":"Rochester","state":"ny","zip":"14623","x":"-77.639933","y":"43.112030","name":"Brighton Honey","website":"https://www.brightonhoney.com/","facebook":"https://www.facebook.com/brightonhoney","twitter":"https://twitter.com/brightonhoney","tags":"honey"},{"type":"farm","street":"62 Dover Furnace Rd","city":"Dover Plains","state":"ny","zip":"12522","x":"-73.579068","y":"41.684239","name":"Brookby Farm","website":"https://www.brookbyfarm.com/","facebook":"https://www.facebook.com/BrookbyFarm/","twitter":"","tags":"baked-goods bedding plants canned preserved coffee tea dairy products dry beans eggs herbs fresh-vegetables grains flour honey juices ciders maple-products mushrooms nuts poultry fowl prepared-foods red-meat non-poultry-meat soap body-care"},{"type":"farm","street":"113 Station Road","city":"Campbell Hall","state":"ny","zip":"10916","x":"-74.2139200","y":"41.4695350","name":"C. Rowe & Sons","website":"","facebook":"","twitter":"","tags":"fresh-fruits fresh-vegetables grains flour"},{"type":"farm","street":"9256 River Road","city":"Marcy","state":"ny","zip":"13403","x":"-75.2756664","y":"43.1382071","name":"Candellas Farm","website":"www.candellasfarm.com","facebook":"https://www.facebook.com/pages/Candellas-Farm-Marcy-You-Pick-Strawberries/110272999063769","twitter":"","tags":"bedding plants fresh-fruits fresh-vegetables honey maple-products"},{"type":"farm","street":"96 Laurel Bank Ave","city":"Deposit","state":"ny","zip":"13754","x":"-75.407016","y":"42.066716","name":"Catskill Cattle Co. - Catskill Fresh Farmstand","website":"http://www.catskillfresh.com","facebook":"http://www.facebook.com/catskillcattle.com","twitter":"","tags":"baked-goods bedding plants canned preserved eggs herbs fresh-fruits fresh-vegetables honey maple-products pet-food poultry fowl"},{"type":"farm","street":"176 Leedsville Rd","city":"Amenia","state":"ny","zip":"12501","x":"-73.5112340","y":"41.8325419","name":"Cedar Hill Farm","website":"","facebook":"","twitter":"","tags":"red-meat non-poultry-meat"},{"type":"farm","street":"247 County Road 20","city":"Sherburne","state":"ny","zip":"13460","x":"-75.546679","y":"42.648135","name":"Cook's Maple Products","website":"http://www.cooksmaple.com","facebook":"http://www.facebook.com/cooksmaple","twitter":"http://www.twitter.com/cooksmaple","tags":"maple-products"},{"type":"farm","street":"Danforth Jersey Farm, 157 Danforth Road","city":"Jefferson","state":"ny","zip":"12093","x":"-74.5707210","y":"42.4952520","name":"Cowbella Creamery at Danforth Jersey Farm","website":"www.cowbella.com","facebook":"https://www.facebook.com/cowbella","twitter":"","tags":"dairy products"},{"type":"farm","street":"13971 route 62","city":"collins","state":"ny","zip":"14034","x":"-78.9284790","y":"42.4986310","name":"Creekside Market","website":"http://www.creeksideproduce.com/","facebook":"https://www.facebook.com/CreeksideMarketCollins/?ref=aymt_homepage_panel","twitter":"","tags":"bedding plants canned preserved cut-flowers herbs fresh-fruits fresh-vegetables honey maple-products"},{"type":"farm","street":"3232 Rippleton Road","city":"Cazenovia","state":"ny","zip":"13035","x":"-75.871351","y":"42.876558","name":"Critz Farms","website":"www.critzfarms.com","facebook":"https://www.facebook.com/pages/Critz-Farms","twitter":"https://www.twitter.com/critzfarms","tags":"canned preserved cut-flowers dairy products fresh-fruits honey juices ciders maple-products prepared-foods wine spirits beer hard-cider"},{"type":"farm","street":"189 East High Street","city":"Ballston Spa","state":"ny","zip":"12020","x":"-73.832763","y":"43.002172","name":"Dakota Ridge Farm","website":"www.dakotaridgefarm.com","facebook":"https://www.facebook.com/DakotaRidgeFarm","twitter":"https://twitter.com/DakotaRidgeFarm","tags":"crafts woodworking"},{"type":"farm","street":"8083 State Hwy 5","city":"St. Johnsville","state":"ny","zip":"13452","x":"-74.725050","y":"43.004559","name":"Damin Farm","website":"","facebook":"","twitter":"","tags":"canned preserved dairy products eggs herbs fresh-fruits fresh-vegetables honey maple-products nuts poultry fowl red-meat non-poultry-meat"},{"type":"farm","street":"7745 Hill Road ","city":"Hubbardsville ","state":"ny","zip":"13355","x":"-75.483456","y":"42.829149","name":"Dart's Tree Farm ","website":"","facebook":"https://www.facebook.com/dartstreefarm","twitter":"","tags":"nursery-stock"},{"type":"farm","street":"157 Indian Lake Road","city":"Millerton","state":"ny","zip":"12546","x":"-73.5177530","y":"41.9143410","name":"Dashing Star Farm","website":"dashingstarfarm.com","facebook":"https://www.facebook.com/dashingstarfarm","twitter":"","tags":"eggs poultry fowl red-meat non-poultry-meat"},{"type":"farm","street":"3823 Sanderson Road","city":"Erieville","state":"ny","zip":"13061","x":"-75.744191","y":"42.839187","name":"Dizzy Lizzie's Farm","website":"www.dizzylizziesfarm@gmail.com","facebook":"https://www.facebook.com/dizzylizziesfarm?ref=hl","twitter":"","tags":"bedding plants cut-flowers dry beans eggs herbs fresh-fruits fresh-vegetables maple-products"},{"type":"farm","street":"271 State Route 208","city":"New Paltz","state":"ny","zip":"12561","x":"-74.1111720","y":"41.7146100","name":"Dressel Farms","website":"http://www.dresselfarms.com/","facebook":"https://www.facebook.com/dresselfarms/","twitter":"","tags":"fresh-fruits fresh-vegetables honey juices ciders maple-products"},{"type":"farm","street":"832 Merrick Ave","city":"East Meadow","state":"ny","zip":"11554","x":"-73.567670","y":"40.700695","name":"East Meadow Farm - CCE of Nassau County","website":"http://ccenassau.org/","facebook":"https://www.facebook.com/EastMeadowFarmStand/","twitter":"","tags":"baked-goods canned preserved cut-flowers eggs fresh-fruits fresh-vegetables honey maple-products"},{"type":"farm","street":"348 Angola Road","city":"Cornwall","state":"ny","zip":"12518","x":"-74.054181","y":"41.414519","name":"Edgwick Farm","website":"","facebook":"https://www.facebook.com/edgwickfarm","twitter":"","tags":"dairy products eggs"},{"type":"farm","street":" 55 Long Lane (EECO Farm Stand)","city":"East Hampton","state":"ny","zip":"11937","x":"-72.207546","y":"40.970660","name":"Food Pantry Farm, Inc. @ the EECO Farm Stand","website":"www.foodpantryfarm.org","facebook":"www.facebook.com/FoodPantryFarm","twitter":"","tags":"baked-goods canned preserved cut-flowers dairy products eggs herbs fresh-fruits fresh-vegetables honey juices ciders mushrooms prepared-foods"},{"type":"farm","street":"54 Steves Lane","city":"Gardiner","state":"ny","zip":"12525","x":"-74.1502860","y":"41.6953480","name":"Full Moon Farm","website":"http://www.fullmoonfarmny.com/","facebook":"https://www.facebook.com/fullmoonfarmny","twitter":"","tags":"poultry fowl"},{"type":"farm","street":"825 Atlantic Avenue","city":"Walworth","state":"ny","zip":"14568","x":"-77.338466","y":"43.165420","name":"G and S Orchards","website":"http://www.gandsorchards.com","facebook":"https://www.facebook.com/YouPickFruit","twitter":"https://www.twitter.com/GandSOrchards","tags":"cut-flowers herbs fresh-fruits fresh-vegetables honey"},{"type":"farm","street":"6147 Gillie Brook Road","city":"Memphis","state":"ny","zip":"13112","x":"-76.352603","y":"43.073066","name":"Gillie Brook Farm","website":"www.gilliefarms.com","facebook":"","twitter":"","tags":"fresh-vegetables"},{"type":"farm","street":"2110 Tower Road","city":"Cortland","state":"ny","zip":"13045","x":"-76.137209","y":"42.554060","name":"Halls Hill Blueberry Farm","website":"www.hallshillblueberryfarm.com","facebook":"","twitter":"","tags":""},{"type":"farm","street":"13054 Ira Station rd","city":"Martville","state":"ny","zip":"13111","x":"-76.611156","y":"43.251306","name":"Happy Hooves Organic Farm","website":"http://betterbeef4u.com/","facebook":"https://www.facebook.com/HappyHoovesOrganicFarm/","twitter":"","tags":"baked-goods canned preserved eggs honey pet-food poultry fowl red-meat non-poultry-meat soap body-care"},{"type":"farm","street":"273 Randall Road","city":"Waddington","state":"ny","zip":"13658","x":"-75.238035","y":"44.803357","name":"Harmony Farm Apiary","website":"http://www.harmonyfarm.net","facebook":"","twitter":"","tags":"honey"},{"type":"farm","street":"327 County Route 21C","city":"Ghent","state":"ny","zip":"12075","x":"-73.5947470","y":"42.2706611","name":"Hawthorne Valley Farm Store","website":"http://hawthornevalleyfarm.org/where-to-buy/farm-store/","facebook":"Hawthorne Valley Farm Store","twitter":"","tags":"baked-goods bedding plants canned preserved coffee tea dairy products dry beans eggs herbs fresh-fruits fresh-vegetables grains flour honey juices ciders maple-products mushrooms nuts pet-food poultry fowl prepared-foods red-meat non-poultry-meat soap body-care tofu non-animal protein"},{"type":"farm","street":"7161 West Rd","city":"Lowville","state":"ny","zip":"13367","x":"-75.5214759","y":"43.7639003","name":"Herrdale Acres Grassfed Beef","website":"www.herrdaleacres.com","facebook":"herrdale acres","twitter":"","tags":""},{"type":"farm","street":"9947 Evans Road","city":"Remsen","state":"ny","zip":"13438","x":"-75.2208138","y":"43.3457168","name":"Heywoodss Blueberries","website":"heywoodsblueberries.com","facebook":"https://www.facebook.com/pages/Heywoods-Blueberries/269549785195?sk=timeline","twitter":"","tags":""},{"type":"farm","street":"","city":"Fort Edward","state":"ny","zip":"12828","x":"-73.519735","y":"43.281767","name":"Hidden Nest Farm","website":"https://www.hiddennestfarm.com","facebook":"https://www.facebook.com/hiddennestfarm","twitter":"","tags":"eggs poultry fowl red-meat non-poultry-meat"},{"type":"farm","street":"1271 Hanover Street","city":"Yorktown Heights","state":"ny","zip":"10598","x":"-73.774207","y":"41.252254","name":"Hilltop Hanover Farm & Environmental Center","website":"www.hilltophanoverfarm.org","facebook":"https://www.facebook.com/hilltophanoverfarm/","twitter":"https://twitter.com/friendsofhhfarm","tags":"baked-goods coffee tea cut-flowers dry beans eggs fresh-vegetables grains flour honey maple-products"},{"type":"farm","street":"1250 Kinderhook Rd ","city":"Chittenango","state":"ny","zip":"13037","x":"-75.913081","y":"43.064624","name":"Honey Hill Orchard & Apiaries","website":"","facebook":"Honey Hill Orchard & Apiary","twitter":"","tags":"fresh-fruits honey"},{"type":"farm","street":"7971 Vallance Rd.","city":"LeRoy","state":"ny","zip":"14482","x":"-77.960827","y":"43.034078","name":"J&W Farm","website":"","facebook":"","twitter":"","tags":"cut-flowers fresh-fruits fresh-vegetables"},{"type":"farm","street":"507 Broadway","city":"Kingston","state":"ny","zip":"12401","x":"-74.0012350","y":"41.9276140","name":"Kingston YMCA Farm Project","website":"kingstonymcafarmproject.org","facebook":"https://www.facebook.com/KingstonYMCAFarmProject","twitter":"","tags":"cut-flowers herbs fresh-fruits fresh-vegetables"},{"type":"farm","street":"1417 Sawyer Rd","city":"Kent","state":"ny","zip":"14477","x":"-78.1576730","y":"43.3466830","name":"Lee Farms","website":"","facebook":"https://www.facebook.com/Lee.Farms.Organic.Beef?ref=hl","twitter":"","tags":"eggs fresh-vegetables red-meat non-poultry-meat"},{"type":"farm","street":"5288 Gasport Rd","city":"Gasport","state":"ny","zip":"14067","x":"-78.5778000","y":"43.1564310","name":"Librock Beef","website":"www.librockbeef.com","facebook":"https://www.facebook.com/pages/Librock-Beef/356668141060191","twitter":"","tags":""},{"type":"farm","street":"1682 West Lake Road","city":"Skaneateles","state":"ny","zip":"13152","x":"-76.393362","y":"42.853001","name":"Lockwood Lavender Farm","website":"","facebook":"https://www.facebook.com/lockwoodlavenderfarm","twitter":"","tags":"herbs honey"},{"type":"farm","street":"573 Meeting House Road","city":"West Winfield","state":"ny","zip":"13491","x":"-75.165333","y":"42.914275","name":"Loiacono Farm","website":"","facebook":"","twitter":"","tags":"fresh-fruits fresh-vegetables"},{"type":"farm","street":"10569 County Route 92","city":"Wayland","state":"ny","zip":"14572","x":"-77.569955","y":"42.513065","name":"Loon Lake Organics","website":"","facebook":"Loon Lake Organics","twitter":"","tags":"fresh-fruits fresh-vegetables"},{"type":"farm","street":"68 Prices Switch Road","city":"Warwick","state":"ny","zip":"10990","x":"-74.460853","y":"41.260494","name":"Lowland Farm","website":"www.lowlandfarm.com/","facebook":"https://www.facebook.com/lowlandfarm","twitter":"","tags":"poultry fowl"},{"type":"farm","street":"Little Ghent Farm, 282 Snyder Road","city":"Ghent","state":"ny","zip":"12075","x":"-73.643255","y":"42.330964","name":"Made in Ghent","website":"www.madeinghent.com","facebook":"Made in Ghent","twitter":"https://www.twitter.com/madeinghent","tags":"poultry fowl prepared-foods red-meat non-poultry-meat"},{"type":"farm","street":"7342 Main Street, State Route 28","city":"Newport","state":"ny","zip":"13416","x":"-75.010097","y":"43.180348","name":"MAWS Farm","website":"www.MAWSFarm.com","facebook":"https://www.facebook.com/MAWSFarm","twitter":"","tags":"baked-goods bedding plants canned preserved crafts woodworking cut-flowers eggs herbs fresh-fruits fresh-vegetables honey poultry fowl red-meat non-poultry-meat"},{"type":"farm","street":"19830 Eddy Road","city":"Carthage","state":"ny","zip":"13619","x":"-75.740696","y":"43.954667","name":"Mill Creek Farm","website":"","facebook":"","twitter":"","tags":""},{"type":"farm","street":"3655 Cherry Valley Tpk. (rt.20)","city":"Syracuse","state":"ny","zip":"13215","x":"-76.236325","y":"42.986208","name":"Navarino Orchard","website":"navarinoorchard.com","facebook":"https://www.facebook.com/pages/Navarino-Orchard/94081824018","twitter":"","tags":""},{"type":"farm","street":"5486 South Livonia Road","city":"Conesus Lake ","state":"ny","zip":"14435","x":"-77.672284","y":"42.754630","name":"Olde Silo Farm","website":"","facebook":"oldesilofarm1@gmail.com","twitter":"","tags":"cut-flowers herbs fresh-fruits fresh-vegetables honey"},{"type":"farm","street":"7735 State Route 104","city":"Oswego","state":"ny","zip":"13126","x":"-76.5775130","y":"43.4098990","name":"Ontario Orchards","website":"ontarioorchards.com","facebook":"ontaroorchards","twitter":"","tags":"baked-goods bedding plants canned preserved coffee tea crafts woodworking cut-flowers dairy products dry beans eggs fish seafood herbs fresh-fruits fresh-vegetables grains flour honey juices ciders maple-products mushrooms nursery-stock nuts pet-food poultry fowl red-meat non-poultry-meat wine spirits beer hard-cider"},{"type":"farm","street":"1220 W. Genesee Road","city":"Baldwinsville","state":"ny","zip":"13027","x":"-76.415148","y":"43.165342","name":"Reeves Farms","website":"www.reevesfarms.com","facebook":"https://www.facebook.com/reevesfarmsllc","twitter":"","tags":""},{"type":"farm","street":"1925 Rt. 73","city":"Keene Valley","state":"ny","zip":"12943","x":"-73.786625","y":"44.199360","name":"Rivermede Farm Market","website":"rivermedefarm.com","facebook":"","twitter":"","tags":"baked-goods bedding plants canned preserved coffee tea crafts woodworking cut-flowers dairy products eggs herbs fresh-fruits fresh-vegetables honey juices ciders maple-products mushrooms nuts poultry fowl prepared-foods red-meat non-poultry-meat soap body-care"},{"type":"farm","street":"3736 Apulia Road","city":"Jamesville","state":"ny","zip":"13078","x":"-76.068845","y":"42.952424","name":"Rocking Horse Farm","website":"www.rockinghorsefarmcny.com","facebook":"Rocking Horse Farm","twitter":"","tags":"honey maple-products"},{"type":"farm","street":"151 Hadsell rd","city":"Warnerville ","state":"ny","zip":"12187","x":"-74.511437","y":"42.643584","name":"Rocks and Roots Farm LLC","website":"","facebook":"","twitter":"","tags":"dairy products fresh-vegetables honey mushrooms wild-harvested forest-products"},{"type":"farm","street":"29 Old Barrington Road","city":"Hollowville","state":"ny","zip":"12530","x":"-73.660002","y":"42.215512","name":"Scarecrow Farm","website":"www.scarecrowfarmny.com","facebook":"https://www.facebook.com/pages/Scarecrow-Farm","twitter":"","tags":"baked-goods canned preserved crafts woodworking eggs herbs fresh-vegetables honey"},{"type":"farm","street":"200 Creamery Road","city":"Brooktondale","state":"ny","zip":"14817","x":"-76.352390","y":"42.380125","name":"Shelterbelt Farm","website":"http://www.shelterbeltfarm.com","facebook":"https://www.facebook.com/ShelterbeltFarm","twitter":"","tags":"honey poultry fowl red-meat non-poultry-meat"},{"type":"farm","street":"34 Lauer Road","city":"Poughkeepsie","state":"ny","zip":"12603","x":"-73.8148002","y":"41.6598912","name":"Sprout Creek Farm","website":"www.sproutcreekfarm.org","facebook":"www.facebook.com/sproutcreekfarm","twitter":"www.twitter.com/sproutcreekfarm","tags":"baked-goods canned preserved dairy products eggs honey maple-products poultry fowl red-meat non-poultry-meat"},{"type":"farm","street":"County Route 100","city":"Woodhull","state":"ny","zip":"14898","x":"-77.408089","y":"42.038941","name":"Steamy Farms","website":"","facebook":"facebook.com/SteamyFarms","twitter":"","tags":"eggs honey poultry fowl red-meat non-poultry-meat"},{"type":"farm","street":"656 South Road","city":"Scottsville","state":"ny","zip":"14546","x":"-77.773829","y":"42.992039","name":"Stokoe Farms","website":"stokoefarms.com","facebook":"https://www.facebook.com/stokoefarm","twitter":"","tags":"baked-goods canned preserved coffee tea crafts woodworking honey juices ciders maple-products prepared-foods soap body-care"},{"type":"farm","street":"143 Strackville Road","city":"Schuyler Falls","state":"ny","zip":"12985","x":"-73.6887698","y":"44.5976053","name":"Stonebeck Farm","website":"http://stonebeckfarm.blogspot.com/","facebook":"https://www.facebook.com/pages/Stonebeck-Farm/203077556515064","twitter":"","tags":""},{"type":"farm","street":"160 Bixby rd","city":"Erin","state":"ny","zip":"14838","x":"-76.6685290","y":"42.1597360","name":"Stoneyridge Orchard & Winery LLC","website":"www.stoneyridgeorchard.com","facebook":"stoneyridgeorchard","twitter":"","tags":"baked-goods canned preserved crafts woodworking fresh-fruits fresh-vegetables honey juices ciders wine spirits beer hard-cider"},{"type":"farm","street":"11205 west Shelby Rd","city":"Medina","state":"ny","zip":"14103","x":"-78.3978140","y":"43.1652420","name":"Teasel Meadow Farms","website":"www.teaselmeadowfarms.com","facebook":"https://www.facebook.com/pages/Teasel-Meadow-Farms/246518425811","twitter":"","tags":"red-meat non-poultry-meat"},{"type":"farm","street":"3391 Fairville Maple Ridge Rd.","city":"Newark","state":"ny","zip":"14513","x":"-77.0979550","y":"43.1292743","name":"The Apple Shed","website":"www.theappleshed.com","facebook":"www.facebook.com/theappleshed","twitter":"www.twitter.com/theappleshed.com","tags":"baked-goods canned preserved coffee tea dairy products fresh-fruits fresh-vegetables honey juices ciders maple-products prepared-foods"},{"type":"farm","street":"35796 State Highway 10","city":"Hamden","state":"ny","zip":"13782","x":"-74.994065","y":"42.191338","name":"The Lucky Dog Farm Store and Cafe","website":"http://www.luckydogorganic.com/","facebook":"https://www.facebook.com/Lucky.Dog.Farm.And.Store?ref=bookmarks","twitter":"","tags":"baked-goods canned preserved coffee tea crafts woodworking dairy products dry beans eggs fish seafood herbs fresh-fruits fresh-vegetables grains flour honey juices ciders maple-products mushrooms nuts pet-food poultry fowl prepared-foods red-meat non-poultry-meat soap body-care tofu non-animal protein wild-harvested forest-products wine spirits beer hard-cider"},{"type":"farm","street":"329 Underhill Ave","city":"Yorktown Heights","state":"ny","zip":"10598","x":"-73.780818","y":"41.268860","name":"The Meadows Farm","website":"Meadowsfarmmarket.com","facebook":"","twitter":"","tags":""},{"type":"farm","street":"2 So. Mountain Rd ","city":"Pomona","state":"ny","zip":"10970","x":"-74.0320457","y":"41.1786064","name":"The Orchards Of Concklin","website":"http://theorchardsofconcklin.com","facebook":"https://www.facebook.com/pages/The-Orchards-of-Concklin/111163468897423","twitter":"","tags":"baked-goods bedding plants canned preserved coffee tea cut-flowers dairy products dry beans eggs herbs fresh-fruits fresh-vegetables honey juices ciders maple-products nuts"},{"type":"farm","street":"538 Route 343","city":"Millbrook","state":"ny","zip":"12545","x":"-73.651539","y":"41.775037","name":"Walbridge Farm Market","website":"walbridgefarm.com","facebook":"https://www.facebook.com/walbridgefarmmarket","twitter":"","tags":"baked-goods canned preserved dairy products eggs fresh-fruits fresh-vegetables honey juices ciders maple-products poultry fowl red-meat non-poultry-meat"},{"type":"farm","street":"656 Minots Corner Rd","city":"Frankfort","state":"ny","zip":"13340","x":"-75.048407","y":"43.102139","name":"Windecker's Grassy Knoll Beef","website":"www.windeckerfarm.com","facebook":"","twitter":"","tags":"red-meat non-poultry-meat"},{"type":"market","name":"Belmont Farmers Market","website":"","facebook":"https://www.facebook.com/pages/Southern-Tier-Farmers-Market/165092373544019","twitter":"","street":"5429 State Route 19N","city":"Belmont","state":"ny","zip":"14813","x":"-78.0565113","y":"42.2489416","tags":"baked goods crafts eggs herbs vegetables honey jams maple meat plants soap fruits"},{"type":"market","name":"Canal Village Farmers' Market","website":"","facebook":"Canal Village Farmers' Market","twitter":"","street":"127 West Center Street","city":"Medina","state":"ny","zip":"14103","x":"-78.388368","y":"43.220102","tags":"baked goods crafts eggs herbs vegetables jams meat plants poultry prepared-foods soap wine fruits"},{"type":"market","name":"Clifton Park Farmers' Market","website":"http://www.saratogafarmersmarket.org/clifton-park-farmers-market/","facebook":"https://www.facebook.com/Clifton-Park-Farmers-Market-440138679349915/","twitter":"","street":"971 Route 146, Shenendehowa United Methodist Church parking lot ","city":"Clifton Park","state":"ny","zip":"12065","x":"-73.809271","y":"42.869606","tags":"baked goods flowers eggs vegetables honey jams maple meat prepared-foods fruits juices"},{"type":"market","name":"Clinton Farmers Market","website":"https://clintonnychamber.org/farmers-market/","facebook":"https://www.facebook.com/ClintonNYFarmersMarket/","twitter":"","street":"20 West Park Row","city":"Clinton","state":"ny","zip":"13323","x":"-75.378462","y":"43.048866","tags":"organic baked goods cheese crafts flowers eggs herbs vegetables honey jams maple meat nuts plants poultry prepared-foods soap trees coffee beans fruits mushrooms pet food wild"},{"type":"market","name":"Delmar Farmers Market","website":"http://delmarmarket.org","facebook":"delmarmarket","twitter":"@delmarmarket","street":"332 Kenwood Ave","city":"Delmar","state":"ny","zip":"12054","x":"-73.825895","y":"42.619919","tags":"organic baked goods cheese crafts flowers eggs seafood herbs vegetables maple meat plants poultry prepared-foods soap trees wine coffee fruits grains mushrooms pet food"},{"type":"market","name":"Down to Earth Mamaroneck Winter Farmers Market","website":"http://www.downtoearthmarkets.com","facebook":"https://www.facebook.com/downtoearthmarketsmamaroneck/","twitter":"https://twitter.com/DowntoEarthMkts","street":"168 West Boston Post Rd.","city":"Mamaroneck","state":"ny","zip":"10543","x":"-73.734523","y":"40.947737","tags":"organic baked goods cheese flowers eggs seafood herbs vegetables honey jams maple meat poultry prepared-foods coffee fruits juices mushrooms"},{"type":"market","name":"Down to Earth Morningside Park Farmers Market","website":"http://www.downtoearthmarkets.com","facebook":"https://www.facebook.com/morningsideparkfarmersmarket/","twitter":"https://twitter.com/DowntoEarthMkts","street":"110th Street and Manhattan Avenue","city":"Manhattan","state":"ny","zip":"10026","x":"-73.959648","y":"40.801370","tags":"organic baked goods cheese flowers eggs seafood herbs vegetables honey jams maple meat plants poultry prepared-foods wine coffee fruits juices mushrooms"},{"type":"market","name":"Down to Earth New Rochelle Farmers Market","website":"http://DowntoEarthMarkets.com","facebook":"https://www.facebook.com/newrochellefarmersmarket/","twitter":"https://twitter.com/DowntoEarthMkts","street":"515 North Avenue","city":"New Rochelle","state":"ny","zip":"10801","x":"-73.786334","y":"40.919640","tags":"baked goods eggs herbs vegetables honey jams plants prepared-foods fruits juices mushrooms"},{"type":"market","name":"Down to Earth Park Slope Farmers Market","website":"http://www.downtoearthmarkets.com","facebook":"https://www.facebook.com/parkslopefarmersmarket/","twitter":"https://twitter.com/DowntoEarthMkts","street":"289 4th Street","city":"Brooklyn","state":"ny","zip":"11215","x":"-73.983925","y":"40.672277","tags":"organic baked goods cheese flowers eggs seafood herbs vegetables honey jams maple meat plants poultry prepared-foods soap wine coffee fruits juices mushrooms tofu wild"},{"type":"market","name":"East Greenbush Library & YMCA Farmers Market","website":"https://eastgreenbushlibrary.org/events-newsletters/farmers-market/","facebook":"https://www.facebook.com/EastGreenbushLibraryYMCAFarmerMarket/","twitter":"@eglibrary","street":"Between 10 and 20 Community Way in parking lot","city":"East Greenbush","state":"ny","zip":"12061","x":"-73.695566","y":"42.618063","tags":"baked goods cheese eggs vegetables honey jams maple nuts prepared-foods soap trees wine fruits pet food"},{"type":"market","name":"East Side Farmers' Market","website":"http://chemung.cce.cornell.edu/agriculture/buy-local/farmers-markets","facebook":"https://www.facebook.com/EastSideMarketElmiraNY/","twitter":"","street":"760 E Water St Elmira","city":"Elmira","state":"ny","zip":"14901","x":"-76.793909","y":"42.088765","tags":"baked goods cheese crafts eggs vegetables honey jams maple meat plants poultry prepared-foods soap fruits mushrooms"},{"type":"market","name":"Eastgate Plaza Farmers Market","website":"","facebook":"https://www.facebook.com/EastgatePlazaClarence/","twitter":"","street":"4927 - 5089 Transit Road","city":"Clarence","state":"ny","zip":"14221","x":"-78.595325","y":"42.97573","tags":"organic baked goods cheese crafts flowers eggs herbs vegetables honey jams maple meat plants poultry prepared-foods soap wine coffee fruits mushrooms pet food tofu"},{"type":"market","name":"Elmwood Bidwell Farmers' Market","website":"http://elmwoodmarket.org","facebook":"ElmwoodBidwellFarmersMarket","twitter":"","street":"Elmwood and Bidwell","city":"Buffalo","state":"ny","zip":"14221","x":"-78.877625","y":"42.923862","tags":"organic baked goods cheese flowers eggs seafood vegetables honey maple meat plants poultry soap trees wine coffee fruits mushrooms"},{"type":"market","name":"Farm to Preschool Market: Mercy Cares for Kids","website":"http://www.sphp.com/mercy-cares-for-kids","facebook":"","twitter":"","street":"310 S. Manning Blvd","city":"Albany ","state":"ny","zip":"12206","x":"-73.798353","y":"42.665745","tags":"organic flowers vegetables"},{"type":"market","name":"Festival Farmers Market","website":"","facebook":"","twitter":"","street":"942 Main Street","city":" Cobleskill","state":"ny","zip":"12043","x":"-74.4669868","y":"42.6792512","tags":"baked goods cheese crafts flowers eggs herbs vegetables honey jams maple meat plants poultry soap fruits"},{"type":"market","name":"Franklinville Farmers Market","website":"","facebook":"https://www.facebook.com/pages/Southern-Tier-Farmers-Market/165092373544019","twitter":"","street":"13 Park Square","city":"Franklinville","state":"ny","zip":"14737","x":"-78.4572594","y":"42.3371786","tags":"baked goods crafts flowers eggs herbs vegetables honey jams maple plants fruits"},{"type":"market","name":"Fulton Stall Market - Indoor Farmers Market","website":"http://fultonstallmarket.org","facebook":"fultonmarketnyc","twitter":"fultonmarketnyc","street":"91 South St.","city":"New York ","state":"ny","zip":"10038","x":"-74.003474","y":"40.706222","tags":"organic baked goods cheese eggs seafood herbs vegetables honey jams maple meat poultry prepared-foods wine coffee fruits grains juices mushrooms pet food"},{"type":"market","name":"Glens Falls Farmers Market Association","website":"https://www.glensfallsfarmersmarket.com/","facebook":"https://www.facebook.com/GFFarmersMarket/","twitter":"","street":"10 Sanford St","city":"Glens Falls","state":"ny","zip":"12801","x":"-73.653504","y":"43.317546","tags":"organic baked goods cheese crafts eggs seafood herbs vegetables honey jams maple meat poultry prepared-foods soap coffee beans fruits juices mushrooms pet food wild"},{"type":"market","name":"Goshen Farmers Market","website":"http://goshennychamber.com","facebook":"Goshenfarmersmarket","twitter":"","street":"South Church and Main Street","city":"Goshen","state":"ny","zip":"10924","x":"-74.322899","y":"41.401966","tags":"baked goods cheese eggs seafood herbs vegetables honey jams maple meat plants poultry soap wine coffee fruits mushrooms pet food"},{"type":"market","name":"Grass Roots Farmers Market","website":"","facebook":"Grassroots Farmers Market","twitter":"","street":"W.145th. Street between Edgecombe & Bradhurst Aves.","city":"New York","state":"ny","zip":"10031","x":"-73.943475","y":"40.823804","tags":"baked goods eggs vegetables honey jams fruits"},{"type":"market","name":"Greater Watertown-North Country Chamber of Commerce Farm & Craft Market","website":"http://www.watertownfarmandcraft.com","facebook":"https://www.facebook.com/watertownfarmandcraft/?ref=br_rs","twitter":"","street":"317 Washington St.","city":"Watertown","state":"ny","zip":"13601","x":"-75.9112726897001","y":"43.9720956981182","tags":"organic baked goods cheese crafts flowers eggs herbs vegetables honey jams maple meat nuts plants poultry prepared-foods soap trees wine coffee fruits mushrooms pet food"},{"type":"market","name":"Harvest Home 125th Street Market","website":"","facebook":"","twitter":"","street":"W. 125th Street & Adam Clayton Powell Blvd","city":"New York","state":"ny","zip":"","x":"-73.947702","y":"40.808707","tags":"baked goods vegetables fruits"},{"type":"market","name":"Harvest Home Brower Park Market","website":"http://harvesthomefm.org","facebook":"","twitter":"","street":"Brooklyn Avenue & Prospect Place","city":"New York","state":"ny","zip":"","x":"-73.944530","y":"40.674043","tags":"vegetables fruits"},{"type":"market","name":"Harvest Home Clinton Hill Market","website":"","facebook":"","twitter":"","street":"Lafayette btwn Waverly & Washington","city":"Brooklyn","state":"ny","zip":"","x":"-73.966310","y":"40.688145","tags":"vegetables fruits"},{"type":"market","name":"Harvest Home Co-Op City Market","website":"","facebook":"","twitter":"","street":"Asch Loop & Aldrich Street","city":"Bronx","state":"ny","zip":"","x":"-73.831007","y":"40.870274","tags":"baked goods vegetables honey jams fruits"},{"type":"market","name":"Harvest Home Coney Island Hospital Market","website":"","facebook":"","twitter":"","street":"Ocean Pkwy btwn Shore Pkwy & Avenue Z","city":"New York","state":"ny","zip":"","x":"-73.966129","y":"40.585510","tags":"baked goods vegetables honey jams maple fruits"},{"type":"market","name":"Harvest Home East Harlem Market","website":"","facebook":"","twitter":"","street":"E. 104th Street & 3rd Avenue","city":"New York","state":"ny","zip":"","x":"-73.945625","y":"40.790266","tags":"vegetables fruits"},{"type":"market","name":"Harvest Home Harlem Hospital Market","website":"","facebook":"","twitter":"","street":"Lenox Avenue btwn W. 136th & W. 138th Street","city":"New York","state":"ny","zip":"","x":"-73.940100","y":"40.814968","tags":"baked goods vegetables honey jams maple fruits"},{"type":"market","name":"Harvest Home Hunts Point Market","website":"","facebook":"","twitter":"","street":"E. 163rd btwn Southern & Bruckner Boulevards","city":"New York","state":"ny","zip":"","x":"-73.890698","y":"40.820779","tags":"vegetables fruits"},{"type":"market","name":"Harvest Home Jacobi Hospital Market","website":"","facebook":"","twitter":"","street":"1400 Pelham Parkway","city":"New York","state":"ny","zip":"","x":"-73.846979","y":"40.857347","tags":"baked goods vegetables honey jams fruits"},{"type":"market","name":"Harvest Home Kings County Hospital Market","website":"","facebook":"","twitter":"","street":"Clarkson Avenue btwn E. 37th & E. 39th Street","city":"New York","state":"ny","zip":"","x":"-73.942520","y":"40.655889","tags":"vegetables fruits"},{"type":"market","name":"Harvest Home Lenox Avenue Market","website":"","facebook":"","twitter":"","street":"Lenox Avenue btwn W. 117th & W. 118th Street","city":"New York","state":"ny","zip":"","x":"-73.948857","y":"40.803029","tags":"vegetables fruits"},{"type":"market","name":"Harvest Home Metropolitan Hospital Market","website":"http://harvesthomefm.org","facebook":"","twitter":"","street":"97-99th Street and 2nd Ave.","city":"Manhattan","state":"ny","zip":"","x":"-73.946220","y":"40.785539","tags":"baked goods vegetables honey jams prepared-foods coffee fruits"},{"type":"market","name":"Harvest Home Mt. Eden Market","website":"http://www.harvesthomefm.org","facebook":"https://www.facebook.com/HarvestHomeMkts/","twitter":"https://twitter.com/HarvestHomeMkts","street":"Mt. Eden Pkwy & Morris Avenue","city":"Bronx","state":"ny","zip":"","x":"-73.909517","y":"40.842700","tags":"baked goods vegetables honey jams fruits"},{"type":"market","name":"Harvest Home North Central Bronx Market","website":"","facebook":"","twitter":"","street":"E. Mosholu Pkwy N. & Jerome Avenue","city":"Bronx","state":"ny","zip":"","x":"-73.883864","y":"40.880479","tags":"baked goods vegetables jams fruits"},{"type":"market","name":"Harvest Home St. Mary's Park Market","website":"","facebook":"","twitter":"","street":"E. 149th Street & Eagle Avenue","city":"New York","state":"ny","zip":"","x":"-73.911898","y":"40.813850","tags":"vegetables fruits"},{"type":"market","name":"Harvest Home West Harlem Market","website":"","facebook":"","twitter":"","street":"Broadway btwn W. 138th & W. 139th St","city":"New York","state":"ny","zip":"","x":"-73.953193","y":"40.822369","tags":"vegetables fruits"},{"type":"market","name":"Hudson Farmers Market","website":"http://www.hudsonfarmersmarketny.com","facebook":"https://www.facebook.com/hudson.markt","twitter":"","street":"Corner of Columbia and Sixth Streets","city":"Hudson","state":"ny","zip":"12534","x":"-73.7836920","y":"42.2486560","tags":"organic baked goods cheese crafts flowers eggs seafood herbs vegetables honey jams maple meat nuts plants poultry prepared-foods soap wine coffee beans fruits grains juices mushrooms wild"},{"type":"market","name":"Indian Lake Community Farmers Market ","website":"","facebook":"","twitter":"","street":"P.O. Box 651","city":"Indian Lake","state":"ny","zip":"12842","x":"-74.270517","y":"43.782822","tags":"organic baked goods cheese crafts flowers eggs herbs vegetables honey jams maple meat nuts plants poultry coffee fruits mushrooms pet food"},{"type":"market","name":"Isabahlia farmers Market","website":"http://Isabahlialoefinc.org","facebook":"Isabahlia ladies of Elegance Foundation Inc","twitter":"Isabahlialoef","street":"410 Livoinia Ave","city":"Brooklyn, NY","state":"ny","zip":"11212","x":"-73.901875","y":"40.663651","tags":"baked goods flowers eggs vegetables honey jams fruits"},{"type":"market","name":"Kingston Farmers' Market","website":"http://www.kingstonfarmersmarket.org","facebook":"Facebook.com/kingstonfarmersmarket","twitter":"","street":"Wall Street - Uptown Kingston","city":"Kingston","state":"ny","zip":"12402","x":"-74.019483","y":"41.932986","tags":"organic baked goods cheese crafts flowers eggs seafood herbs vegetables honey jams maple meat nuts plants poultry prepared-foods soap trees wine coffee fruits grains juices mushrooms pet food wild"},{"type":"market","name":"La Familia Verde Farmers Market","website":"http://www.lafamiliaverde.org","facebook":"","twitter":"","street":"East Tremont Ave. between Lafontaine Ave& Arthue Ave","city":"Bronx","state":"ny","zip":"10460","x":"-73.893737","y":"40.846468","tags":"baked goods flowers eggs herbs vegetables honey jams fruits juices"},{"type":"market","name":"La Familia Verde Market","website":"http://lafamiliaverde.org","facebook":"","twitter":"","street":"Tremont Ave between Arthur Ave & LaFontaine Ave","city":"Bronx","state":"ny","zip":"10457","x":"-73.891978","y":"40.849357","tags":"baked goods eggs vegetables fruits"},{"type":"market","name":"Lake Placid Farmers' Market ","website":"http://www.ausablevalleygrangefarmersmarkets.com/lake-placid.html","facebook":"https://www.facebook.com/ausablevalleygrangefarmersmarkets/","twitter":"","street":"281 Station Street","city":"Lake Placid","state":"ny","zip":"12946","x":"-73.9841054","y":"44.2770413","tags":"organic baked goods cheese crafts flowers eggs vegetables honey jams maple meat poultry prepared-foods soap coffee fruits juices mushrooms wild"},{"type":"market","name":"Lakewood NY Farmers' and Artisans' Market","website":"http://lakewoodny.com/government/lakewoods-farmers-artisans-market/","facebook":"https://www.facebook.com/lakewoodnyfarmersmarket/","twitter":"","street":"Chautauqua Ave","city":"Lakewood","state":"ny","zip":"14750","x":"-79.326095","y":"42.103565","tags":"organic baked goods crafts flowers eggs vegetables honey jams maple meat poultry soap trees fruits juices mushrooms wild"},{"type":"market","name":"Lewis County General Hospitals Farmers Market","website":"http://www.lcgh.net","facebook":"","twitter":"","street":"7785 North State street","city":"Lowville","state":"ny","zip":"13367","x":"-75.500665","y":"43.794672","tags":"baked goods cheese vegetables honey maple fruits"},{"type":"market","name":"Lowville Farm and Craft Market","website":"","facebook":"https://www.facebook.com/lowvillefarmandcraftmarket/","twitter":"","street":"5473 Bostwick Street","city":"Lowville","state":"ny","zip":"13367","x":"-75.491021","y":"43.793854","tags":"organic baked goods cheese crafts flowers eggs herbs vegetables honey jams maple meat plants poultry prepared-foods soap trees wine coffee fruits mushrooms pet food"},{"type":"market","name":"Montour Falls Farmers Market","website":"http://www.montourfallsfarmersmarket.com","facebook":"https://www.facebook.com/Montour-Falls-Library-140122486056562","twitter":"","street":"300 West Main Street","city":"Montour Falls","state":"ny","zip":"14865","x":"-76.847748","y":"42.346431","tags":"organic baked goods cheese flowers eggs herbs vegetables honey jams maple meat plants poultry prepared-foods wine coffee fruits mushrooms wild"},{"type":"market","name":"Narrowsburg Farmers' Market","website":"https://narrowsburgfarmersmarket.org/","facebook":"https://www.facebook.com/narrowsburgfarmmarket/","twitter":"","street":"7 Erie Avenue","city":"Narrowsburg","state":"ny","zip":"12764","x":"-75.05512","y":"41.596136","tags":"baked goods cheese flowers eggs vegetables honey jams meat prepared-foods wine fruits mushrooms"},{"type":"market","name":"North Creek Farmers Market","website":"http://www.NorthCreekFarmersMarket.com","facebook":"https://www.facebook.com/NorthCreekFarmersMarket","twitter":"","street":"River Front Park, Rail Road Place","city":" North Creek","state":"ny","zip":"12843","x":"-73.988272","y":"43.702638","tags":"organic baked goods cheese crafts eggs vegetables honey jams maple meat poultry prepared-foods soap wine coffee fruits mushrooms wild"},{"type":"market","name":"Norwich Farmers Market","website":"http://www.lambsquartersinc.com","facebook":"Norwich NY Farmers Market","twitter":"","street":"2-75 North Broad Street","city":"Norwich","state":"ny","zip":"13815","x":"-75.523491","y":"42.531490","tags":"baked goods cheese crafts flowers eggs herbs vegetables honey jams maple meat nuts poultry soap coffee beans fruits grains mushrooms wild"},{"type":"market","name":"Ovid Farmers Market","website":"","facebook":"https://www.facebook.com/ovidfarmersmarket","twitter":"","street":"Main Street","city":"Ovid","state":"ny","zip":"14521","x":"-76.822157","y":"42.676729","tags":"baked goods crafts flowers eggs vegetables honey jams maple fruits"},{"type":"market","name":"Palisades Winter Farmers' Market","website":"http://www.palisadesfm.org","facebook":"https://www.facebook.com/Palisades-Indoor-Farmers-Market-NY-198235466870315/","twitter":"","street":"675 Oak Tree Road","city":"Palisades","state":"ny","zip":"10964","x":"-73.917284","y":"41.011605","tags":"baked goods cheese crafts eggs seafood vegetables honey jams meat plants prepared-foods coffee fruits mushrooms pet food"},{"type":"market","name":"Pawling Farmers Market","website":"http://www.pawlingfarmersmarket.org","facebook":"Pawling Farmer's Market - Saturdays 9am-1pm","twitter":"","street":"Charles Colman Blvd & West Main Street","city":"Pawling","state":"ny","zip":"12564","x":"-73.600845","y":"41.564215","tags":"organic baked goods cheese crafts flowers eggs herbs vegetables honey jams maple meat poultry soap wine coffee fruits mushrooms pet food"},{"type":"market","name":"Philmont Farmers' Market ","website":"http://www.philmontcooperative.com","facebook":"","twitter":"","street":"116 Main St. - opposite Local 111 restaurant ","city":"Village of Philmont","state":"ny","zip":"12565","x":"-73.649443","y":"42.249303","tags":"organic baked goods cheese crafts flowers eggs herbs vegetables honey jams maple meat plants poultry prepared-foods soap fruits"},{"type":"market","name":"Pitkin Verde Farmers Market","website":"http://www.cypresshills.org","facebook":"www.facebook.com/CHLDC","twitter":"twitter.com/CHLDC","street":"2094 Pitkin Avenue","city":"Brooklyn","state":"ny","zip":"11207","x":"-73.895438","y":"40.671863","tags":"flowers herbs vegetables fruits mushrooms"},{"type":"market","name":"Pleasantville Farmers Market - Indoor","website":"http://pleasantvillefarmersmarket.com","facebook":"https://www.facebook.com/PvilleFarmMarket","twitter":"","street":"40 Romer Avenue","city":"Pleasantville","state":"ny","zip":"10570","x":"-73.783867","y":"41.134211","tags":"organic baked goods cheese crafts flowers eggs seafood herbs vegetables honey jams maple meat nuts poultry prepared-foods soap coffee fruits juices mushrooms wild"},{"type":"market","name":"Pleasantville Farmers Market - Outdoor","website":"http://pleasantvillefarmersmarket.com","facebook":"https://www.facebook.com/PvilleFarmMarket","twitter":"","street":"Memorial Plaza (next to the train station)","city":"Pleasantville","state":"ny","zip":"10570","x":"-73.791678","y":"41.134760","tags":"organic baked goods cheese crafts flowers eggs seafood herbs vegetables honey jams maple meat nuts plants poultry prepared-foods soap wine coffee fruits juices mushrooms wild"},{"type":"market","name":"Poestenkill Farmers Market","website":"http://www.poestenkillfarmersmarket.com","facebook":"http://www.facebook.com/poestenkillfarmersmarket","twitter":"","street":"38 Davis Drive","city":"Poestenkill","state":"ny","zip":"12140","x":"-73.5635307","y":"42.6904758","tags":"baked goods cheese crafts flowers eggs herbs vegetables honey jams maple meat plants poultry soap wine fruits mushrooms pet food"},{"type":"market","name":"Port Chester Farmers Market","website":"https://www.portchesterfarmersmarket.com","facebook":"https://www.facebook/Port-Chester-Farmers-Market-1440567712732869/","twitter":"https://www.twitter.com/cgmarketsllc","street":"Highland St","city":"Port Chester","state":"ny","zip":"10573","x":"-73.661339","y":"41.002110","tags":"organic baked goods cheese eggs seafood herbs vegetables honey jams maple meat nuts poultry prepared-foods coffee fruits juices mushrooms pet food"},{"type":"market","name":"Roosevelt Community Farmers' Market","website":"http://www.rooseveltfarmersmarket.com","facebook":"https://www.facebook.com/Roosevelt-Community-Farmers-Market-1412573385674026/?ref=bookmarks","twitter":"@RCRGLI","street":"380 Nassau Road ","city":"Roosevelt","state":"ny","zip":"11575","x":"-73.5908479","y":"40.6817846","tags":"organic flowers vegetables honey maple fruits juices"},{"type":"market","name":"Salamanca Farmers market","website":"","facebook":"https://www.facebook.com/pages/Southern-Tier-Farmers-Market/165092373544019","twitter":"","street":"12 Park Ave","city":"Salamanca","state":"ny","zip":"14779","x":"-78.041832","y":"42.211214","tags":"baked goods crafts flowers eggs herbs vegetables honey jams maple meat plants poultry soap fruits"},{"type":"market","name":"Saranac Lake Village Farmers Market","website":"http://www.ausablevalleygrangefarmersmarkets.com","facebook":"https://www.facebook.com/ausablevalleygrangefarmersmarkets/","twitter":"","street":"Riverside Park","city":"Saranac Lake","state":"ny","zip":"12983","x":"-74.131251","y":"44.324630","tags":"baked goods cheese crafts flowers eggs vegetables honey jams maple meat nuts plants prepared-foods soap wine coffee fruits juices mushrooms"},{"type":"market","name":"Scottsville Midweek Farmers' Market","website":"","facebook":"Scottsville Midweek Farmers' Market","twitter":"","street":"61 Main St.","city":"Scottsville","state":"ny","zip":"14546","x":"-77.753379","y":"43.022276","tags":"baked goods cheese flowers eggs herbs vegetables honey jams meat poultry prepared-foods soap fruits"},{"type":"market","name":"Seneca Falls Farmers Market","website":"http://senecamarket.com","facebook":"https://www.facebook.com/SenecaFallsFarmersMarket/","twitter":"","street":"15 Water Street","city":"Seneca Falls","state":"ny","zip":"13148","x":"-76.800314","y":"42.909109","tags":"baked goods cheese crafts flowers eggs vegetables honey jams maple meat plants poultry prepared-foods soap coffee fruits pet food"},{"type":"market","name":"Sodus Farmers' Market","website":"https://www.sutmc.org/sodus-farmers-market","facebook":"https://www.facebook.com/SodusFarmersMarket/?eid=ARAx1anugPLGTuAOgrSyAlxV8qSLvqleZBvkN3fo2Pe5yANpwQzvWSFcv6MK2K1anPvrVy_2sGgpGRfe","twitter":"","street":"58 West Main Street","city":"sodus","state":"ny","zip":"14551","x":"-77.062753","y":"43.237102","tags":"baked goods cheese flowers herbs vegetables honey jams plants prepared-foods soap fruits"},{"type":"market","name":"Southern Tier Farmers Market - Olean","website":"","facebook":"https://www.facebook.com/pages/Southern-Tier-Farmers-Market/165092373544019","twitter":"","street":"1900 Constitution Ave","city":"Olean","state":"ny","zip":"14760","x":"-78.041832","y":"42.211214","tags":"baked goods crafts flowers eggs herbs vegetables honey jams maple plants soap fruits"},{"type":"market","name":"The cornwall farmers market","website":"","facebook":"","twitter":"","street":"183 main street","city":"cornwall n.y.","state":"ny","zip":"12518","x":"-74.059815","y":"41.442234","tags":"organic baked goods cheese flowers eggs vegetables honey jams meat prepared-foods soap coffee fruits"},{"type":"market","name":"Troy Waterfront Farmers Market","website":"http://troymarket.org","facebook":"facebook.com/troywaterfrontfarmersmarket","twitter":"","street":"Riverfront Park","city":"Troy","state":"ny","zip":"12180","x":"-73.691288","y":"42.732715","tags":"organic baked goods cheese flowers eggs seafood herbs vegetables honey jams maple meat nuts plants poultry prepared-foods soap trees wine coffee fruits grains juices mushrooms pet food tofu wild"},{"type":"market","name":"Village of Aurora Farmers Market","website":"https://auroranyfarmersmarket.com/","facebook":"https://www.facebook.com/Aurora-Farmers-Market-1619273541646945/","twitter":"","street":"Main Street (Route 90)","city":"Aurora","state":"ny","zip":"13026","x":"-76.700376","y":"42.745254","tags":"baked goods crafts flowers eggs herbs vegetables honey jams maple plants prepared-foods soap wine coffee fruits"},{"type":"market","name":"Voorheesville Farmers Market","website":"","facebook":"https://www.facebook.com/VoorheesvilleFarmersMarket","twitter":"","street":"68 Maple Ave.","city":"Voorheesville","state":"ny","zip":"12186","x":"-73.930027","y":"42.649656","tags":"baked goods cheese flowers eggs herbs vegetables honey jams maple meat plants poultry prepared-foods soap fruits"},{"type":"market","name":"Waterloo Rotary Farm Market","website":"","facebook":"https://www.facebook.com/rotaryfarmarket","twitter":"","street":"22 Locust Street","city":"Waterloo","state":"ny","zip":"13165","x":"-76.865814","y":"42.903737","tags":"baked goods cheese crafts flowers eggs vegetables honey jams maple coffee fruits"},{"type":"market","name":"Webster's Joe Obbie Farmers' Market, Inc.","website":"http://www.webstersjoeobbiefarmersmarketinc.org","facebook":"https://www.facebook.com/pages/Websters-Joe-Obbie-Farmers-Market-Inc/271407932889827","twitter":"","street":"1028 Ridge Road, Webster Towne Center","city":"Webster","state":"ny","zip":"14580","x":"-77.452948","y":"43.212229","tags":"baked goods crafts flowers vegetables honey jams maple meat plants fruits"},{"type":"market","name":"West Point-Town of Highlands Farmers Market","website":"","facebook":"https://www.facebook.com/pages/WestPointTownofHighlandsFarmersMarket","twitter":"","street":"Main street","city":"Village of Highland Falls","state":"ny","zip":"10928","x":"-73.96631","y":"41.36957","tags":"organic baked goods cheese crafts eggs herbs vegetables honey jams meat poultry prepared-foods soap fruits"},{"type":"market","name":"Woodstock Farm Festival","website":"https://www.woodstockfarmfestival.org/","facebook":"https://www.facebook.com/woodstockfarmfestival/","twitter":"","street":"6 Maple Lane","city":"Woodstock","state":"ny","zip":"12498","x":"-74.117834","y":"42.040522","tags":"organic baked goods flowers eggs seafood herbs vegetables honey jams maple meat plants poultry prepared-foods soap fruits mushrooms"},{"type":"market","name":"Yates County Cooperative Farm and Craft Market (Penn Yan Market)","website":"https://www.facebook.com/PennYan.Farmers.Market","facebook":"https://www.facebook.com/PennYan.Farmers.Market","twitter":"","street":"Main Street, North of Elm Street","city":"Penn Yan","state":"ny","zip":"14527","x":"-77.053889","y":"42.661345","tags":"organic baked goods cheese crafts flowers eggs herbs vegetables honey jams maple meat plants poultry soap fruits"}]
