"city","facebook","name","state","street","tags","twitter","type","website","x","y","zip"
"Baldwinsville","abbottfarmsny","Abbott Farms","ny","3275 Cold Springs Road","baked-goods canned preserved coffee tea dairy products dry beans eggs herbs fresh-fruits fresh-vegetables grains flour honey juices ciders maple-products nuts prepared-foods red-meat non-poultry-meat soap body-care","","farm","abbottfarms.com","-76.281483","43.144523","13027"
"Canton","www.facebook.com/anniesgarlic","Annies Garlic","ny","273 Morrill Rd","","","farm","www.anniesgarlic.com","-75.044278","44.555825","13617"
"Ulster Park","Apple Bun Farm Market","Apple Bin Farm Market","ny","810 Broadway Rt. 9W","baked-goods bedding plants canned preserved coffee tea dairy products eggs herbs fresh-fruits fresh-vegetables honey juices ciders maple-products nursery-stock nuts prepared-foods soap body-care","","farm","www.theapplebinfarmmarket.com","-73.9695269","41.8467297","12487"
"West Charlton","","Arnold's Farm Fresh Produce","ny","1319 Sacandaga Rd","baked-goods canned preserved coffee tea crafts woodworking cut-flowers dairy products herbs fresh-fruits fresh-vegetables honey maple-products nuts red-meat non-poultry-meat soap body-care","","farm","www.arnoldsproduce.com","-74.029509","42.971771","12010"
"Fultonviille","https://www.facebook.com/pages/Bellingers-Orchard/117953028227463","Bellinger's Orchard","ny","685 Argersinger Rd","baked-goods canned preserved dairy products fresh-fruits fresh-vegetables honey","https://twitter.com/Bellingersapple","farm","www.bellingersorchard.com","-74.393467","42.902931","12072"
"Frankfort","","Brick House Acres - Greenhouse & Berry Farm","ny","10628 Roberts Road","","","farm","","-75.192754","43.00074","13340"
"Rochester","https://www.facebook.com/brightonhoney","Brighton Honey","ny","106 Norman Rd","honey","https://twitter.com/brightonhoney","farm","https://www.brightonhoney.com/","-77.639933","43.112030","14623"
"Campbell Hall","","C. Rowe & Sons","ny","113 Station Road","fresh-fruits fresh-vegetables grains flour","","farm","","-74.2139200","41.4695350","10916"
"Marcy","https://www.facebook.com/pages/Candellas-Farm-Marcy-You-Pick-Strawberries/110272999063769","Candellas Farm","ny","9256 River Road","bedding plants fresh-fruits fresh-vegetables honey maple-products","","farm","www.candellasfarm.com","-75.2756664","43.1382071","13403"
"Deposit","http://www.facebook.com/catskillcattle.com","Catskill Cattle Co. - Catskill Fresh Farmstand","ny","96 Laurel Bank Ave","baked-goods bedding plants canned preserved eggs herbs fresh-fruits fresh-vegetables honey maple-products pet-food poultry fowl","","farm","http://www.catskillfresh.com","-75.407016","42.066716","13754"
"Amenia","","Cedar Hill Farm","ny","176 Leedsville Rd","red-meat non-poultry-meat","","farm","","-73.5112340","41.8325419","12501"
"Sherburne","http://www.facebook.com/cooksmaple","Cook's Maple Products","ny","247 County Road 20","maple-products","http://www.twitter.com/cooksmaple","farm","http://www.cooksmaple.com","-75.546679","42.648135","13460"
"Jefferson","https://www.facebook.com/cowbella","Cowbella Creamery at Danforth Jersey Farm","ny","Danforth Jersey Farm, 157 Danforth Road","dairy products","","farm","www.cowbella.com","-74.5707210","42.4952520","12093"
"collins","https://www.facebook.com/CreeksideMarketCollins/?ref=aymt_homepage_panel","Creekside Market","ny","13971 route 62","bedding plants canned preserved cut-flowers herbs fresh-fruits fresh-vegetables honey maple-products","","farm","http://www.creeksideproduce.com/","-78.9284790","42.4986310","14034"
"Cazenovia","https://www.facebook.com/pages/Critz-Farms","Critz Farms","ny","3232 Rippleton Road","canned preserved cut-flowers dairy products fresh-fruits honey juices ciders maple-products prepared-foods wine spirits beer hard-cider","https://www.twitter.com/critzfarms","farm","www.critzfarms.com","-75.871351","42.876558","13035"
"Ballston Spa","https://www.facebook.com/DakotaRidgeFarm","Dakota Ridge Farm","ny","189 East High Street","crafts woodworking","https://twitter.com/DakotaRidgeFarm","farm","www.dakotaridgefarm.com","-73.832763","43.002172","12020"
"St. Johnsville","","Damin Farm","ny","8083 State Hwy 5","canned preserved dairy products eggs herbs fresh-fruits fresh-vegetables honey maple-products nuts poultry fowl red-meat non-poultry-meat","","farm","","-74.725050","43.004559","13452"
"Hubbardsville ","https://www.facebook.com/dartstreefarm","Dart's Tree Farm ","ny","7745 Hill Road ","nursery-stock","","farm","","-75.483456","42.829149","13355"
"Millerton","https://www.facebook.com/dashingstarfarm","Dashing Star Farm","ny","157 Indian Lake Road","eggs poultry fowl red-meat non-poultry-meat","","farm","dashingstarfarm.com","-73.5177530","41.9143410","12546"
"Erieville","https://www.facebook.com/dizzylizziesfarm?ref=hl","Dizzy Lizzie's Farm","ny","3823 Sanderson Road","bedding plants cut-flowers dry beans eggs herbs fresh-fruits fresh-vegetables maple-products","","farm","www.dizzylizziesfarm@gmail.com","-75.744191","42.839187","13061"
"New Paltz","https://www.facebook.com/dresselfarms/","Dressel Farms","ny","271 State Route 208","fresh-fruits fresh-vegetables honey juices ciders maple-products","","farm","http://www.dresselfarms.com/","-74.1111720","41.7146100","12561"
"East Meadow","https://www.facebook.com/EastMeadowFarmStand/","East Meadow Farm - CCE of Nassau County","ny","832 Merrick Ave","baked-goods canned preserved cut-flowers eggs fresh-fruits fresh-vegetables honey maple-products","","farm","http://ccenassau.org/","-73.567670","40.700695","11554"
"Cornwall","https://www.facebook.com/edgwickfarm","Edgwick Farm","ny","348 Angola Road","dairy products eggs","","farm","","-74.054181","41.414519","12518"
"East Hampton","www.facebook.com/FoodPantryFarm","Food Pantry Farm, Inc. @ the EECO Farm Stand","ny"," 55 Long Lane (EECO Farm Stand)","baked-goods canned preserved cut-flowers dairy products eggs herbs fresh-fruits fresh-vegetables honey juices ciders mushrooms prepared-foods","","farm","www.foodpantryfarm.org","-72.207546","40.970660","11937"
"Gardiner","https://www.facebook.com/fullmoonfarmny","Full Moon Farm","ny","54 Steves Lane","poultry fowl","","farm","http://www.fullmoonfarmny.com/","-74.1502860","41.6953480","12525"
"Walworth","https://www.facebook.com/YouPickFruit","G and S Orchards","ny","825 Atlantic Avenue","cut-flowers herbs fresh-fruits fresh-vegetables honey","https://www.twitter.com/GandSOrchards","farm","http://www.gandsorchards.com","-77.338466","43.165420","14568"
"Memphis","","Gillie Brook Farm","ny","6147 Gillie Brook Road","fresh-vegetables","","farm","www.gilliefarms.com","-76.352603","43.073066","13112"
"Cortland","","Halls Hill Blueberry Farm","ny","2110 Tower Road","","","farm","www.hallshillblueberryfarm.com","-76.137209","42.554060","13045"
"Martville","https://www.facebook.com/HappyHoovesOrganicFarm/","Happy Hooves Organic Farm","ny","13054 Ira Station rd","baked-goods canned preserved eggs honey pet-food poultry fowl red-meat non-poultry-meat soap body-care","","farm","http://betterbeef4u.com/","-76.611156","43.251306","13111"
"Waddington","","Harmony Farm Apiary","ny","273 Randall Road","honey","","farm","http://www.harmonyfarm.net","-75.238035","44.803357","13658"
"Ghent","Hawthorne Valley Farm Store","Hawthorne Valley Farm Store","ny","327 County Route 21C","baked-goods bedding plants canned preserved coffee tea dairy products dry beans eggs herbs fresh-fruits fresh-vegetables grains flour honey juices ciders maple-products mushrooms nuts pet-food poultry fowl prepared-foods red-meat non-poultry-meat soap body-care tofu non-animal protein","","farm","http://hawthornevalleyfarm.org/where-to-buy/farm-store/","-73.5947470","42.2706611","12075"
"Lowville","herrdale acres","Herrdale Acres Grassfed Beef","ny","7161 West Rd","","","farm","www.herrdaleacres.com","-75.5214759","43.7639003","13367"
"Remsen","https://www.facebook.com/pages/Heywoods-Blueberries/269549785195?sk=timeline","Heywoodss Blueberries","ny","9947 Evans Road","","","farm","heywoodsblueberries.com","-75.2208138","43.3457168","13438"
"Fort Edward","https://www.facebook.com/hiddennestfarm","Hidden Nest Farm","ny","","eggs poultry fowl red-meat non-poultry-meat","","farm","https://www.hiddennestfarm.com","-73.519735","43.281767","12828"
"Yorktown Heights","https://www.facebook.com/hilltophanoverfarm/","Hilltop Hanover Farm & Environmental Center","ny","1271 Hanover Street","baked-goods coffee tea cut-flowers dry beans eggs fresh-vegetables grains flour honey maple-products","https://twitter.com/friendsofhhfarm","farm","www.hilltophanoverfarm.org","-73.774207","41.252254","10598"
"Chittenango","Honey Hill Orchard & Apiary","Honey Hill Orchard & Apiaries","ny","1250 Kinderhook Rd ","fresh-fruits honey","","farm","","-75.913081","43.064624","13037"
"LeRoy","","J&W Farm","ny","7971 Vallance Rd.","cut-flowers fresh-fruits fresh-vegetables","","farm","","-77.960827","43.034078","14482"
"Kingston","https://www.facebook.com/KingstonYMCAFarmProject","Kingston YMCA Farm Project","ny","507 Broadway","cut-flowers herbs fresh-fruits fresh-vegetables","","farm","kingstonymcafarmproject.org","-74.0012350","41.9276140","12401"
"Kent","https://www.facebook.com/Lee.Farms.Organic.Beef?ref=hl","Lee Farms","ny","1417 Sawyer Rd","eggs fresh-vegetables red-meat non-poultry-meat","","farm","","-78.1576730","43.3466830","14477"
"Gasport","https://www.facebook.com/pages/Librock-Beef/356668141060191","Librock Beef","ny","5288 Gasport Rd","","","farm","www.librockbeef.com","-78.5778000","43.1564310","14067"
"Skaneateles","https://www.facebook.com/lockwoodlavenderfarm","Lockwood Lavender Farm","ny","1682 West Lake Road","herbs honey","","farm","","-76.393362","42.853001","13152"
"West Winfield","","Loiacono Farm","ny","573 Meeting House Road","fresh-fruits fresh-vegetables","","farm","","-75.165333","42.914275","13491"
"Wayland","Loon Lake Organics","Loon Lake Organics","ny","10569 County Route 92","fresh-fruits fresh-vegetables","","farm","","-77.569955","42.513065","14572"
"Warwick","https://www.facebook.com/lowlandfarm","Lowland Farm","ny","68 Prices Switch Road","poultry fowl","","farm","www.lowlandfarm.com/","-74.460853","41.260494","10990"
"Ghent","Made in Ghent","Made in Ghent","ny","Little Ghent Farm, 282 Snyder Road","poultry fowl prepared-foods red-meat non-poultry-meat","https://www.twitter.com/madeinghent","farm","www.madeinghent.com","-73.643255","42.330964","12075"
"Newport","https://www.facebook.com/MAWSFarm","MAWS Farm","ny","7342 Main Street, State Route 28","baked-goods bedding plants canned preserved crafts woodworking cut-flowers eggs herbs fresh-fruits fresh-vegetables honey poultry fowl red-meat non-poultry-meat","","farm","www.MAWSFarm.com","-75.010097","43.180348","13416"
"Carthage","","Mill Creek Farm","ny","19830 Eddy Road","","","farm","","-75.740696","43.954667","13619"
"Syracuse","https://www.facebook.com/pages/Navarino-Orchard/94081824018","Navarino Orchard","ny","3655 Cherry Valley Tpk. (rt.20)","","","farm","navarinoorchard.com","-76.236325","42.986208","13215"
"Conesus Lake ","oldesilofarm1@gmail.com","Olde Silo Farm","ny","5486 South Livonia Road","cut-flowers herbs fresh-fruits fresh-vegetables honey","","farm","","-77.672284","42.754630","14435"
"Oswego","ontaroorchards","Ontario Orchards","ny","7735 State Route 104","baked-goods bedding plants canned preserved coffee tea crafts woodworking cut-flowers dairy products dry beans eggs fish seafood herbs fresh-fruits fresh-vegetables grains flour honey juices ciders maple-products mushrooms nursery-stock nuts pet-food poultry fowl red-meat non-poultry-meat wine spirits beer hard-cider","","farm","ontarioorchards.com","-76.5775130","43.4098990","13126"
"Baldwinsville","https://www.facebook.com/reevesfarmsllc","Reeves Farms","ny","1220 W. Genesee Road","","","farm","www.reevesfarms.com","-76.415148","43.165342","13027"
"Keene Valley","","Rivermede Farm Market","ny","1925 Rt. 73","baked-goods bedding plants canned preserved coffee tea crafts woodworking cut-flowers dairy products eggs herbs fresh-fruits fresh-vegetables honey juices ciders maple-products mushrooms nuts poultry fowl prepared-foods red-meat non-poultry-meat soap body-care","","farm","rivermedefarm.com","-73.786625","44.199360","12943"
"Jamesville","Rocking Horse Farm","Rocking Horse Farm","ny","3736 Apulia Road","honey maple-products","","farm","www.rockinghorsefarmcny.com","-76.068845","42.952424","13078"
"Warnerville ","","Rocks and Roots Farm LLC","ny","151 Hadsell rd","dairy products fresh-vegetables honey mushrooms wild-harvested forest-products","","farm","","-74.511437","42.643584","12187"
"Hollowville","https://www.facebook.com/pages/Scarecrow-Farm","Scarecrow Farm","ny","29 Old Barrington Road","baked-goods canned preserved crafts woodworking eggs herbs fresh-vegetables honey","","farm","www.scarecrowfarmny.com","-73.660002","42.215512","12530"
"Brooktondale","https://www.facebook.com/ShelterbeltFarm","Shelterbelt Farm","ny","200 Creamery Road","honey poultry fowl red-meat non-poultry-meat","","farm","http://www.shelterbeltfarm.com","-76.352390","42.380125","14817"
"Poughkeepsie","www.facebook.com/sproutcreekfarm","Sprout Creek Farm","ny","34 Lauer Road","baked-goods canned preserved dairy products eggs honey maple-products poultry fowl red-meat non-poultry-meat","www.twitter.com/sproutcreekfarm","farm","www.sproutcreekfarm.org","-73.8148002","41.6598912","12603"
"Woodhull","facebook.com/SteamyFarms","Steamy Farms","ny","County Route 100","eggs honey poultry fowl red-meat non-poultry-meat","","farm","","-77.408089","42.038941","14898"
"Scottsville","https://www.facebook.com/stokoefarm","Stokoe Farms","ny","656 South Road","baked-goods canned preserved coffee tea crafts woodworking honey juices ciders maple-products prepared-foods soap body-care","","farm","stokoefarms.com","-77.773829","42.992039","14546"
"Schuyler Falls","https://www.facebook.com/pages/Stonebeck-Farm/203077556515064","Stonebeck Farm","ny","143 Strackville Road","","","farm","http://stonebeckfarm.blogspot.com/","-73.6887698","44.5976053","12985"
"Erin","stoneyridgeorchard","Stoneyridge Orchard & Winery LLC","ny","160 Bixby rd","baked-goods canned preserved crafts woodworking fresh-fruits fresh-vegetables honey juices ciders wine spirits beer hard-cider","","farm","www.stoneyridgeorchard.com","-76.6685290","42.1597360","14838"
"Medina","https://www.facebook.com/pages/Teasel-Meadow-Farms/246518425811","Teasel Meadow Farms","ny","11205 west Shelby Rd","red-meat non-poultry-meat","","farm","www.teaselmeadowfarms.com","-78.3978140","43.1652420","14103"
"Newark","www.facebook.com/theappleshed","The Apple Shed","ny","3391 Fairville Maple Ridge Rd.","baked-goods canned preserved coffee tea dairy products fresh-fruits fresh-vegetables honey juices ciders maple-products prepared-foods","www.twitter.com/theappleshed.com","farm","www.theappleshed.com","-77.0979550","43.1292743","14513"
"Hamden","https://www.facebook.com/Lucky.Dog.Farm.And.Store?ref=bookmarks","The Lucky Dog Farm Store and Cafe","ny","35796 State Highway 10","baked-goods canned preserved coffee tea crafts woodworking dairy products dry beans eggs fish seafood herbs fresh-fruits fresh-vegetables grains flour honey juices ciders maple-products mushrooms nuts pet-food poultry fowl prepared-foods red-meat non-poultry-meat soap body-care tofu non-animal protein wild-harvested forest-products wine spirits beer hard-cider","","farm","http://www.luckydogorganic.com/","-74.994065","42.191338","13782"
"Yorktown Heights","","The Meadows Farm","ny","329 Underhill Ave","","","farm","Meadowsfarmmarket.com","-73.780818","41.268860","10598"
"Pomona","https://www.facebook.com/pages/The-Orchards-of-Concklin/111163468897423","The Orchards Of Concklin","ny","2 So. Mountain Rd ","baked-goods bedding plants canned preserved coffee tea cut-flowers dairy products dry beans eggs herbs fresh-fruits fresh-vegetables honey juices ciders maple-products nuts","","farm","http://theorchardsofconcklin.com","-74.0320457","41.1786064","10970"
"Millbrook","https://www.facebook.com/walbridgefarmmarket","Walbridge Farm Market","ny","538 Route 343","baked-goods canned preserved dairy products eggs fresh-fruits fresh-vegetables honey juices ciders maple-products poultry fowl red-meat non-poultry-meat","","farm","walbridgefarm.com","-73.651539","41.775037","12545"
"Frankfort","","Windecker's Grassy Knoll Beef","ny","656 Minots Corner Rd","red-meat non-poultry-meat","","farm","www.windeckerfarm.com","-75.048407","43.102139","13340"
"New York","","112st Madison Avenue","ny","112th Madison Avenue","baked goods crafts flowers herbs vegetables honey jams nuts prepared-foods soap","","market","","-73.9493","40.7939","10029"
"New York","https://www.facebook.com/125thStreetFarmersMarket","125th Street Fresh Connect Farmers' Market","ny","163 West 125th Street and Adam Clayton Powell, Jr. Blvd.","organic baked goods cheese crafts flowers eggs herbs vegetables honey jams maple meat nuts poultry prepared-foods soap wine coffee fruits juices","https://twitter.com/FarmMarket125th","market","http://www.125thStreetFarmersMarket.com","-73.9482477","40.8089533","10027"
"Bronx","https://www.facebook.com/CommunityFoodAction/","170 Farm Stand","ny","NE Corner of 170th St. & Townsend Avenue","eggs vegetables honey beans fruits grains mushrooms","https://twitter.com/GoodEatsBX","market","","-73.9167841","40.8398843","10452"
"New York ","https://www.facebook.com/ManhattanGreenmarkets/","175th Street Greenmarket","ny","175th Street between Wadsworth & Broadway","baked goods cheese flowers eggs seafood herbs vegetables honey jams fruits grains juices","","market","https://www.grownyc.org/greenmarket/manhattan/175th-street","-73.938049","40.846354","10033"
"Rochester","","441 Ministries Farm Stand","ny","441 Parsells Avenue","vegetables fruits","","market","","-77.5666043","43.1658344","14609"
"New York","https://www.facebook.com/ManhattanGreenmarkets","57th Street Greenmarket","ny","W 57 St. & 9 Ave","baked goods cheese eggs vegetables meat poultry fruits","","market","http://www.grownyc.org","-73.985839","40.768159","10019"
"New York","https://www.facebook.com/ManhattanGreenmarkets","79th Street Greenmarket","ny","Columbus - W 78 & 81 Sts.","baked goods cheese flowers eggs seafood herbs vegetables honey jams maple meat plants poultry prepared-foods fruits","","market","http://www.grownyc.org","-73.9757","40.7818","10024"
"New York","https://www.facebook.com/ManhattanGreenmarkets","82nd Street Greenmarket","ny","E 82nd St. - 1st & York Ave","organic baked goods cheese seafood vegetables honey meat poultry fruits","","market","http://www.grownyc.org","-73.950090","40.773749","10028"
"New York","https://www.facebook.com/ManhattanGreenmarkets","92nd Street Greenmarket","ny","1st Ave - E 92nd & 93 Sts.","organic baked goods seafood vegetables meat fruits","","market","http://www.grownyc.org","-73.946421","40.780931","10128"
"New York","https://www.facebook.com/ManhattanGreenmarkets","97th Street Greenmarket","ny","W 97 St. & Columbus","baked goods cheese eggs herbs vegetables honey meat poultry fruits","","market","http://www.grownyc.org","-73.9670120","40.7935600","10025"
"New York","https://www.facebook.com/ManhattanGreenmarkets","Abingdon Square Greenmarket","ny","W12 St. & 8th Ave","organic baked goods cheese flowers eggs seafood herbs vegetables honey jams meat poultry fruits","","market","http://www.grownyc.org","-74.005280","40.737177","10014"
"Rome","","Ace Farmers Market","ny","115 Black River Blvd","","","market","","-75.4541","43.2098",""
"Brooklyn","","Added Value Farm Stand at Governors Island","ny","Gresham Rd","","","market","","-74.0231","40.6875","11231-1235"
"Rochester","","Aenon Baptist Church Farm Stand","ny","175 Genesee Street","vegetables fruits","","market","","-77.6360764","43.1466026","14611"
"Hogansburg","","Akwesasne Farmers Market","ny","469 State Route 37, across from Akwesasne Sports","","","market","","-74.6677","44.9739",""
"Alexandria Bay","https://www.facebook.com/pages/Alexandria-Bay-Chamber-of-Commerce/82504121853","Alexandria Bay Farmers Market","ny","Route 12","baked goods crafts vegetables honey jams maple plants wine fruits","","market","http://www.visitalexbay.org","-75.9157","44.3314","13607"
"Alfred","https://www.facebook.com/Alfredfarmersmarket","Alfred Farmers Market","ny","Bandstand Main Street","organic baked goods flowers eggs herbs vegetables honey maple meat poultry prepared-foods wine fruits","","market","https://www.alfredfarmersmarket.com","-77.789505","42.253557","14802"
"Altamont","","Altamont Farmer's Market","ny","Main Street & Maple Avenue","baked goods herbs vegetables honey maple fruits","","market","","-74.0325","42.7013","12009"
"","","Amenia Farmers Market","ny","4988 Route 22","","","market","","-73.5549","41.8513",""
"Amsterdam ","Amsterdam Saturday Farmers Market","Amsterdam Saturday Farmers/Crafters Market","ny","100 Church St","baked goods flowers eggs herbs vegetables honey jams plants poultry soap fruits mushrooms","@BenWallach1","market","http://www.fmfma.org","-74.184900","42.939627","12010"
"Angelica","https://www.facebook.com/AngelicaFarmersMarket","Angelica Farmers' Market","ny","Park Circle, Main Street","baked goods cheese crafts flowers eggs herbs vegetables honey jams maple meat nuts plants poultry prepared-foods soap trees coffee fruits pet food","","market","http://www.localharvest.org/angelica-farmers-market-M23451","-78.015956","42.306061","14709"
"Elmont ","www.facebook.com/longislandfarmtopreschool","Anna House Farm Stand","ny","2150 Hempstead Tpke","vegetables fruits","","market","http://www.childcarenassau.org","-73.716466","40.708292","11003"
"Arcade","","Arcade Farmers' Market","ny","400 W. Main St.","organic baked goods cheese crafts flowers eggs herbs vegetables honey jams maple meat plants poultry prepared-foods wine","","market","","-78.4308288","42.5337764","14009"
"Poughkeepsie","","Arlington Farmers Market","ny","123 Raymond Avenue ","baked goods cheese crafts flowers eggs herbs vegetables honey jams maple meat plants poultry prepared-foods soap wine fruits juices mushrooms pet food","","market","http://www.arlingtonhasit.org","-73.901164","41.691447","12603"
"Queens","https://www.facebook.com/QueensGreenmarkets","Astoria Greenmarket","ny","14 St - 31 Ave & 31 Rd","vegetables","","market","http://www.grownyc.org","-73.932452","40.767672","11106"
"Auburn","https://www.facebook.com/AuburnFarmersCoOpMarketInc","Auburn Farmers Co-op Market Inc.","ny","97 state street","baked goods cheese crafts flowers eggs herbs vegetables honey jams maple meat plants poultry soap fruits","https://twitter.com/AuburnMarket","market","http://www.Auburnfarmerscoopmarketinc.com","-76.570169","42.933812","13021"
"Ausable Forks","https://www.facebook.com/pages/Ausable-Valley-Farmers-Market/124928937581337","Ausable Valley Farmers Market","ny","","baked goods cheese crafts flowers herbs vegetables honey jams maple meat plants prepared-foods","","market","","-73.6676","44.4427","12912"
"Avon","","Avon Market Days","ny","270 East Main St.","organic baked goods cheese crafts flowers eggs herbs vegetables honey jams maple meat plants prepared-foods wine fruits","","market","http://www.avonfarmersmarket.org","-77.7338220","42.9107090","14414"
"Baldwin, Nassau County","https://www.facebook.com/BaldwinFarmersMarket","Baldwin Farmers Market","ny","2754 Grand Ave","","","market","","-73.6128","40.6424","11510"
"Ballston Spa","","Ballston Spa Farmers Market","ny","Wiswall Park, Front & Low Streets","baked goods crafts flowers eggs herbs vegetables honey jams maple meat plants poultry prepared-foods soap fruits","","market","http://www.ballston.org","-73.849840","43.002364","12020"
"Brooklyn","https://www.facebook.com/BrooklynGreenmarkets","Barclays Center","ny","Flatbush Ave between Atlantic Ave & Pacific St","baked goods cheese seafood herbs vegetables honey jams fruits","","market","http://www.grownyc.org","-73.951143","40.677963","11217"
"Barker","","Barker Farmers Market","ny","Main St., & Quaker Rd.","baked goods cheese crafts flowers eggs vegetables honey jams plants prepared-foods soap trees fruits","","market","http://www.VillageofBarker@roadrunner.com","-78.5548023","43.3301158","14012"
"Barryville","https://www.facebook.com/barryvillefarmersmarket","Barryville Farmers' Market","ny","3385 Route 97","organic baked goods crafts flowers eggs herbs vegetables honey jams meat poultry prepared-foods soap wine coffee fruits juices mushrooms","","market","http://www.barryvillefarmersmarket.com/","-74.913476","41.477836","12719"
"Brooklyn","","Bartel Pritchard Square Greenmarket","ny","Prospect Park West & 16th St., inside park entance","organic baked goods seafood vegetables meat plants fruits","","market","http://www.grownyc.org/greenmarket","-73.979316","40.661100",""
"Steuben","","Bath Saturday Farmers Market","ny","Pultney Park, Steuben St","","","market","","-75.5123","42.9467",""
"New York","https://www.facebook.com/BrooklynGreenmarkets","Bay Ridge Greenmarket","ny","3rd Ave & 95 St.","baked goods cheese seafood vegetables honey meat fruits","","market","http://www.grownyc.org","-74.032102","40.616950","11209"
"Liverpool","","Bayberry Plaza Farmers Market","ny","Bayberry Plaza, Kinney lot, 7608 Oswego Rd","crafts vegetables jams maple plants","","market","","-76.2254","43.1389","13090"
"New York","","Bayville Farmers Market","ny","corner of Bayville and Ludlum Avenues","","","market","","-73.5492","40.9053","11530"
"Beacon","https://www.facebook.com/Beacon-Farmers-Market-232116360132380/","Beacon Farmers Market (Summer)","ny","Ferry Dock, Train Station Parking Lot","organic baked goods cheese crafts flowers eggs herbs vegetables jams meat plants poultry prepared-foods soap trees wine coffee beans fruits grains mushrooms tofu wild","@beaconfarmermkt","market","http://beaconfarmersmarket.com","-73.985119","41.504816","12508"
"Bedford Hills","https://www.facebook.com/BedfordHillsFarmersMarket/","Bedford Hills Winter Farmers' Market","ny","Train Station - Depot Plaza","organic baked goods cheese crafts flowers eggs seafood herbs vegetables honey jams meat nuts plants poultry prepared-foods soap wine coffee fruits juices mushrooms pet food","","market","","-73.6999360","41.2373160","10507"
"Belmont","https://www.facebook.com/pages/Southern-Tier-Farmers-Market/165092373544019","Belmont Farmers Market","ny","5429 State Route 19N","baked goods crafts eggs herbs vegetables honey jams maple meat plants soap fruits","","market","","-78.0565113","42.2489416","14813"
"Brooklyn","https://www.facebook.com/BrooklynGreenmarkets","Bensonhurst","ny","18th Ave between 81st & 82nd Streets","baked goods vegetables honey","","market","http://www.grownyc.org","-74.0109559","40.6155350","11214"
"Rome","","Berkshire - Rome Vendors' Market","ny","101 block West Dominick","baked goods cheese crafts flowers herbs vegetables honey jams maple plants prepared-foods wine fruits","","market","","-75.458307","43.210056","13440"
"","","Big Flats Community Market","ny","476 Maple Street","","","market","","-73.945","40.6612",""
"Blasdell","https://www.facebook.com/The Blasdell Farmers' Market","Blasdell Farmers' Market","ny","3785 South Park Avenue","baked goods cheese crafts flowers eggs herbs vegetables honey jams maple meat plants poultry prepared-foods soap wine fruits pet food","","market","http://www.hamburg-chamber.org/visit/farmers_market_history.aspx","-78.824204","42.795179","14219"
"Bolton Landing","","Bolton Landing Chamber of Commerce Farmers' Market","ny","7 Goodman Ave","","","market","http://www.boltonlandingfarmersmarket.com/boltonlandingfarmersmarket.com/Welcome.html","-73.6563","43.5564","12814"
"Boonville","https://www.facebook.com/groups/450336421724155/","Boonville Farmers Market","ny","222 Schuyler St.","baked goods cheese crafts flowers eggs herbs vegetables honey jams maple plants soap fruits","","market","http://www.boonvillefarmersmarket.com","-75.344045","43.481778","13309"
"Brooklyn","https://www.facebook.com/BrooklynGreenmarkets","Boro Park Greenmarket","ny","14th Ave - 49 & 50 Sts","vegetables fruits","","market","http://www.grownyc.org","-73.9904970","40.6331370","11219"
"New York","https://www.facebook.com/ManhattanGreenmarkets","Bowling Green Greenmarket","ny","Broadway & Battery Place","baked goods herbs vegetables prepared-foods fruits","","market","http://www.grownyc.org","-74.014313","40.704587","10004"
"Branchport","https://www.facebook.com/branchport.farmers.market?ref=hl","Branchport Farmers Market ","ny","3369 Guyanoga Road","baked goods cheese crafts eggs herbs vegetables maple meat poultry soap wine fruits mushrooms","","market","","-77.1538342","42.6012952","14418"
"Brewster","","Brewster Farmers Market","ny","15 Mt. Ebo Rd. So.","organic baked goods flowers eggs herbs vegetables honey jams maple meat plants poultry prepared-foods soap fruits mushrooms","","market","http://www.brewsterfarmersmarket.com","-73.573673","41.434350","10509"
"Rochester","","Bridges to Wellness Farm Stand","ny","700 North Street","vegetables fruits","","market","","-77.5958330","43.1706700","14605"
"Rochester","https://www.facebook.com/pages/Brighton-Farmers-Market/113613384778","Brighton Farmers' Market","ny","1150 Winton Road S.","organic baked goods cheese flowers eggs herbs vegetables honey jams maple meat plants poultry prepared-foods soap coffee beans fruits grains juices mushrooms","","market","http://www.brightonfarmersmarket.org","-77.567072","43.122691","14618"
"Brockport","","Brockport Farmers Market","ny","Market St, between Main & Water Sts","","","market","","-77.937","43.2153",""
"Bronx","https://www.facebook.com/bronxgreenmarkets","Bronx Borough Hall Greenmarket","ny","Grand Concourse & 161 St","baked goods vegetables honey fruits","","market","http://www.grownyc.org","-73.922603","40.826979","10452"
"Bronxville","https://www.facebook.com/BronxvilleFarmersMarket/","Bronxville Farmers Market","ny","Stone Place and Paxton Avenue ","organic baked goods flowers eggs seafood herbs vegetables honey jams maple meat nuts plants poultry prepared-foods soap wine coffee fruits juices mushrooms wild","","market","http://www.bronxvillefarmersmarket.com/","-73.8377863","40.9399964","10708"
"Brooklyn","https://www.facebook.com/BrooklynGreenmarkets","Brooklyn Borough Hall Greenmarket","ny","Court & Montague","organic baked goods cheese flowers seafood vegetables honey maple plants poultry wine fruits","","market","http://www.grownyc.org","-73.9903552","40.6937227","11201"
"Binghamton","Facebook.com/broomecountyregionalfarmersmarket","Broome County Regional Farmers Market","ny","840 Upper Front St","organic baked goods cheese flowers eggs herbs vegetables honey jams maple meat plants poultry prepared-foods soap wine coffee fruits juices mushrooms pet food","","market","http://www.bcregionalmkt.com","-75.906011","42.128211","13905"
"New York City","","Brownsville Community Farmers Market","ny","BMS Family Health Center lot, 592 Rockaway Ave.","","","market","","-73.9098","40.6653",""
"Brooklyn","https://www.facebook.com/BrooklynGreenmarkets","Brownsville Pitkin YM","ny","Thomas Boyland St. at Pitkin Ave","organic vegetables jams plants fruits","","market","http://www.grownyc.org","-73.9135787","40.6692495","11212"
"Brooklyn","https://www.facebook.com/BrooklynGreenmarkets","Brownsville Rockaway YM","ny","Rockaway Ave at Livonia Ave","organic vegetables jams plants fruits","","market","http://www.grownyc.org","-73.908953","40.662546","11212"
"Brunswick","","Brunswick Farmers Market","ny","18 Keyes Lane","baked goods cheese crafts eggs vegetables jams meat plants prepared-foods","","market","http://www.townofbrunswick.org","-73.620372","42.753063","12180"
"Sodus","https://www.facebook.com/BurnapsFarmMarket","Burnap's Farm Market & Garden Cafe","ny","7277 Maple Ave.","","","market","","-77.0639","43.2637","14551"
"Burnt Hills","Route 50 Green Market","Burnt Hills Farmers Market","ny","802 Saratoga Rd. (Route 50)","baked goods flowers eggs herbs vegetables jams meat plants fruits","","market","","-73.8997429","42.9085405","12027"
"Brooklyn","","Bushwick Farmers' Market","ny","Halsey Street and Broadway","organic baked goods cheese flowers eggs herbs vegetables honey jams nursery plants prepared-foods","","market","http://www.EcoStationNY.org","-73.914932","40.685430","11233"
"Brooklyn","","Bushwick Farmers' Market Satellite Farm Stand","ny","Woodbine Street and Irving Avenue","organic baked goods cheese flowers eggs herbs vegetables honey jams plants prepared-foods","","market","http://www.EcoStationNY.org","-73.911992","40.697454","11237"
"Callicoon","https://www.facebook.com/scfma","Callicoon Farmers Market","ny","A. Dorrer Drive","organic baked goods cheese crafts flowers eggs seafood herbs vegetables honey jams maple meat plants poultry prepared-foods soap wine coffee fruits grains juices mushrooms","","market","http://www.sullivancountyfarmersmarkets.org","-75.058104","41.765515","12723"
"Callicoon","https://www.facebook.com/scfma","Callicoon Indoor Winter Farmers' Market","ny","8 Creamery Road","organic baked goods cheese crafts flowers eggs seafood herbs vegetables honey jams maple meat plants poultry prepared-foods soap wine coffee fruits grains juices mushrooms","","market","http://www.sullivancountyfarmersmarkets.org","-75.0555","41.76402","12723"
"Cambridge","https://www.facebook.com/Cambridge-Farmers-Market-228215317663/","Cambridge Valley Farmers Market","ny","Corner of Main and Broad ","organic baked goods cheese flowers eggs vegetables jams maple meat plants poultry prepared-foods wine fruits","","market","","-73.3813726","43.0280128","12816"
"Canandaigua","","Canandaigua Farmers Market","ny","Corner of Mill and Beaman Sts.","organic baked goods cheese flowers eggs herbs vegetables honey jams maple meat nursery plants poultry prepared-foods soap trees wine","","market","http://www.canandaiguafarmersmarket.com","-77.2785","42.8854","14424"
"Canandaigua","http://www.facebook.com/VACanandaigua","Canandaigua VA Medical Center Farmers Market","ny","400 Fort Hill Ave","organic baked goods flowers eggs herbs vegetables honey jams maple meat plants poultry soap coffee fruits","","market","","-77.2708381712437","42.9008046537638","14424"
"Canton","https://www.facebook.com/CantonNYFarmersMarket?fref=ts","Canton Farmers Market","ny","Main & Court ","organic baked goods cheese crafts eggs herbs vegetables honey jams maple meat plants poultry prepared-foods soap wine fruits","","market","http://www.cantonfarmersmarket.org","-75.168835","44.595500",""
"Cape Vincent","","Cape Vincent Farmers & Crafters Market","ny","Village Green, Broadway (Rt. 12)","","","market","","-76.3343","44.1289","13618"
"Menands","","Capital District Farmers Market in Menands","ny","381 Broadway (Route 32)","","","market","http://www.capitaldistrictfarmersmarket.org","-73.718251","42.694982","12204"
"Albany, NY","","Capital District Physicians' Health Plan Farmers Market","ny","500 Patroon Creek Blvd","baked goods cheese crafts eggs vegetables honey jams maple prepared-foods fruits","","market","http://www.cdphp.com/en/Classes-And-Events/farmers-market","-73.805466","42.685543","12206"
"Brooktondale","https://www.facebook.com/pages/Caroline-Farmers-Market/274996612592699","Caroline Farmers Market","ny","522 Valley Road","baked goods crafts flowers eggs herbs vegetables honey jams maple meat plants poultry coffee fruits","","market","http://www.brooktondalecc.org","-76.393370","42.380903","14817"
"Brookyn","https://www.facebook.com/BrooklynGreenmarkets","Carroll Gardens Greenmarket","ny","Carroll St, between Court & Smith Sts","baked goods eggs seafood vegetables honey maple meat plants poultry wine fruits juices mushrooms","https://twitter.com/NYCGreenmarkets","market","http://www.grownyc.org/greenmarket/brooklyn/carroll-gardens","-73.995430","40.680703","11231"
"Carthage","","Carthage Farm & Craft Farmers Market","ny","Market Pavillion, Riverside Drive","","","market","http://www.carthage.ny.com","-75.6125","43.977",""
"Fairport","","Casa Larga Vineyards Farm to Table to Marketplace","ny","2287 Turk Hill Road","crafts eggs vegetables jams maple meat prepared-foods wine fruits juices","","market","http://www.casalarga.com/The-Winery/Events/Marketplace","-77.4318929","43.0505711","14450"
"296 Flower City Park","","Cathedral Community Farm Stand","ny","","vegetables fruits","","market","","-77.6327462","43.1931226","14615"
"Earlton","","Catskill Region Farmers Market","ny","Main Street and Church Street","","","market","","-73.8659","42.2204","12058"
"Cazenovia","https://www.facebook.com/CazenoviaFarmersMarket","Cazenovia Farmers Market","ny","Memorial Park, Albany Street","organic baked goods cheese crafts flowers eggs herbs vegetables honey jams maple meat plants poultry soap trees wine coffee fruits juices","","market","http://www.cazenoviachamber.com/","-75.855241","42.929771","13035"
"New York City","","Cedar St. Greenmarket","ny","Cedar Street between Church & Broadway","","","market","http://www.cenyc.org","-74.0109","40.7088",""
"Syracuse","","Central NY Regional Market","ny","2100 Park St,","","","market","","-76.1684","43.0727","13208"
"Chappaqua","https://www.facebook.com/ChappaquaFarmersMarket","Chappaqua Farmers Market","ny","Chappaqua Train Station","organic","https://twitter.com/chapaqquafarmersmarket","market","http://www.chappaquafarmersmarket.org","-73.8838","40.9957","10514"
"Merrill","","Chateaugay Lakes Farmers' Market","ny","Rt. 374 Hollywood Inn lawn","eggs vegetables meat poultry","","market","http://www.adirondackfarmersmarket.com","-73.979355","44.775583",""
"Chatham","","Chatham Farmers Market","ny","15 Church Street (Rte 203)","","","market","","-73.6016","42.3568",""
"Lakewood","https://www.facebook.com/chautauquamall.com","Chautauqua Mall Farmer's Market","ny","318 East Fairmount Avenue","organic baked goods cheese crafts flowers eggs herbs vegetables honey jams maple meat nuts plants poultry fruits","https://twitter.com/chautauquamall","market","http://www.simon.com","-79.304999","42.096295","14750"
"Chazy","https://www.facebook.com/ChazyOrchardsInc","Chazy Orchards Farm Market","ny","9486 Route 9","baked goods cheese eggs honey jams maple prepared-foods coffee juices","","market","http://www.chazy.com","-73.4299444","44.8803997","12921"
"New York","https://www.facebook.com/DowntoEarthMarkets","Chelsea's Down to Earth Farmers Market ","ny","383 W 23rd st","organic baked goods cheese flowers eggs seafood herbs vegetables honey jams meat plants poultry prepared-foods wine fruits tofu","https://twitter.com/DowntoEarthMkts","market","http://downtoearthmarkets.com/markets?region=Manhattan&market=Chelsea+Farmers+Market","-74.000800","40.746293","10011"
"NYC","","Chenchita's Communty Farmer Market","ny","","baked goods crafts flowers honey jams prepared-foods soap wild","","market","","-74.005108","40.749338","10029"
"Chestertown","https://www.facebook.com/chestertownfarmersmarket","Chestertown Farmer's Market","ny","6307 NYS Route 9","baked goods cheese crafts flowers eggs seafood herbs vegetables jams maple meat plants poultry prepared-foods soap wine","","market","http://www.chestertownfarmersmarket.com","-73.8051330","43.6486510","12817"
"Rochester","https://www.facebook.com/pages/Airport-Farmers-and-Flea-Market/212219902247327","Chili Farmers Market","ny","Chili Paul Plaza","","","market","","-77.7285","43.1061",""
"Cincinnatus","","Cincinnatus Farmers Market","ny","Rural Services Pavilion, 2704 Lower Cincinnatus Rd","","","market","","-75.8963","42.5379",""
"New York","https://www.facebook.com/ManhattanGreenmarkets","City Hall Park Greenmarket","ny","Broadway & Chambers","baked goods herbs vegetables honey plants prepared-foods fruits","","market","http://www.grownyc.org","-74.006310","40.713858","10007"
"Cortland","","City of Cortland Farmers Market","ny","Main St. bet Orchard & Court Sts.","","","market","","-76.1804","42.5993",""
"Rochester","www.facebook.com/cityofrochesterpublicmarket","City of Rochester Public Market ","ny","280 North Union Street","organic baked goods cheese crafts flowers eggs seafood herbs vegetables honey jams maple meat nuts plants poultry prepared-foods soap trees wine coffee beans fruits grains juices mushrooms pet food tofu wild","","market","http://www.cityofrochester.gov/publicmarket","-77.589746","43.165600","14609"
"Sherrill","https://www.facebook.com/CityOfSherrill/","City of Sherrill Farmers Market","ny","377 Sherrill Road","baked goods crafts eggs herbs vegetables honey jams maple meat plants poultry prepared-foods soap wine fruits","https://twitter.com/Sherrill_NY","market","http://www.sherrillny.org/recreation/farmers-market/","-75.599094","43.072390","13461"
"Utica","","City of Utica's Farmers Market","ny"," 900 Bleecker St","","","market","","-75.2112","43.0963","13501"
"Clarence","https://www.facebook.com/clarencehollowfm","Clarence Hollow Farmers' Market","ny","New Town lot, 10717 Main St. (route 5)","organic baked goods cheese crafts flowers eggs herbs vegetables honey jams maple meat nuts plants poultry prepared-foods soap trees wine fruits pet food","","market","http://www.clarencefarmersmarket.com","-78.58945","42.98032","14031"
"Clayton","","Clayton Farmers Market","ny","Frink Park, Riverside Drive","","","market","","-76.0881","44.2424",""
"Clifton Park","https://www.facebook.com/Clifton-Park-Farmers-Market-440138679349915/","Clifton Park Farmers' Market","ny","971 Route 146, Shenendehowa United Methodist Church parking lot ","baked goods flowers eggs vegetables honey jams maple meat prepared-foods fruits juices","","market","http://www.saratogafarmersmarket.org/clifton-park-farmers-market/","-73.809271","42.869606","12065"
"Clifton Springs","","Clifton Springs Farmer's Market","ny","corner of Kendall Street and Railroad Avenue","baked goods crafts flowers herbs vegetables jams maple plants","","market","http://www.info@cliftonspringschamber.com","-77.1395","42.9629","14432"
"Clinton","https://www.facebook.com/ClintonNYFarmersMarket/","Clinton Farmers Market","ny","West Park Row","organic baked goods cheese crafts eggs herbs vegetables honey jams maple meat nuts plants poultry prepared-foods soap trees fruits mushrooms pet food","","market","https://www.clintonnychamber.org/farmers-market.html","-75.378406","43.048860","13323"
"Clyde","","Clyde Farmers Market","ny","Village Park on South Park St.","","","market","","-78.8238","42.9352",""
"Cohoes","","Cohoes Farmers' Market","ny","185 Remsen Street","baked goods cheese crafts flowers eggs herbs vegetables jams nursery plants soap","","market","http://www.cohoesfarmersmarket.com","-73.70068","42.77162","12047"
"Cold Spring","","Cold Springs Farmers Market","ny","Route 9D - Butterfield Hospital Lot","","","market","http://www.csfarmmarket.org","-73.9497","41.4195","10516"
"Colden","","Colden Community Farmers Market ","ny","8745 Supervisor Ave (at Heath Rd)","","","market","http://www.localharvest.org/colden-community-farmers-market-M59229","-78.6826","42.6453","14033"
"New York","https://www.facebook.com/ManhattanGreenmarkets","Columbia University Greenmarket","ny","Broadway - W114 & 115 Sts.","organic baked goods cheese eggs seafood herbs vegetables honey jams meat plants poultry prepared-foods fruits","","market","http://www.grownyc.org","-73.964360","40.807345","10027"
"BROOKLYN","","Coney Island Farmers Market","ny","WEST 16 STREET SURF AVE","organic flowers eggs herbs vegetables honey maple plants fruits","","market","","-73.983650","40.581106","11224"
"Brooklyn","","Coney Island Hospital Market","ny","Lutheran Way 55th Street Sunset Park","vegetables soap","","market","","-74.002","40.6355","11220"
"New York","","Coop City Market","ny","140 Bellamy Loop- The Circle","vegetables","","market","","-73.8255","40.8726","10475"
"Brooklyn","https://www.facebook.com/DowntoEarthMarkets","Cooper Park Farmers Market","ny","Maspeth Ave and Olive St","baked goods flowers vegetables jams fruits","https://twitter.com/DowntoEarthMkts","market","http://www.downtoearthmarkets.com","-73.9390170","40.7160650","11211"
"Nassau","","Cooperative Community Food Compact, Inc.","ny","42 Church Street","organic baked goods cheese eggs vegetables honey jams maple meat nuts","","market","http://www.farmtocity.org","-73.606772","42.514498","12123"
"Cooperstown","https://www.facebook.com/CooperstownFarmersMarket","Cooperstown Farmers' Market","ny","101 Main St, in Pioneer Alley","organic baked goods cheese crafts flowers eggs seafood herbs vegetables honey jams maple meat plants poultry prepared-foods soap wine coffee fruits mushrooms wild","","market","http://www.CooperstownFarmersMarket.org","-74.925265","42.700126","13326"
"Hillsdale","facebook.com/copakehillsdalefarmersmarket","Copake Hillsdale Farmer's Market","ny","9140 Route 22","organic baked goods cheese crafts flowers eggs herbs vegetables honey jams maple nuts plants poultry prepared-foods soap wine coffee fruits juices mushrooms wild","","market","http://www.copakehillsdalefarmersmarket.com","-73.517481","42.170062","12529"
"Corning","","Corning Farmers Market","ny","Riverfront Centennial Park, Gaffer District","","","market","","-77.0547","42.1429","14830"
"Queens","https://www.facebook.com/QueensGreenmarkets","Corona Greenmarket","ny","Roosevelt Ave & 103rd St","cheese vegetables fruits","","market","http://www.grownyc.org","-73.8626778","40.7499046","11368"
"Brooklyn","https://www.facebook.com/BrooklynGreenmarkets","Cortelyou Greenmarket","ny","Cortelyou & Rugby Rds","organic baked goods cheese eggs seafood herbs vegetables honey jams meat poultry soap wine fruits","","market","","-73.9652999","40.6408302","11226"
"","","Coventry Farmers Market","ny","109 North Road","","","market","","-75.6385","42.3161",""
"Coxsackie","","Coxsackie Farmers' Market","ny","1 Betke Boulevard","baked goods cheese flowers eggs herbs vegetables honey jams maple meat nuts plants poultry prepared-foods soap trees wine coffee beans fruits grains juices mushrooms wild","","market","","-73.795227","42.352405","12051"
"Malverne","https://www.facebook.com/crossroadsfarmatgrossmanns","Crossroads Farm at Grossmann's","ny","480 Hempstead Avenue","organic baked goods cheese flowers eggs herbs vegetables honey jams maple plants soap fruits","","market","","-73.664419","40.679365","11565"
"Malverne","https://www.facebook.com/pages/GG-LI-Winter-Farmers-Market/","Crossroads Farmers Market","ny","480 Hempstead Ave","organic baked goods cheese eggs vegetables honey maple soap coffee fruits","https://twitter.com/GGWinterMarkets","market","http://www.longislandfarmersmarkets.com","-73.664301","40.679753","11701"
"Queens","https://www.facebook.com/pages/Culinary-Kids-Day-Camp/123734797690303","Culinary Kids Farmers Market I","ny","30-15 Seagirt Blvd. and Beach 31st St.","herbs vegetables fruits","https://twitter.com/Culinary_Kids","market","http://www.culinarykidsdaycamp.org","-73.547802","40.819525","11691"
"Bronx","","Culinary Kids Farmers Market II","ny","Beach 58th Street & Beach Channel Drive","","","market","","-73.7885","40.5947","10468"
"Brooklyn","https://www.facebook.com/BrooklynGreenmarkets","Cypress Hills YM","ny","Fulton St btwn Richmond and Logan","organic vegetables jams plants fruits","","market","http://www.grownyc.org","-73.9500000","40.6500000","11207"
"New York","https://www.facebook.com/ManhattanGreenmarkets","Dag Hammarskjold Plaza Greenmarket","ny","E 47 St & 2 Ave","baked goods cheese eggs vegetables meat poultry fruits","","market","http://www.grownyc.org","-73.9698797","40.7529921","10017"
"Manhattan ","","Dag Hammerskjold Plaza Greenmarket ","ny","47th Street at Second Ave","","","market","http://www.grownyc.org/greenmarket-site/manhattan/dag-hammarskjold-greenmarket","-73.9699","40.753","10017"
"Dansville","","Dansville Farmers Market","ny","Airport Hanger parking lot, 50 Maple Ave.","","","market","","-77.7084","42.566",""
"Brooklyn","","Dean Street Farmers Market","ny","1095 Dean Street","","","market","","-73.9537658","40.6772544","11216"
"Westhampton Beach","","Deer Park Farmers Market","ny","Sunset Ave. and Brook Rd.","","","market","","-72.6446","40.815","11978"
"Albany","","Delaware Area Neighborhood Farmers Market","ny","St. James Church, 391 Delaware Ave,","","","market","","-73.9839","40.5767",""
"Delhi","https://www.facebook.com/Delaware-Bounty-Fresh-Local-Food-726223644139439","Delaware Bounty","ny","5 1/2 Main Street  - Suite 3","baked goods cheese eggs herbs vegetables honey jams maple meat poultry beans fruits mushrooms","","market","http://www.delawarebounty.com","-74.921231","42.270328","13753"
"Delhi","","Delhi Farmers Market","ny","Court House Square, Main St,","baked goods cheese crafts flowers eggs herbs vegetables honey jams maple meat plants poultry prepared-foods soap wine fruits","","market","","-74.9143270","42.2792339","13753"
"Delmar","delmarmarket","Delmar Farmers Market","ny","332 Kenwood Ave","organic baked goods cheese crafts flowers eggs seafood herbs vegetables maple meat plants poultry prepared-foods soap trees wine coffee fruits grains mushrooms pet food","@delmarmarket","market","http://delmarmarket.org","-73.825895","42.619919","12054"
"Deposit","","Deposit Farmers' Market","ny","107 2nd St","vegetables fruits","","market","https://ccedelaware.org/","-75.4248970","42.0623320","13754"
"Dolgeville","Dolgville Farmers Market","Dolgeville Farmer's Market","ny","(Parking Lot) Between Main St. and Helmer Ave","baked goods crafts herbs vegetables honey jams maple plants prepared-foods soap fruits","","market","http://farmmarket.herkimerhealthnet.com/dolgeville.html","-74.7716754","43.1120037","13329"
"Mamaroneck","https://www.facebook.com/downtoearthmarketsmamaroneck/","Down to Earth Mamaroneck Winter Farmers Market","ny","168 West Boston Post Rd.","organic baked goods cheese flowers eggs seafood herbs vegetables honey jams maple meat poultry prepared-foods coffee fruits juices mushrooms","https://twitter.com/DowntoEarthMkts","market","http://www.downtoearthmarkets.com","-73.734523","40.947737","10543"
"Manhattan","https://www.facebook.com/morningsideparkfarmersmarket/","Down to Earth Morningside Park Farmers Market","ny","110th Street and Manhattan Avenue","organic baked goods cheese flowers eggs seafood herbs vegetables honey jams maple meat plants poultry prepared-foods wine coffee fruits juices mushrooms","https://twitter.com/DowntoEarthMkts","market","http://www.downtoearthmarkets.com","-73.959648","40.801370","10026"
"New Rochelle","https://www.facebook.com/newrochellefarmersmarket/","Down to Earth New Rochelle Farmers Market","ny","515 North Avenue","baked goods eggs herbs vegetables honey jams plants prepared-foods fruits juices mushrooms","https://twitter.com/DowntoEarthMkts","market","http://DowntoEarthMarkets.com","-73.786334","40.919640","10801"
"Ossining","https://www.facebook.com/ossiningfarmersmarket/","Down to Earth Ossining Winter Farmers Market","ny","34 S. Highland Ave.","baked goods cheese flowers eggs seafood herbs vegetables honey jams maple meat poultry prepared-foods wine coffee fruits juices mushrooms","https://twitter.com/DowntoEarthMkts","market","http://www.downtoearthmarkets.com","-73.8612998","41.1601015","10562"
"Brooklyn","https://www.facebook.com/parkslopefarmersmarket/","Down to Earth Park Slope Farmers Market","ny","289 4th Street","organic baked goods cheese flowers eggs seafood herbs vegetables honey jams maple meat plants poultry prepared-foods soap wine coffee fruits juices mushrooms tofu wild","https://twitter.com/DowntoEarthMkts","market","http://www.downtoearthmarkets.com","-73.983925","40.672277","11215"
"Piermont","www.facebook.com/DowntoEarthMarkets","Down to Earth Piermont Farmers Market","ny","Piermont Ave. and Ash St.","organic baked goods cheese flowers eggs herbs vegetables honey jams maple meat nuts poultry prepared-foods soap wine coffee fruits juices mushrooms pet food","twitter.com/DowntoEarthMkts","market","http://DowntoEarthMarkets.com","-73.916031","41.041203","10968"
"Albany","","Downtown Albany Farmers Market","ny","Tricentennial Park, at Broadway","","","market","","-73.9079","43.0013",""
"City of Batavia","","Downtown Batavia Public Market","ny","Corner of Ellicott(Route 63) & Center Streets","","","market","http://www.downtownbataviany.com","-78.1827","42.9948","14020"
"Binghamton","https://www.facebook.com/BinghamtonFarmersMarket","Downtown Binghamton Farmers Market","ny","52 Court Street","","","market","http://www.binghamtonfarmersmarket.com","-75.9095","42.0985","13901"
"Buffalo","","Downtown Buffalo Country Market","ny","Main Street at Court and Church Street","organic baked goods cheese flowers eggs herbs vegetables jams meat nursery poultry prepared-foods soap","","market","http://www.buffaloplace.com","-78.87492","42.88417","14203"
"Jamestown","https://www.facebook.com/DowntownJamestownFarmersMarket","Downtown Jamestown Farmers Market","ny","Cherry Street","organic baked goods cheese crafts flowers eggs herbs vegetables honey jams maple meat plants prepared-foods soap wine coffee beans fruits grains mushrooms","","market","http://www.jamestownrenaissance.org","-79.242358","42.095708","14701"
"Middletown","","Downtown Middletown Farmers' Market","ny","Erie Way from Cottage St. to Montgomery St.","baked goods flowers herbs vegetables honey jams plants soap coffee fruits","","market","http://www.middletownbid.org","-74.4133650","41.4485920","10940"
"New York","https://www.facebook.com/ManhattanGreenmarkets","Downtown PATH Greenmarket","ny","W Broadway - Barclay St & Park Pl","baked goods vegetables fruits","","market","http://www.grownyc.org","-74.0081736","40.7119522","10271"
"Syracuse","","Downtown Syracuse Farmers Market","ny","Clinton Square","organic baked goods cheese crafts flowers eggs herbs vegetables honey jams maple nuts plants prepared-foods soap trees wine coffee fruits grains juices mushrooms pet food","","market","http://www.downtownsyracuse.com","-76.1528314","43.0509435","13202"
"Dunkirk","https://www.facebook.com/Dunkirk-Farmers-Market-1470803793234251/","Dunkirk Farmers Market","ny","45 Cliffstar Court","crafts flowers eggs herbs vegetables meat poultry prepared-foods fruits","","market","http://www.dunkirktoday.com/things-to-do/community-gardens","-79.326651","42.483730","14048"
"Earlville","","Earlville's Indoor Farmers Market","ny","Route 12B","","","market","","-75.5456","42.7399","13332"
"Richfield Springs","","Early Bird Farmers Market","ny","129 Main Street","","","market","","-74.9864","42.854","13439"
"East Aurora","https://www.facebook.com/pages/East-Aurora-Farmers-Market/344979390265","East Aurora Farmers Market","ny","123 Grey St","baked goods cheese flowers eggs herbs vegetables honey jams maple meat nuts plants soap trees coffee fruits juices mushrooms","","market","http://www.eastaurorafarmersmarket.com","-78.632801","42.765622","14052"
"East Greenbush","https://www.facebook.com/EastGreenbushLibraryYMCAFarmerMarket/","East Greenbush Library & YMCA Farmers Market","ny","Between 10 and 20 Community Way in parking lot","baked goods cheese eggs vegetables honey jams maple nuts prepared-foods soap trees wine fruits pet food","@eglibrary","market","https://eastgreenbushlibrary.org/events-newsletters/farmers-market/","-73.695566","42.618063","12061"
"East Hampton ","East Hampton Farmers Market LLC","East Hampton Farmers Market LLC","ny","136 North Main Street","organic baked goods cheese crafts flowers eggs seafood herbs vegetables honey jams meat plants poultry prepared-foods soap trees wine coffee fruits mushrooms pet food wild","","market","","-72.180675","40.972416","11963"
"Ithaca ","https://www.facebook.com/ithacamarket/?fref=ts","East Hill Plaza Farmers' Market","ny","380 Pine Tree Road","organic baked goods eggs herbs vegetables poultry prepared-foods fruits mushrooms","","market","http://www.ithacamarket.com/","-76.4663820","42.4383679","14850"
"Brooklyn","","East New York Farmers' Market","ny","613 New Lots Ave","baked goods crafts flowers eggs herbs vegetables honey prepared-foods coffee fruits juices wild","","market","http://eastnewyorkfarms.org/","-73.8866767","40.6649239","11207"
"Elmira","https://www.facebook.com/EastSideMarketElmiraNY/","East Side Farmers' Market","ny","760 E Water St Elmira","baked goods cheese crafts eggs vegetables honey jams maple meat plants poultry prepared-foods soap fruits mushrooms","","market","http://chemung.cce.cornell.edu/agriculture/buy-local/farmers-markets","-76.793909","42.088765","14901"
"Clarence","https://www.facebook.com/EastgatePlazaClarence/","Eastgate Plaza Farmers Market","ny","4927 - 5089 Transit Road","organic baked goods cheese crafts flowers eggs herbs vegetables honey jams maple meat plants poultry prepared-foods soap wine coffee fruits mushrooms pet food tofu","","market","","-78.595325","42.97573","14221"
"Farmingdale","https://www.facebook.com/EatLocalLongIsland","Eat Local Long Island Farmers' Market","ny","In the driveway at the Clock Tower on Main Street","","","market","","-73.4346","40.7156","11735"
"New York","","Echo Park Market","ny","Ryer Avenue & Burnside Avenue","vegetables","","market","","-73.9015","40.8509","10457"
"Elizabethtown","","Elizabethtown Farmers' Market","ny","behind Adirondack History Center Museum","baked goods crafts flowers herbs vegetables honey jams maple meat plants poultry trees wine fruits grains","","market","http://www.adirondackfarmersmarket.com","-73.590621","44.215607",""
"Ellenville","","Ellenville Farmers Market","ny","Center Street and Market Street","organic baked goods cheese crafts flowers eggs herbs vegetables honey maple meat nursery plants poultry prepared-foods soap trees wine","","market","","-74.3940770","41.7160630","12428"
"Ellicottville","","Ellicottville Farmers Market by REAP ","ny","Elizabeth Street","","","market","http://www.localharvest.org/edible-thursdays-farmers-market-M57141","-78.6752","42.2756","14731"
"Queens","https://www.facebook.com/QueensGreenmarkets","Elmhurst Hopsital Greenmarket","ny","41st Ave - 80 & 81 Sts","baked goods cheese vegetables honey poultry fruits","","market","http://www.grownyc.org","-73.8845641","40.7459010","11373"
"Elmira","","Elmira Wisner Park Farmers Market","ny","N. Main St. & W. Church Street","","","market","","-76.8083","42.0898","14901"
"Elmont","","Elmont Farmers Market","ny","700 Hempstead Turnpike","baked goods eggs vegetables plants","","market","http://www.ligreenmarket.org","-73.6999746","40.7080503","11003"
"Elmsford","","Elmsford Farmers Market","ny","Route 9A and N. Stone Ave.","","","market","http://www.elmsfordny.org","-73.8181","41.0565","10523"
"Buffalo","https://www.facebook.com/ElmwoodBidwellFarmersMarket","Elmwood Bidwell Farmers' Market","ny","Elmwood at Bidwell","organic baked goods cheese flowers eggs herbs vegetables honey jams maple meat plants poultry prepared-foods soap trees wine coffee fruits grains juices pet food tofu","","market","http://www.elmwoodmarket.org","-78.8770165","42.9237123","14222"
"Albany","","Empire State Plaza Farmers Market","ny","Empire State Plaza","baked goods cheese flowers eggs herbs vegetables honey jams maple meat nursery nuts plants poultry prepared-foods trees wine","","market","http://www.ogs.ny.gov","-73.758667","42.651353","12242"
"Fairport","no","Fairport Farmers Market","ny","58 South Main St.","organic baked goods crafts flowers eggs herbs vegetables honey jams maple meat plants soap coffee fruits juices mushrooms","no","market","http://www.fairportny.com","-77.442818","43.099984","14450"
"Rochester","","Faith, Hope, and Charity Worship Center Farm Stand","ny","Columbia and Plymouth Avenue","vegetables fruits","","market","","-77.6203997","43.1415308","14608"
"Falconer","","Falconer Farmers Market","ny","Davis Park","baked goods crafts flowers eggs vegetables honey jams maple meat plants poultry prepared-foods soap trees wine fruits","","market","","-79.1983614","42.1173149","14733"
"","","Farm Fresh Mobile Market","ny","","vegetables fruits","","market","http://southsideinterfaithcdc.org","","",""
"Rochester ","https://www.facebook.com/FarmtoPreschoolRochesterNY","Farm to Preschool - South Ave","ny","941 South Ave","vegetables fruits","","market","","-77.6089550","43.1366340","14620"
"Albany ","","Farm to Preschool Market: Mercy Cares for Kids","ny","310 S. Manning Blvd","organic flowers vegetables","","market","http://www.sphp.com/mercy-cares-for-kids","-73.798353","42.665745","12206"
"Rochester ","https://www.facebook.com/FarmtoPreschoolRochesterNY","Farm to Preschool- Lake Ave","ny","214 Lake Ave","vegetables fruits","","market","","-77.6253020","43.1684630","14608"
"Loudonville","","Farmers Market at the Crossings","ny","Crossings Park of Colonie, Albany-Shaker Rd, across from Emerick Lane","","","market","","-73.7876","42.7192",""
"Menands","","Farmers Market in Menands ","ny","381 Broadway","","","market","http://www.capitaldistrictfarmersmarket.org/","-73.7192","42.6964","12204"
"Williamsville","","Farmers' Market at the Williamsville Mill","ny","56 E. Spring St","organic baked goods cheese flowers herbs vegetables honey jams maple meat plants prepared-foods soap","","market","","-78.7446","42.9637","14221"
"Farmingdale","https://www.facebook.com/EatLocalLongIsland","Farmingdale Farmers Market","ny","361 Main Street","baked goods eggs vegetables honey jams plants soap trees wine fruits juices","","market","http://www.eatlocallongisland.com/","-73.4450506","40.7311278","11735"
"FARMINGVILLE","","Farmingville Farmers Market","ny","755 HORSEBLOCK RD","baked goods cheese eggs vegetables","","market","http://WWW.FARMINGVILLERESIDENTS.ORG","-73.0323070","40.8315681","11738"
"Fayetteville","https://www.facebook.com/FayettevilleFarmersMarketCNY","Fayetteville Farmers Market CNY","ny","5 and Burdick","baked goods cheese flowers eggs herbs vegetables honey jams maple meat plants poultry soap trees wine coffee beans fruits juices mushrooms pet food wild","","market","http://www.fayettevillefarmersmarketcny.com","-76.019508","43.033413","13066"
" Cobleskill","","Festival Farmers Market","ny","942 Main Street","baked goods cheese crafts flowers eggs herbs vegetables honey jams maple meat plants poultry soap fruits","","market","","-74.4669868","42.6792512","12043"
"Flanders","","Flanders Farm Fresh Food Market","ny","655 Flanders Road","organic vegetables","","market","http://www.southamptontownny.gov/FarmFresh","-72.636505","40.909126","11901"
"New York City","","Flatbush-Canton Farmers Market","ny","794 - 814 Flatbush Ave at Canton Ave, in courtyard","","","market","","-74.1901","40.5479",""
"Florida","www.facebook.com/FloridaNYFarmersMarket","Florida Farmers Market","ny","Rt 17A and 94","baked goods eggs herbs vegetables honey maple meat poultry soap","","market","http://warwickinfo.net/floridafarmersmarket/index.html","-74.3554231","41.3268331","10921"
"Fonda","","Fonda Farmers Market","ny","Bridge Street and Park","baked goods cheese flowers eggs meat plants","","market","http://www.fondafarmersmarket.com","-74.3697","42.9556","12068"
"fonda","","Fonda Farmers Market","ny","Main Street","flowers eggs meat","","market","http://www.fondafarmersmarket.com","-74.3774","42.9545","12068"
"Rochester","https://www.facebook.com/CurbsideMarket/?fref=ts","Foodlink's Curbside Market","ny","1999 Mt. Read Blvd","eggs vegetables fruits","https://twitter.com/CurbsideMarket?ref_src=twsrc%5Egoogle%7Ctwcamp%5Eserp%7Ctwgr%5Eauthor","market","http://foodlinkny.org/","-77.661375","43.191968","14615"
"Queens","https://www.facebook.com/QueensGreenmarkets","Forest Hills","ny","70 Ave. & Queens Blvd","organic baked goods cheese eggs seafood herbs vegetables honey meat poultry wine fruits","","market","http://www.grownyc.org","-73.846385","40.721880","11375"
"New York City","","Forrest Market","ny","156th & Westchester","vegetables","","market","","-73.9053","40.8179","10455"
"New York","https://www.facebook.com/BrooklynGreenmarkets","Fort Green Park Greenmarket","ny","Washington Pk & Dekalb","organic baked goods cheese eggs seafood herbs vegetables jams meat poultry wine fruits","","market","http://www.grownyc.org","-73.9746","40.6921","11205"
"Fort Plain","","Fort Plain Farmers Market","ny","12 Willett St.","vegetables fruits","","market","","-74.6212","42.9318","13339"
"Fowler","","Fowler Market","ny","1461 CR 222","","","market","","-75.392128","44.282535",""
"Franklin","","Franklin Farmers' Market","ny","Institute Street","organic baked goods cheese crafts eggs seafood herbs vegetables honey maple meat nursery plants poultry prepared-foods soap wine","","market","","-75.1677064","42.3391257","13775"
"Franklinville","https://www.facebook.com/pages/Southern-Tier-Farmers-Market/165092373544019","Franklinville Farmers Market","ny","13 Park Square","baked goods crafts flowers eggs herbs vegetables honey jams maple plants fruits","","market","","-78.4572594","42.3371786","14737"
"Fredonia","https://www.facebook.com/?q=#/FredoniaFarmersMarket?ref=bookmarks","Fredonia Farmers Market - Summer","ny","9-11 Church Street","organic baked goods cheese crafts flowers eggs herbs vegetables honey jams maple meat plants poultry prepared-foods soap trees coffee beans fruits grains juices pet food","","market","http://www.fredoniafarmersmarket.com","-79.3323515","42.4406340","14063"
"Fredonia","Fredonia Farmers Market","Fredonia Farmers Market - Winter","ny","321 East Main Street","organic baked goods cheese crafts flowers eggs herbs vegetables honey jams meat poultry prepared-foods soap coffee beans fruits grains juices","","market","http://www.fredoniafarmersmarket.com","-79.3152986","42.4476107","14063"
"Freeport","https://www.facebook.com/pages/Freeport-Farmers-Market/414530465329356","Freeport Farmers' Market","ny","130 East Merrick Road","organic herbs vegetables honey soap beans fruits","","market","http://www.cedarmore.org","-73.5749560","40.6544713","11520"
"New York","https://www.facebook.com/ManhattanGreenmarkets","Ft. Washington Greenmarket","ny","168th St. & Ft. Washington","baked goods cheese herbs vegetables honey jams fruits","","market","http://www.grownyc.org","-73.9422685","40.8421727","10032"
"Fulton","","Fulton Farmers Market","ny","Canalview Park & Shop Parking Lot","organic baked goods cheese crafts flowers eggs herbs vegetables honey jams maple","","market","","-76.416521","43.322899","13069"
"Bayville","https://www.facebook.com/pages/GG-LI-Winter-Farmers-Market/146107342105978","G&G Winter Farmers Market ","ny","Bayville Ave","","","market","http://www.winterfarmersmarketlongisland.com/","-73.558","40.9092","11709"
"Gansevoort","","Gansevoort Farmers Market","ny","Broadway Bowl, Rt 4, Across from McDonalds","","","market","","-73.6772","43.2029","12831"
"Garden City","","Garden City Farmers Market","ny","101 County Seat Dr, off Old Country Rd, behind Supreme Court Bldg","","","market","","-73.6355","40.7372",""
"Gardiner","https://www.facebook.com/pages/Gardiner-Green-Market/147800581902736","Gardiner Farmers Market","ny","133 Farmers Tpke.","baked goods cheese crafts flowers eggs herbs vegetables honey jams maple meat nuts plants poultry prepared-foods soap fruits wild","","market","","-74.152737","41.679996","12561"
"Batavia","","Genesee Country Farmers Market, Inc","ny","Batavia Downs parking lot, 8315 Park Road","","","market","","-78.1938","43.0009",""
"Geneseo","https://www.facebook.com/geneseofarmersmarket","Geneseo Farmers' Market","ny","Center Street at Main Street","organic baked goods cheese flowers eggs herbs vegetables honey jams maple meat plants poultry prepared-foods wine coffee fruits mushrooms","","market","http://www.geneseofarmersmarket.org","-77.816409","42.796196","14454"
"Geneva","","Geneva Farmers Market","ny","Exchange St. Municipal Parking Lot","organic baked goods cheese crafts flowers eggs herbs vegetables honey jams maple meat nursery plants poultry soap trees wine","","market","http://www.geneva.ny.usRecfarmersmarket","-76.980922","42.868966","14456"
"Glenmont","","Glenmont/ Mt Moriah Church Farmer's Market","ny","Mt. Moriah Church, across from Lowes 262 Route 9W, Glenmont","","","market","","-73.7887","42.6108",""
"Glens Falls","https://www.facebook.com/GFFarmersMarket/","Glens Falls Farmers Market Association","ny","10 Sanford St","organic baked goods cheese crafts eggs seafood herbs vegetables honey jams maple meat poultry prepared-foods soap coffee beans fruits juices mushrooms pet food wild","","market","https://www.glensfallsfarmersmarket.com/","-73.653504","43.317546","12801"
"Gloversville","https://www.facebook.com/fultonmontgomeryfarmersmarket","Gloversville Farmers Market","ny","Elm Street Pavilion","baked goods flowers eggs herbs vegetables meat plants prepared-foods trees fruits","","market","http://www.fultonmontgomeryfarmersmarket.org","-74.345163","43.052067","12078"
"Goshen","Goshenfarmersmarket","Goshen Farmers Market","ny","South Church and Main Street","baked goods cheese eggs seafood herbs vegetables honey jams maple meat plants poultry soap wine coffee fruits mushrooms pet food","","market","http://goshennychamber.com","-74.322899","41.401966","10924"
"South Salem","","Gossett's Farmer's Market ","ny","1202 Route 35","","","market","http://www.gossettnursery.com/farmers-market/","-73.5682","41.276","10590"
"Gouverneur","","Gouverneur Farmers' Market","ny","Village Green Church Street","baked goods crafts eggs herbs vegetables honey jams plants poultry soap wine fruits","","market","","-75.467067","44.335411",""
"Brooklyn","","Graham Avenue Farmers Market","ny","Cook Street at the east side intersection of Graham Avenue","baked goods eggs vegetables honey jams maple fruits grains mushrooms","","market","http://www.grahamavenuebid.net","-73.942183","40.702350","11206"
"Brooklyn","https://www.facebook.com/GrandArmyPlazaGreenmarket","Grand Army Plaza Greenmarket","ny","Flatbush & Propsect Park W","organic baked goods cheese flowers eggs seafood herbs vegetables honey jams maple meat plants poultry trees wine fruits","","market","http://www.grownyc.org","-73.970368","40.672631","11217"
"Salem","","Granville Downtown Farmers Market Association","ny","Main Street","","","market","","-73.3282","43.1742","12865"
"New York","Grass Roots Farmers Market","Grass Roots Farmers Market","ny","","baked goods eggs vegetables honey fruits","grassrootsFM","market","","-73.943449","40.823617","10031"
"Baldwinsville","https://www.facebook.com/GreaterBaldwinsvilleCamillusFarmersMarket","Greater Baldwinsville & Camillus Farmers' Market (Baldwinsville Location)","ny","50 Salina Street ","organic baked goods cheese crafts eggs herbs vegetables honey jams maple meat nuts plants poultry prepared-foods soap wine coffee beans fruits grains pet food","","market","http://www.gbcfarmersmarket.com/#!home/c2489","-76.321903","43.156450","13027"
"Camillus","https://www.facebook.com/GreaterBaldwinsvilleCamillusFarmersMarket","Greater Baldwinsville & Camillus Farmers' Market (Camillus Location)","ny","4600 W. Genesee Street","organic baked goods cheese crafts eggs herbs vegetables honey jams maple meat nuts plants poultry prepared-foods soap wine coffee beans fruits grains pet food","","market","http://www.gbcfarmersmarket.com/#!home/c2489","-76.248044","43.044780","13219"
"Bellport","","Greater Bellport Community Youth Farmers Market","ny","471 Atlantic Avenue","vegetables fruits","","market","","-72.9482820","40.7751860","11713"
"Watertown","https://www.facebook.com/watertownfarmandcraft/?ref=br_rs","Greater Watertown-North Country Chamber of Commerce Farm & Craft Market","ny","317 Washington St.","organic baked goods cheese crafts flowers eggs herbs vegetables honey jams maple meat nuts plants poultry prepared-foods soap trees wine coffee fruits mushrooms pet food","","market","http://www.watertownfarmandcraft.com","-75.9112726897001","43.9720956981182","13601"
"Syracuse","","Green Hills Farmers/Crafters Market","ny","5933 S. Salina St.","","","market","","-76.1432","42.9844","13205"
"Brooklyn","https://www.facebook.com/BrooklynGreenmarkets","Greenpoint - McCarren Park Greenmarket","ny","Union - Driggs N12th St","baked goods cheese flowers seafood vegetables honey jams maple meat plants poultry wine fruits","","market","http://www.grownyc.org","-73.952708","40.720494","11222"
"Greenport","https://www.facebook.com/GreenportFarmersMarket","Greenport Farmers' Market","ny","United Methodist Church, 624 Main Street","organic baked goods cheese flowers eggs herbs vegetables honey jams plants poultry soap wine fruits","https://twitter.com/GreenptFmrsMkt","market","http://www.GreenportFarmersMarket.com","-72.362190","41.107142","11944"
"Greenville","","Greenville Farmers ","ny","State Route 32","cheese vegetables honey","","market","","-74.022413","42.416416","12083"
"Greenwich","","Greenwich Farmers' Market","ny","106 Main Street","cheese eggs herbs vegetables honey maple meat poultry prepared-foods soap coffee","","market","http://www.localharvest.org/farmers-market-at-70-main-M44584","-73.499250","43.090059","12834"
"Elmira","","Grove Park Farmers' Market","ny","Corner of 4th & Walnut Street Grove Park, Schuyler Co.","","","market","","-76.8201","42.0921",""
"Hamburg","https://www.facebook.com/Hamburg Farmers Market","Hamburg Farmers' Market","ny","Village Parking Lot, Entrances on Main & Union Streets","organic baked goods cheese flowers eggs herbs vegetables honey jams maple meat plants poultry prepared-foods soap trees wine coffee fruits tofu","","market","http://www.hamburg-chamber.org/visit/farmers_market.aspx","-78.831018","42.716843","14075"
"Hamilton","","Hamilton Farmers Market","ny","Village Green, Between E. Broad & Broad Sts","","","market","","-75.5413","42.8195",""
"Hammond","https://www.facebook.com/thehammondfarmersmarket","Hammond Farmers Market","ny","1A North Main St.","","","market","","-75.6932910","44.4518429",""
"Hammondsport","","Hammondsport Farmers Market","ny","Liberty St. Park","crafts flowers herbs vegetables honey plants fruits","","market","","-77.222162","42.407951",""
"Hampton Bays ","https://www.facebook.com/hamptonbaysfarmersmarket","Hampton Bays Farmers Market","ny","165 Ponquogue Avenue","baked goods cheese crafts flowers eggs seafood herbs vegetables honey jams nuts plants poultry coffee fruits","@HBFarmersMrkt","market","http://www.stmaryshb.org","-72.513106","40.858696","11946"
"Hancock","","Hancock Community Education Farmers Market","ny","Great American Store lot, across from 11 East Main St","","","market","","-75.2819","41.9551",""
"Albany","","Harriman State Campus Farmers Market","ny","Harriman State Office Campus, Vendor Park, 1220 Washington Ave,","herbs vegetables nursery plants trees","","market","http://www.empirestateplaza.org","-73.808770","42.678318",""
"Hartford","","Hartford Farmers Market","ny","Route 40 & Route 149","","","market","http://www.hartfordny.com","-73.3934","43.3604","12838"
"Hartsdale","","Hartsdale Farmers Market","ny","","baked goods flowers herbs honey jams maple plants","","market","","-73.796099","41.010880","10530"
"Bethel","","Harvest Festival at Bethel Woods","ny","Hurd & West Shore Rds","","","market","http://www.bethelwoodscenter.org","-74.8821","41.703","12754"
"Cortlandt Manor","https://www.facebook.com/NYPHVHFarmersMarket/","Harvest for Health Farmers' Market at NewYork-Presbyterian/Hudson Valley Hospital","ny","1980 Crompond Rd","baked goods eggs herbs vegetables honey jams maple meat plants prepared-foods soap coffee fruits pet food","","market","http://www.hvhc.org/patient-service/farmers-market.html","-73.892997","41.291874","10567"
"New York","","Harvest Home 125th Street Market","ny","W. 125th Street & Adam Clayton Powell Blvd","baked goods vegetables fruits","","market","","-73.947702","40.808707",""
"Manhattan","","Harvest Home Bellevue Farmer's Market","ny","27th Street Between 1st Avenue & St. Carmel Place","","","market","http://www.harvesthomefm.org","-73.9773","40.7396",""
"New York","","Harvest Home Brower Park Market","ny","Brooklyn Avenue & Prospect Place","vegetables fruits","","market","http://harvesthomefm.org","-73.944530","40.674043",""
"Brooklyn","","Harvest Home Clinton Hill Market","ny","Lafayette btwn Waverly & Washington","vegetables fruits","","market","","-73.966310","40.688145",""
"Bronx","","Harvest Home Co-Op City Market","ny","Asch Loop & Aldrich Street","baked goods vegetables honey jams fruits","","market","","-73.831007","40.870274",""
"New York","","Harvest Home Coney Island Hospital Market","ny","Ocean Pkwy btwn Shore Pkwy & Avenue Z","baked goods vegetables honey jams maple fruits","","market","","-73.966129","40.585510",""
"New York","","Harvest Home East Harlem Market","ny","E. 104th Street & 3rd Avenue","vegetables fruits","","market","","-73.945625","40.790266",""
"Bronx","","Harvest Home Echo Park Market","ny","Tremont Avenue, between Anthony","","","market","http://www.harvesthomefm.org","-73.9032","40.8488",""
"Bronx","","Harvest Home Forest Avenue Market","ny","Forest Ave. btw 156th and Westchester","","","market","http://www.harvesthomefm.org","-73.9063","40.8178",""
"New York","","Harvest Home Harlem Hospital Market","ny","Lenox Avenue btwn W. 136th & W. 138th Street","baked goods vegetables honey jams maple fruits","","market","","-73.940100","40.814968",""
"New York","","Harvest Home Hunts Point Market","ny","E. 163rd btwn Southern & Bruckner Boulevards","vegetables fruits","","market","","-73.890698","40.820779",""
"New York","","Harvest Home Jacobi Hospital Market","ny","1400 Pelham Parkway","baked goods vegetables honey jams fruits","","market","","-73.846979","40.857347",""
"New York","","Harvest Home Kings County Hospital Market","ny","Clarkson Avenue btwn E. 37th & E. 39th Street","vegetables fruits","","market","","-73.942520","40.655889",""
"New York","","Harvest Home Lenox Avenue Market","ny","Lenox Avenue btwn W. 117th & W. 118th Street","vegetables fruits","","market","","-73.948857","40.803029",""
"Queens","","Harvest Home Metropolitan Avenue Market","ny","101-15 Metropolitan Avenue","","","market","http://www.harvesthomefm.org","-73.8512","40.7107",""
"Manhattan","","Harvest Home Metropolitan Hospital Market","ny","97-99th Street and 2nd Ave.","baked goods vegetables honey jams prepared-foods coffee fruits","","market","http://harvesthomefm.org","-73.946220","40.785539",""
"Manhattan","","Harvest Home Mt Morris Park Market","ny","124th Street & 5th Avenue/ Marcus Garvey Park","","","market","http://www.harvesthomefm.org","-73.9429","40.8056",""
"Bronx","https://www.facebook.com/HarvestHomeMkts/","Harvest Home Mt. Eden Market","ny","Mt. Eden Pkwy & Morris Avenue","baked goods vegetables honey jams fruits","https://twitter.com/HarvestHomeMkts","market","http://www.harvesthomefm.org","-73.909517","40.842700",""
"Bronx","","Harvest Home North Central Bronx Market","ny","E. Mosholu Pkwy N. & Jerome Avenue","baked goods vegetables jams fruits","","market","","-73.883864","40.880479",""
"New York","","Harvest Home Presbyterian Church Market","ny","Merrick Blvd. & Baisley Blvd.","","","market","http://www.harvesthomefm.org","-73.7698","40.6837","10035"
"New York","","Harvest Home St. Mary's Park Market","ny","E. 149th Street & Eagle Avenue","vegetables fruits","","market","","-73.911898","40.813850",""
"Grand Concourse","https://www.facebook.com/groups/109555025750447/?fref=ts","Harvest Home Sunday Market / Bronx Museum","ny","Bronx Museum of the Arts, 165th Street,","","","market","","-73.9197","40.831",""
"Manhattan","","Harvest Home Union Settlement Market","ny","104th St and 3rd Ave","","","market","http://www.harvesthomefm.org","-73.9457","40.7898",""
"New York","","Harvest Home West Harlem Market","ny","Broadway btwn W. 138th & W. 139th St","vegetables fruits","","market","","-73.953193","40.822369",""
"Hastings-on-Hudson","https://www.facebook.com/HastingsFarmersMarket","Hastings Farmers Market","ny","7 Maple Avenue","organic baked goods cheese flowers eggs seafood herbs vegetables honey jams maple meat nuts poultry prepared-foods soap wine coffee fruits juices mushrooms wild","","market","http://hastingsfarmersmarket.org","-73.8837510","40.9957490","10706"
"Brooklyn","","Hattie Carthan community farmers market","ny","49 Van Buren Street","organic flowers eggs herbs vegetables honey jams maple plants soap fruits","","market","http://www.hattiecarthancommunitymarket.com","-73.943587","40.690239","11221"
"New York City","https://www.facebook.com/pages/Hattie-Carthan-Community-Farmers-Market/186267911430230?ref=br_tf","Hattie Carthan Community Market","ny","Clifton & Marcy Avenues","organic baked goods cheese flowers eggs herbs vegetables prepared-foods soap fruits","","market","http://www.hattiecarthancommunitymarket.com","-73.948","40.6895",""
"Hauppauge ","","hauppauge farmers market","ny","102 motor parway","baked goods cheese flowers eggs seafood herbs vegetables honey jams plants prepared-foods soap trees fruits","","market","http://www.longislandgrowermarket.com","-73.828125","40.780541","11787"
"Haverstraw","","Haverstraw Farmers Market","ny","40 New Main Street","baked goods crafts eggs vegetables honey jams maple meat soap","","market","http://www.voh-ny.com/farmers.htm","-73.9668830","41.1968410","10927"
"Bridgehampton","","Hayground School Farmers' Market","ny","151 Mitchell Lane","organic baked goods cheese flowers seafood herbs vegetables honey nuts plants prepared-foods soap wine","","market","","-72.31524","40.94092","11932"
"Newburgh","","Healthy Orange Farmers Market","ny","132 Broadway","flowers herbs vegetables honey plants prepared-foods","","market","","-74.012961","41.500229","12550"
"Milton","https://www.facebook.com/pages/Heart-of-the-Hudson-Valley-Farmers-Market-Milton-NY/141460912532000","Heart of the Hudson Valley Farmers Market","ny","1801-1805 Rt. 9W, Cluett Schantz Park","organic baked goods cheese crafts flowers eggs herbs vegetables honey jams maple meat plants poultry prepared-foods soap trees wine coffee fruits juices","","market","http://www.hvfarmersmarket.com","-73.962171","41.653195","12547"
"Herkimer","https://www.facebook.com/pages/Herkimer-Farmers-Market/343803756975?ref=tn_tnmn","Herkimer Farmers' Market","ny","420 East German St","organic baked goods cheese flowers eggs herbs vegetables honey jams maple meat plants poultry soap fruits","","market","http://www.herkimerfarmersmarket.com/","-74.9864960","43.0346430","13350"
"Hicksville","","Hicksville Farmers Market","ny","Broadway and Jerusalem Avenue","baked goods flowers eggs herbs vegetables jams nursery plants wine","","market","http://www.ligreenmarket.org","-73.525231","40.76385","11801"
"Brooklyn","","High School for Public Service Youth Farm Market","ny","600 Kingston Avenue","baked goods flowers herbs vegetables plants","","market","http://www.hspsfarm.blogspot.com","-73.942634","40.658821","11220"
"Pulaski","https://www.facebook.com/pages/Hillside-Antiques-Flea-Farmers-Market/156152271105806","Hillside Market","ny","7753 NYS RT. 3 (Seaway Trail) Pulaski","baked goods cheese crafts herbs vegetables honey maple plants prepared-foods soap wine coffee fruits","","market","http://www.hillsidefleamarkets.com","-76.173678","43.587729","13142"
"PRESTON HOLLOW","","Hilltown Farmers Market","ny","2958  Route 145,","","","market","","-74.2013","42.4384","12469"
"Newburgh","","Historic Newburgh Farmers Market ","ny","Town Hall parking lot","","","market","http://www.localharvest.org/historic-newburgh-farmers-market-M43259","-74.0424","41.5379","12550"
"Hobart","https://www.facebook.com/HobartFarmersMarket","Hobart Farmers' Market","ny","101 Maple Avenue","baked goods cheese crafts flowers eggs herbs vegetables honey jams maple meat poultry soap trees coffee beans fruits juices","https://twitter.com/HobartFarmersMk","market","http://www.hobartfarmersmarket.com","-74.6644520","42.3669324","13788"
"Hogansburg","","Hogensburg Farmers' Market","ny","Cook Rd","","","market","","-74.629644","44.987717",""
"Holland","","Holland Farmers Market","ny","Municipal town parking lot, Route 16, next to fire dept","","","market","","-78.5425","42.6419",""
"Homer","https://www.facebook.com/homerfarmersmarket","Homer Farmers Market","ny","40 South Main Street","organic baked goods crafts flowers eggs seafood herbs vegetables honey jams maple meat plants poultry soap fruits mushrooms wild","","market","http://www.homerfarmersmarket.com","-76.1787381","42.6353170","13077"
"Hoosick Falls","https://www.facebook.com/HAYC3","Hoosick Falls Farmers Market","ny","80 Church Street","organic baked goods cheese crafts eggs vegetables honey jams maple nuts plants prepared-foods soap fruits","","market","http://www.hayc3.org","-73.351968","42.899451","12090"
"Hornell","https://www.facebook.com/hornellfarmersmarket","Hornell Farmers Market - Broadway Mall","ny","Broadway street","organic baked goods crafts flowers jams plants pet food","","market","http://www.Hornellhpg.com","-77.6601","42.3268","14843"
"Hornell","https://www.facebook.com/hornellfarmersmarket","Hornell Farmers Market - Broadway Park","ny","Broadway Park (Off Main St)","baked goods crafts flowers vegetables jams plants fruits","","market","http://www.hornellhpg.com","-77.660358","42.326380",""
"Hudson","https://www.facebook.com/hudson.markt","Hudson Farmers Market","ny","Corner of Columbia and Sixth Streets","organic baked goods cheese crafts flowers eggs seafood herbs vegetables honey jams maple meat nuts plants poultry prepared-foods soap wine coffee beans fruits grains juices mushrooms wild","","market","http://www.hudsonfarmersmarketny.com","-73.7836920","42.2486560","12534"
"Huntington Village","","Huntington Village Farmers Market","ny","Main St (Rt 25A), east of Route 110 North","","","market","","-73.4263","40.8712",""
"Bronx","https://www.facebook.com/DowntoEarthMarkets","Hunts Point Farmers Market Wednesday","ny","Southern Blvd & Est 163rd Street","","https://twitter.com/DowntoEarthMkts","market","http://www.downtoearthmarkets.com","-73.8915597","40.8210034",""
"Hudson Falls","","Husdon Falls Farmers Market","ny","Broadway Bowl, Rt 4, Across from McDonalds","","","market","","-73.5859","43.3006",""
"Hyde Park","","Hyde Park Farmers Market","ny","Hyde Park Drive-in, Rt 9","","","market","","-73.9426","41.7913",""
"ilion","https://www.facebook.com/ilionfarmer'smarketathistoricclapsaddlefarm","Ilion Farmers Market at Historic Clapsaddle Farm","ny","437 otsego street ,state route 51s","baked goods cheese crafts eggs herbs vegetables honey jams maple meat nuts prepared-foods fruits juices wild","","market","","-75.044560","43.001179","13357"
"Indian Lake","","Indian Lake Community Farmers Market ","ny","P.O. Box 651","organic baked goods cheese crafts flowers eggs herbs vegetables honey jams maple meat nuts plants poultry coffee fruits mushrooms pet food","","market","","-74.270517","43.782822","12842"
"New York","https://www.facebook.com/ManhattanGreenmarkets","Inwood Greenmarket","ny","Isham St - Seaman & Cooper","organic baked goods cheese eggs seafood vegetables jams maple meat poultry fruits","","market","http://www.grownyc.org","-73.919942","40.868272","10034"
"Rochester","","Irondequoit Farmers' Market","ny","1280 Titus Avenue","baked goods crafts seafood herbs vegetables honey jams maple nuts plants prepared-foods soap coffee fruits juices mushrooms","","market","http://www.irondequoit.org","-77.5819225","43.2117637","14617"
"Irvington","","Irvington Farmer's Market","ny","101 Main St. ","organic baked goods cheese flowers eggs seafood herbs vegetables honey jams maple meat nuts plants poultry prepared-foods trees wine coffee beans fruits grains juices mushrooms pet food wild","","market","http://www.irvingtonfarmersmarket.net","-73.8667554","41.0390494","10533"
"Brooklyn, NY","Isabahlia ladies of Elegance Foundation Inc","Isabahlia farmers Market","ny","410 Livoinia Ave","baked goods flowers eggs vegetables honey jams fruits","Isabahlialoef","market","http://Isabahlialoefinc.org","-73.901875","40.663651","11212"
"Islip","","Islip Farmers Market","ny","Town Hall parking lot,Montauk Highway (Route 27A)","","","market","","-73.2107","40.7303",""
"Ithaca","https://www.facebook.com/ithacamarket","Ithaca Farmers Market - DeWitt Park","ny","DeWitt Park","organic","https://twitter.com/ithacamarket","market","http://www.ithacamarket.com","-76.4987796","42.4417988","14851"
"Ithaca","https://www.facebook.com/ithacamarket","Ithaca Farmers Market - Steamboat Landing","ny","Steamboat Landing, 545 Third St. off Rt 13, Ithaca","organic","https://twitter.com/ithacamarket","market","http://www.ithacamarket.com","-76.509434","42.450833","14851"
"Queens","https://www.facebook.com/QueensGreenmarkets","Jackson Heights Greenmarket","ny","34 Ave - 77 & 78 Sts","organic baked goods cheese eggs seafood vegetables honey maple meat poultry wine fruits","","market","http://www.grownyc.org","-73.889215","40.753353","11372"
"Jamaica","https://www.facebook.com/DowntoEarthMarkets","Jamaica Farmers Market","ny","160th Street off Jamaica Ave.","","https://twitter.com/DowntoEarthMkts","market","http://www.downtoearthmarkets.com","-73.799557","40.704156","11433"
"Rochester","","Jefferson 7th-Day Adventist Farm Stand","ny","309 Jefferson Avenue","vegetables fruits","","market","http://www.foodlinkny.org","-77.6294440","43.1487770","14611"
"New York","","Jerome Avenue Market","ny","Plaza Drive between 170th & Elliot Place","vegetables nuts","","market","","-73.9164","40.839","10452"
"Katonah","https://www.facebook.com/John-Jay-Homestead-Farm-Market-326964104093547/","John Jay Homestead Farm Market","ny","400 Jay Street","organic baked goods cheese eggs seafood herbs vegetables honey jams meat plants poultry prepared-foods wine coffee fruits juices mushrooms wild","","market","http://johnjayhomestead.org/events/farm-market/","-73.6601630","41.2504980","10536"
"Johnson City","","Johnson City Farmers Market","ny","Oakdale Mall, Center Court","","","market","","-75.5233","42.5318",""
"Johnstown","https://www.facebook.com/fultonmontgomeryfarmersmarket","Johnstown Farmers Market","ny","Parking Lot Between Church and Main Street","baked goods eggs herbs vegetables honey maple meat plants trees fruits","","market","http://www.fultonmontgomeryfarmersmarket.org","-74.373801","43.006593","12095"
"Keene","","Keene Farmers' Market","ny","Rt. 73 at Marcy Airfield","organic baked goods cheese crafts flowers eggs herbs vegetables honey jams maple meat nuts plants poultry prepared-foods soap trees wine coffee fruits grains mushrooms wild","","market","http://www.adirondackfarmersmarket.com","-73.786935","44.222025","12944"
"Keeseville","","Keeseville Farmers' Market","ny","1721 Front St.","baked goods crafts flowers eggs herbs vegetables jams meat poultry wine coffee wild","","market","http://www.adirondackfarmersmarket.com","-73.480927","44.504430","12944"
"Kenmore","","Kenmore Farmers Market","ny","2919 Delaware Ave at Delaware Rd.","","","market","","-78.8698","42.9633","14217"
"Long Beach","https://www.facebook.com/crossroadsfarmatgrossmanns","Kennedy Plaza Farmers Market","ny","1 w. Chester Street","organic baked goods cheese crafts flowers eggs seafood herbs vegetables honey jams maple nursery plants soap wine","","market","","-73.6659437","40.5894142","11561"
"Brooklyn","https://www.facebook.com/BrooklynGreenmarkets","Kensington YM","ny","Ft. Hamilton Pkwy btwn E. 5th and E. 4th","organic vegetables jams plants fruits","","market","http://www.grownyc.org","-73.9500000","40.6500000","11218"
"kinderhook","","Kinderhook Farmers Market","ny","village green            green st.","organic baked goods cheese flowers eggs herbs honey maple meat nursery plants soap wine","","market","","-73.699830","42.396032","12106"
"King Ferry","","King Ferry Farmers Market","ny","State Route 34B","organic baked goods cheese crafts flowers herbs vegetables honey jams maple meat plants prepared-foods soap","","market","http://www.kingferry.blogspot.com","-76.6175","42.6666","13081"
"Kings Park","","Kings Park Farmers Market","ny","25A and Main Street","organic baked goods cheese flowers eggs seafood herbs vegetables honey jams maple nursery plants poultry soap wine","","market","http://www.ligreenmarket.org","-73.2549800","40.8848210","11754"
"Kingston","Facebook.com/kingstonfarmersmarket","Kingston Farmers' Market","ny","Wall Street - Uptown Kingston","organic baked goods cheese crafts flowers eggs seafood herbs vegetables honey jams maple meat nuts plants poultry prepared-foods soap trees wine coffee fruits grains juices mushrooms pet food wild","","market","http://www.kingstonfarmersmarket.org","-74.019483","41.932986","12402"
"Deposit","","Koo Koose Farmers Market","ny","Town of Sanford Garage, 192 Front St,","","","market","","-75.4233","42.0609","13754"
"Barneveld","","Kuyahoora Valley Farmers Market","ny","5 Blue Heron Dr.","","","market","http://www.kvfarmersmarket.com/","-75.1694","43.2161","13304"
"Bronx","","La Familia Verde Farmers Market","ny","East Tremont Ave. between Lafontaine Ave& Arthue Ave","baked goods flowers eggs herbs vegetables honey jams fruits juices","","market","http://www.lafamiliaverde.org","-73.893737","40.846468","10460"
"Manhattan","","La Marqueta","ny","1607 Park avenue","","","market","","-73.9437","40.7982","10029"
"New York City","","La Marqueta Farmers Market","ny","La Marqueta, E. 115th St & Park Ave, E. Harlem","","","market","","-73.9438","40.7983",""
"Lake Placid","","Lake Placid Farmers Market","ny","17 Algonquin Drive","organic baked goods cheese crafts flowers eggs herbs vegetables honey jams maple meat nursery plants poultry prepared-foods soap trees wine","","market","http://www.lakeplacidfarmersmarket.com","-73.99805","44.29433","12946"
"Lake Placid","https://www.facebook.com/ausablevalleygrangefarmersmarkets/","Lake Placid Farmers' Market ","ny","281 Station Street","organic baked goods cheese crafts flowers eggs vegetables honey jams maple meat poultry prepared-foods soap coffee fruits juices mushrooms wild","","market","http://www.ausablevalleygrangefarmersmarkets.com/lake-placid.html","-73.9841054","44.2770413","12946"
"Lakewood","https://www.facebook.com/lakewoodnyfarmersmarket/","Lakewood NY Farmers' and Artisans' Market","ny","Chautauqua Ave","organic baked goods crafts flowers eggs vegetables honey jams maple meat poultry soap trees fruits juices mushrooms wild","","market","http://lakewoodny.com/government/lakewoods-farmers-artisans-market/","-79.326095","42.103565","14750"
"lancaster","https://www.facebook.com/pages/Lancaster-Farmers-Market/174417889248452","Lancaster Market","ny","4913 Transit Road","organic baked goods crafts flowers eggs herbs vegetables honey jams maple plants prepared-foods soap trees wine coffee fruits juices mushrooms pet food","https://twitter.com/lancastervillagemarket","market","http://www.lancastervillagemarket.com","-78.693695","42.876719","14086"
"Lansing","","Lansing Farmers Market","ny","29 Auburn Rd","organic baked goods crafts flowers eggs herbs vegetables honey maple meat plants prepared-foods","","market","http://www.laramiefarmersmarket.com","-76.5033848","42.5380668","14882"
"Larchmont","www.facebook.com/DowntoEarthMarkets","Larchmont's Down to Earth Farmers Market","ny","Parking Lot off Chatsworth Ave.","organic baked goods cheese flowers eggs seafood herbs vegetables honey jams maple meat nuts plants poultry prepared-foods soap wine coffee beans fruits pet food","twitter.com/DowntoEarthMkts","market","http://DowntoEarthMarkets.com","-73.761381","40.933617","10538"
"Fishkill","","Lawrence Farms Farmer's Market","ny","1083 Rte 9 ","organic baked goods cheese crafts herbs vegetables jams fruits","","market","","-73.9048479","41.5619840","12524"
"Le Roy","https://www.facebook.com/pages/Le-Roy-Farmers-Market/117724794910922","Le Roy Farmers' Market","ny","Trigon Park","organic baked goods cheese eggs herbs vegetables honey jams maple nuts prepared-foods soap coffee fruits grains pet food","https://twitter.com/LRFarmersMarket","market","","-77.9859128","42.9775464","14482"
"Bronx","https://www.facebook.com/BronxGreenmarkets","Learn It, Grow It, Eat It YM","ny","Boston Rd and 169th St","organic vegetables jams plants fruits","","market","https://www.grownyc.org","-73.9002169","40.8312056","10456"
"New Lebanon","","Lebanon Valley Farmers Market","ny","501 State Route 20","baked goods cheese crafts flowers eggs herbs vegetables jams maple meat nursery prepared-foods soap","","market","http://www.LVFM.wordpress.com","-73.390796","42.467380","12125"
"Canastota","","Lenox/Canastota Farmers Market","ny","Cor. of Main & Hickory St","crafts flowers herbs vegetables jams maple fruits","","market","","-75.755324","43.074781","13032"
"Lowville","","Lewis County General Hospitals Farmers Market","ny","7785 North State street","baked goods cheese vegetables honey maple fruits","","market","http://www.lcgh.net","-75.500665","43.794672","13367"
"Lexington","https://www.facebook.com/LexingtonNYFarmersMarket","Lexington Farmers Market","ny","3542 Route 42","organic baked goods cheese crafts flowers eggs herbs vegetables honey jams maple meat plants poultry prepared-foods soap coffee fruits mushrooms wild","","market","","-74.380107","42.244475","12452"
"Lima","","Lima Presbyterian Church Farmers Market","ny","7295 W. Main St., Rts 15A","","","market","","-77.6114","42.9048",""
"Bronx","https://www.facebook.com/bronxgreenmarkets","Lincoln Hospital Greenmarket","ny","149 St & Morris","baked goods vegetables fruits","","market","http://www.grownyc.org","-73.9227384","40.8173880","10451"
"Little Falls","","Little Falls Farmers & Flea Market","ny","MBT Bank lot, Albany St.","","","market","","-74.8583","43.0428",""
"Lockport","","Lockport Farmers Market","ny","Pine Street and Walnut St","","","market","http://www.elockport.com","-78.6919","43.1688","14094"
"Locust Valley","","Locust Valley Farmers Market","ny","Forest Ave, across from Post Office","","","market","","-73.6056","40.875",""
"New York City","","Long Island City Green Market","ny","48th Ave between Vernon Blvd & 5th St","","","market","http://www.cenyc.org","-73.956","40.7446",""
"New York","","Lower East Side Girls Club FM","ny","La Plaza Garden, 9th St. & Avenue C","","","market","http://www.girlsclub.org","-75.6116","42.4935",""
"New York ","https://www.facebook.com/ManhattanGreenmarkets","Lower East Side YM","ny","Grand Avenue btwn Pitt St and Abraham Pl","baked goods eggs herbs vegetables honey jams plants fruits","","market","http://www.grownyc.org","-73.981773","40.714450","10002"
"New York","","Lower East Side Youthmarket","ny","Grand St. and Abraham Pl.","","","market","http://www.grownyc.org","-73.9834","40.7149","10007"
"Lowville","https://www.facebook.com/lowvillefarmandcraftmarket/","Lowville Farm and Craft Market","ny","5473 Bostwick Street","organic baked goods cheese crafts flowers eggs herbs vegetables honey jams maple meat plants poultry prepared-foods soap trees wine coffee fruits mushrooms pet food","","market","","-75.491021","43.793854","13367"
"Glen Spey","https://www.facebook.com/LumberlandCommunityMarket","Lumberland Community Market ","ny","Lumberland Town Hall 1054 Proctor Rd. ","","","market","http://www.localharvest.org/lumberland-community-market-M59709","-74.8169","41.4802","12737"
"BROOKLYN","","Lutheran Market","ny","150 55th Street","vegetables","","market","","-75.5123","42.9467","11220"
"Lyons Falls","","Lyons Falls Farmers' Market","ny","6904 Laura Street, Riverside Park","baked goods cheese crafts flowers eggs herbs vegetables honey jams maple plants prepared-foods soap trees wine fruits","","market","","-75.356929","43.614659","13368"
"Lyons Falls","","Lyons Farmers Market","ny","Wayne County Court House, 26 Church St","","","market","","-75.3611","43.6186",""
"Macedon","","Macedon Farmers Market","ny","32 Main St.","baked goods crafts flowers herbs vegetables maple","","market","","-77.307841","43.066975","14502"
"Brooklyn","","Malcolm X Boulevard Community Farmers Market","ny","Malcolm X Blvd & Chauncey,","baked goods crafts flowers eggs herbs vegetables jams meat nursery plants soap trees wine","","market","","-73.928182","40.679971","11233"
"Malone","","Malone Farmers' Market","ny","Rt. 11 Malone Airport","baked goods crafts eggs vegetables honey jams meat plants poultry fruits","","market","http://www.adirondackfarmersmarket.com","-74.327326","44.847775","12953"
"Ballston Spa","https://www.facebook.com/pages/Malta-Farmers-Market/260306257415569","Malta Farmers' Market","ny","2570 Route 9 ","baked goods crafts flowers eggs herbs vegetables jams plants prepared-foods soap fruits","","market","http://www.maltafarmersmarket.org","-73.789594","42.976901","12020"
"Manlius","","Manlius Farmers Market","ny","Behind Sno-Top, off Arkie Albanese Ave","","","market","http://www.manliusvillage.org","-75.9842","43.0038",""
"Bronx","https://www.facebook.com/BronxGreenmarkets","Marble Hill YM","ny","225th St. between Broadway and Exterior","vegetables jams plants fruits","","market","http://www.grownyc.org","-73.8666670","40.8500000","10034"
"Marcellus","","Market Days at Marcellus Park","ny","2449 Platt Road","","","market","http://www.park.marcellusny.com/","-76.3358","42.9753","13108"
"Hadley","Some Favorite Things Gallery","Market Place Thursdays","ny","315 Old Corinth Rd","crafts flowers eggs vegetables honey maple meat coffee fruits","none","market","","-73.847538","43.316314","12835"
"Amityville","www.facebook.com/longislandfarmtopreschool","Marks of Excellence Farmers Market","ny","455 Albany Ave","cheese flowers eggs vegetables honey plants fruits","","market","http://www.childcarenassau.org","-73.4092140","40.6989860","11701"
"Potsdam","","Martin's Farmstand","ny","11 Needham Rd.","baked goods cheese flowers eggs herbs vegetables honey jams maple fruits","","market","http://martinsfarmstand.locallygrown.net/market","-74.903750","44.670983",""
"Massena","","Massena Farmers' Market - Triple A Parking Lot","ny","3 Malby Ave.","","","market","","-74.876842","44.926938",""
"Massena","","Massena Farmers' Market-Town Hall","ny","60 Main Street","","","market","","-74.893325","44.931067",""
"New York City","","MBD Community Park Farmers Market","ny","1710 Southern Blvd","","","market","","-73.888","40.8364",""
"Brooklyn","https://www.facebook.com/DowntoEarthMarkets","McGolrick Park's Down to Earth Farmers Market","ny","Russell St., Monitor St. btw. Nassau Ave. and Driggs Ave","organic baked goods cheese flowers eggs seafood herbs vegetables honey jams meat nuts plants poultry prepared-foods wine coffee fruits tofu","https://twitter.com/DowntoEarthMkts","market","http://www.downtoearthmarkets.com","-73.943357","40.724406","11222"
"Mendon ","https://www.facebook.com/pages/Mendon-Farmers-Market-NY/187873981233177","Mendon Farmers Market","ny","101 Mendon Ionia Road","organic baked goods cheese crafts flowers eggs herbs vegetables honey jams maple meat plants poultry soap wine fruits","","market","http://www.cibi-d.com/market.php","-77.502426","42.990868","14506"
"Mexico","","Mexico Farm Market","ny","Lighthouse Village Park, Main Street","","","market","","-76.2113","43.4594","13114"
"Middleport","","Middleport Community Farmers Market","ny","81 Rochester Rd","organic baked goods cheese crafts flowers herbs vegetables jams meat plants","","market","http://www.localharvest.org/middleport-community-farmers-market-M32381","-78.4878","43.2055","14105"
"Millbrook","","Millbrook Farmers Market","ny","Front St. & Franklin Ave. (Bank lot)","","","market","http://www.millbrookfarmersmarket.com","-73.6965","41.7832",""
"MIllerton","","Millerton Farmers Market","ny","Main Street and Railroad Plaza","baked goods cheese flowers eggs herbs vegetables honey jams maple meat plants poultry prepared-foods soap coffee fruits grains mushrooms","","market","http://www.neccmillerton.org/millerton_farmers_market.html","-73.511549","41.953307","12546"
"Mohawk","working on a facebook","Mohawk Farmers Market","ny","41 West Main Street","baked goods crafts flowers eggs herbs vegetables honey jams maple meat plants wine fruits"," no twitter","market","","-74.377823","42.954056","13407"
"Monroe","","Monroe Farmers Market","ny","Museum Village, 1010 Rt 17M","baked goods herbs vegetables honey fruits","","market","","-74.200308","41.344566","10950"
"Rochester","","Monroe Village Farmers' Market","ny","730 Monroe Ave","organic baked goods cheese crafts flowers eggs herbs vegetables jams nursery plants poultry soap","","market","http://www.monroevillagefarmersmarket.org","-77.5884889","43.1435614","14607"
"Bronx","","Montefiore Medical Center Farmers Market_Friday","ny","E. 233rd St. & Carpenter Ave.","","","market","","-73.8603","40.8943","10467"
"Bronx","","Montefiore Medical Center Farmers Market_Thursday","ny","111 E. 210th Street","","","market","","-73.8789","40.8804","10467"
"Seneca Falls","","Montezuma Winery Farmers Market","ny","2981 U.S. Route 20","baked goods cheese crafts flowers vegetables honey nursery plants prepared-foods wine","","market","http://www.montezumawinery.com","-76.767311","42.949952","13148"
"Montour Falls","https://www.facebook.com/Montour-Falls-Library-140122486056562","Montour Falls Farmers Market","ny","300 West Main Street","organic baked goods cheese flowers eggs herbs vegetables honey jams maple meat plants poultry prepared-foods wine coffee fruits mushrooms wild","","market","http://www.montourfallsfarmersmarket.com","-76.847748","42.346431","14865"
"Moravia","https://www.facebook.com/NilesFarmsMarket","Moravia Farmers Market","ny","130 Main Street","baked goods crafts eggs herbs vegetables honey jams maple plants soap fruits","","market","","-76.4208","42.7121","13118"
"Morris","","Morris Farmers Market","ny","Morris Firehouse, West Main St.","","","market","","-75.2444","42.5489","13808"
"Morrisville","","Morrisville Winter Farmers Market","ny"," Route 20","","","market","","-75.6401","42.8985","13408"
"Bronx","","Mount Eden Farmer's Market","ny","Mount Eden & Morris Avenue","flowers vegetables","","market","http://www.harvesthomefm.org","-73.8686","40.8538","10457"
"Mount Kisco","https://www.facebook.com/MtKiscoFarmersMarket","Mount Kisco Farmers Market ","ny","St. Mark's Church 85 East Main St. ","","","market","","-73.7269","41.2077","10549"
"Mount Morris","","Mount Morris Farmers Market","ny","Village Hall Parking Lot, 117 Main St","","","market","","-77.8726","42.7242",""
"Dansville","","Mount Morris Village Farmers Market","ny","30 E. State St.","","","market","","-77.7046","42.5595","14437"
"New York","https://www.facebook.com/ManhattanGreenmarkets","Mount Sinai Hospital Greenmarket","ny","E99 St. - Madison & Park Aves","baked goods eggs vegetables poultry fruits","","market","http://www.grownyc.org","-73.952043","40.788941","10029"
"Mount Vernon","","Mount Vernon Fresh Connect Farmers' Market","ny","City Hall Plaza, One Roosevelt Plaza","herbs vegetables honey jams fruits","","market","http://www.cmvny.com","-73.834305","40.913253","10550"
"New York","https://www.facebook.com/HERBanFarmersMarket","Mt. Morris Park HERBan Farmers' Market","ny","Marcus Garvey Park 124th Street and 5th Avenue","organic baked goods cheese crafts flowers eggs herbs vegetables honey jams maple meat nuts poultry prepared-foods soap wine coffee fruits juices","https://twitter.com/HERBanFarmMarkt","market","http://www.HerbanFarmersMarket.org","-73.942773","40.805778","10027"
"New York","","Mt. Morris Park Historic District Market","ny","124th Street & 5th Avenue","vegetables","","market","","-73.8436","40.7926","10035"
"Katonah","https://www.facebook.com/pages/Muscoot-Farm/102866336419232","Muscoot Farmers Market","ny","51 Route 100","baked goods cheese crafts flowers eggs seafood herbs vegetables honey jams maple meat plants poultry prepared-foods soap wine fruits mushrooms","","market","http://www.muscootfarm.org","-73.726459","41.259469","10536"
"Narrowsburg","","Narrowsburg Country Market","ny","Library parking lot , Bridge Street","","","market","","-75.0581","41.6076","12764"
"Nesconset","","Nesconset Farmer's Market","ny","127 Smithtown Blvd.","organic baked goods cheese flowers eggs seafood vegetables honey jams maple nursery plants wine","","market","http://www.ligreenmarket.org","-73.1569040","40.8371738","11767"
"New York","","New Amsterdam Market","ny","South Street Between Beekman Street and Peck Slip","organic baked goods cheese crafts flowers eggs seafood herbs vegetables honey jams maple meat nuts plants poultry prepared-foods soap wine","","market","http://www.newamsterdammarket.org","-74.003220","40.706929","10038"
"Westbury","https://www.facebook.com/pages/New-Cassel-Farmers-Market/138769932883107","New Cassel Farmers' Market","ny","212 Garden Street","organic flowers eggs herbs vegetables honey jams soap fruits","","market","http://www.unccrc.org","-73.5676908","40.7622244","11590"
"New paltz","https://www.facebook.com/CopakeFarmersMarket","New Paltz Farmers Market","ny","28 Main Street","organic baked goods cheese eggs herbs vegetables honey jams maple meat poultry prepared-foods wine fruits","","market","","-74.087700","41.746921","12561"
"Bronx","https://www.facebook.com/bronxgreenmarkets","New York Botanical Garden Greenmarket","ny","Kazimiroff Blvd-Bedford Pk & Mosholu Blvd inside NYBG Mosholu Gate","baked goods vegetables fruits","","market","http://www.grownyc.org","-73.880696","40.866860","10458"
"Newark","https://www.facebook.com/newarkfarmersmarket","Newark Farmers' Market","ny","Central Park, Church Street","baked goods cheese flowers vegetables honey jams maple fruits","","market","","-77.09458","43.04465","14513"
"Newark Valley","https://www.facebook.com/newarkvalleyfarmersmarket","Newark Valley Farmers Market","ny","Route 38","baked goods eggs herbs vegetables honey jams maple plants poultry soap trees fruits","","market","","-76.183963","42.223179","13811"
"Newburgh","","Newburgh Farmers Market at Downing Park","ny","Corner of Rt. 9W and Rt. 52 (Robinson Ave.and South St.)","baked goods cheese flowers eggs herbs vegetables honey jams meat plants poultry prepared-foods","","market","http://www.downingpark.org","-74.019356","41.507035","12550"
"Newfane","","Newfane Methodist Church Farmer's Market","ny","2699 Main Street","organic baked goods cheese crafts eggs vegetables meat poultry prepared-foods soap fruits","","market","","-78.7091315","43.2841508","14108"
"Niagara Falls, USA","","Niagara Falls City Market","ny","Pine Avenue at 18th Street","baked goods eggs herbs vegetables honey jams meat plants poultry fruits","","market","","-79.040395","43.096277",""
"T/NILES","https://www.facebook.com/NilesFarmsMarket","NILES FARMERS MARKET","ny","TOWN HALL, 5923 NEW HOPE ROAD","baked goods flowers eggs vegetables honey maple plants fruits","","market","","-76.3519797474146","42.7978312969208","13118"
"Buffalo ","https://www.facebook.com/North-Buffalo-Farmers-Market-1375842429358131/?fref=ts","North Buffalo Farmers Market","ny","85 Dakota Avenue","organic baked goods cheese flowers eggs herbs vegetables honey jams maple meat nuts poultry prepared-foods soap wine coffee beans fruits mushrooms pet food wild","https://twitter.com/NorthBuffaloMkt","market","http://www.northbuffalofarmersmarket.com/","-78.867126","42.947332","14216"
"Bronx","","North Central Bronx Market","ny","Mosholu Parkway North & Jerome","vegetables","","market","","-73.8838","40.8804","10467"
"North Chili","","North Chili Farmers Market","ny","Methodist Church Parking Lot, 2200 Westside Dr.","","","market","","-77.7938","43.1057","14514"
" North Creek","https://www.facebook.com/NorthCreekFarmersMarket","North Creek Farmers Market","ny","River Front Park, Rail Road Place","organic baked goods cheese crafts eggs vegetables honey jams maple meat poultry prepared-foods soap wine coffee fruits mushrooms wild","","market","http://www.NorthCreekFarmersMarket.com","-73.988272","43.702638","12843"
"North Greenbush","","North Greenbush Farmers Market","ny","95 Williams Rd.","baked goods crafts eggs herbs vegetables honey jams maple meat plants prepared-foods fruits","","market","","-73.676923","42.691363","12198"
"North Tonawanda","","North Tonawanda City Market","ny","Robinson St. and Payne Ave.","baked goods cheese crafts flowers eggs herbs vegetables honey jams maple meat nuts plants poultry prepared-foods soap trees wine coffee fruits grains juices mushrooms pet food tofu","","market","http://www.ntcitymarket.org","-78.870528","43.033984","14120"
"Northport","https://www.facebook.com/pages/Northport-Farmers-Market/653152611365554","Northport Farmers Market","ny","Cow Harbor Parking Lot at the Harbor","organic baked goods cheese flowers eggs seafood herbs vegetables honey jams meat nuts plants soap coffee fruits","","market","http://www.northportfarmersmarket.org","-73.351584","40.899796","11768"
"Northport","","Northport VA Farmers Market","ny","79 Middleville Rd","baked goods cheese herbs vegetables honey jams prepared-foods coffee fruits juices pet food","","market","","-73.308946","40.894450","11768"
"Binghamton","","Northside Farmers Market","ny","Big Lots Parking Lot, 435 State St.","","","market","","-73.941","41.5147",""
"Northville","","Northville Farmers' Market","ny","Waterfront Park, off Main Street","","","market","","-74.1702","43.2258",""
"Norwich","Norwich NY Farmers Market","Norwich Farmers Market","ny","2-75 North Broad Street","baked goods cheese crafts flowers eggs herbs vegetables honey jams maple meat nuts poultry soap coffee beans fruits grains mushrooms wild","","market","http://www.lambsquartersinc.com","-75.523491","42.531490","13815"
"Nunda","","Nunda Farmers Market","ny","On the Square at the intersection of Rtes 408 & 436","","","market","http://www.nundachamber.com","-77.9425","42.5795",""
"Nyack","Nyack Farmers Market","Nyack Farmers Market","ny","Main Street Parking Lot- Downtown Nyack","baked goods cheese flowers eggs seafood herbs vegetables honey jams maple meat plants poultry prepared-foods soap wine coffee fruits juices pet food wild","Nyack Farmers Market","market","http://Nyackchamber.org","-73.920350","41.091089","10960"
"Nyack","Nyack Farmers Market","Nyack Indoor Winter Farmers' Market","ny","Nyack Center- 58 Depew Avenue","baked goods cheese crafts flowers eggs seafood herbs vegetables honey jams maple meat nuts poultry prepared-foods soap coffee fruits juices pet food wild","Nyack Farmers Market","market","http://Nyackchamber.org","-73.9190023","41.0894236","10960"
"Old Forge","","Old Forge Farmer's Market","ny","Park Avenue","baked goods cheese eggs vegetables honey maple poultry wine","","market","","-74.9749470","43.7079680","13420"
"Brushton","","Olde School Farmers Market","ny","1259 Washington Street","","","market","","-74.514","44.8301",""
"Utica","https://www.facebook.com/oneidacountymarket","Oneida County Public Market","ny","321 Main Street","baked goods cheese crafts eggs herbs vegetables honey jams maple meat nuts plants poultry prepared-foods soap trees wine coffee fruits grains juices mushrooms pet food","","market","http://www.oneidacountymarket.com","-75.2238804","43.1039095","13501"
"Oneida","https://www.facebook.com/MarionsOpenAirMarket","Oneida Farmers Market","ny","Clinch Park, Oneida St.","","","market","","-75.6667","43.1152",""
"Oneonta","","Oneonta Farmers' Market","ny","Main Street Plaza (GPS 209 Main Street)","organic baked goods cheese crafts flowers eggs herbs vegetables honey jams maple meat plants poultry prepared-foods soap wine fruits mushrooms","","market","http://www.OneontaFarmersMarket.com","-75.0615812","42.4542556","13820"
"Oneonta ","https://www.facebook.com/oneontafarmersmarket","Oneonta Farmers' Market -  garage walkway","ny","198 Main Street at the garage walkway","organic baked goods crafts eggs vegetables honey jams maple meat poultry soap fruits","","market","http://www.oneontafarmersmarket.com","-75.062033","42.453680","13820"
"Oneonta","https://www.facebook.com/oneontafarmersmarket","Oneonta Farmers' Market - Muller Plaza","ny","198 Main St., at Muller Plaza ","organic baked goods cheese crafts flowers eggs herbs vegetables honey jams maple meat plants poultry soap trees fruits grains juices mushrooms","","market","http://www.OneontaFarmersMarket.com","-75.061566","42.454008","13820"
"Long Island City","https://www.facebook.com/pages/Orchard-Farmers-Market/134484303275228","Orchard Farmers Market","ny","42-24 Greenpoint Avenue","","","market","","-73.9273","40.7386","11104"
"Orchard Park","https://www.facebook.com/pages/Orchard-Park-Farmers-Market-at-Fox-Run/199492926762050","Orchard Park Farmer's Market at Fox Run","ny","One Fox Run Lane","baked goods cheese crafts flowers eggs vegetables honey jams maple meat nuts plants poultry prepared-foods coffee fruits grains pet food","","market","http://www.foxrunorchardpark.com","-78.7729450","42.7630250","14127"
"Medina","","Orleans County Farmers' Market - Erie Canal Basin","ny","Erie Canal Basin","flowers herbs vegetables honey jams maple plants wine fruits","","market","","-78.386261","43.221089","14103"
"Albion","","Orleans County Farmers' Market - Save-A-Lot Plaza","ny","320 West Avenue(Rt.31)","flowers herbs vegetables honey jams maple meat plants poultry wine fruits","","market","","-78.202680","43.240635","14411"
"Oswego","","Oswego Farmers Market","ny","West First Street","organic baked goods cheese crafts flowers eggs vegetables honey jams maple poultry soap wine","","market","","-76.509604","43.454570","13126"
"Binghamton","","Otsiningo Park Farmers' Market","ny","1 Bevier St","organic baked goods cheese crafts flowers herbs vegetables honey jams maple meat plants soap","","market","","-75.9031","42.1265","13905"
"Berlin","","Our Valley Community Farmers' Market","ny","18 Brimmer Farm Road","baked goods cheese eggs herbs vegetables jams maple soap","","market","http://www.ourvalleycfm.org","-73.3725286","42.7178586","12022"
"Owego","https://www.facebook.com/OwegoFarmtoForkEveningMarket","Owego Marketplace Farmers' Market","ny","200 Front St","baked goods eggs herbs vegetables honey jams maple poultry prepared-foods soap fruits juices pet food","","market","","-76.260298","42.102533","13827"
"Oyster Bay","","Oyster Bay Farmer's Market","ny","54 Audrey Street","baked goods cheese flowers eggs herbs vegetables jams maple plants soap wine","","market","http://www.ligreenmarket.org","-73.5330693","40.8737363","11771"
"Painted Post","https://facebook.com/PaintedPostFarmersMarket","Painted Post Farmers' Marker -Summer","ny","277 Steuben St","cheese flowers eggs vegetables honey maple meat poultry soap fruits","","market","","-77.092384","42.163762","14870"
"Halcottsville","https://www.facebook.com/pages/Pakatakan-Farmers-Market","Pakatakan Farmers Market","ny","State Highway 30 Historic Round Barn","organic baked goods cheese crafts flowers eggs seafood herbs vegetables honey jams maple meat plants poultry prepared-foods soap trees wine coffee beans fruits grains juices mushrooms pet food tofu wild","","market","http://roundbarnmarket.org/","-74.596497","42.200165","12438"
"Palisades","https://www.facebook.com/Palisades-Indoor-Farmers-Market-NY-198235466870315/","Palisades Winter Farmers' Market","ny","675 Oak Tree Road","baked goods cheese crafts eggs seafood vegetables honey jams meat plants prepared-foods coffee fruits mushrooms pet food","","market","http://www.palisadesfm.org","-73.917284","41.011605","10964"
"PALMYRA","","Palmyra Farmers Market","ny","E MAIN STREET VILLAGE PARK","organic baked goods crafts flowers eggs herbs vegetables honey maple nursery plants trees","","market","http://www.palmyany.com","-77.230691","43.0616","14522"
"Niagara Falls","www.facebook.com/parkplacemarket","Park Place Market","ny","630 Main Street","baked goods crafts flowers eggs herbs vegetables honey jams maple plants prepared-foods fruits juices","","market","http://www.parkplacemarketnf.com","-79.0574029","43.0935710","14301"
"Bronx","https://www.facebook.com/bronxgreenmarkets","Parkchester/Virginia Pk Greenmarket","ny","Westchester Ave & White Plains Rd","baked goods vegetables honey jams plants fruits","","market","http://www.grownyc.org","-73.8626362","40.8330521","10472"
"Plattsburgh","","Paul Smiths College Farmers Markets","ny","8023 NYS Route 30","baked goods crafts vegetables jams maple meat plants poultry fruits","","market","http://www.adirondackfarmersmarket.com","-74.256516","44.442730","12901"
"Pawling","Pawling Farmer's Market - Saturdays 9am-1pm","Pawling Farmers Market","ny","Charles Colman Blvd & West Main Street","organic baked goods cheese crafts flowers eggs herbs vegetables honey jams maple meat poultry soap wine coffee fruits mushrooms pet food","","market","http://www.pawlingfarmersmarket.org","-73.600845","41.564215","12564"
"Irving","FB Peaceful SOUL Farmers Market","Peaceful SOUL Farmers Market","ny","11359 Southwestern Blvd","organic baked goods cheese crafts flowers eggs herbs vegetables honey jams maple meat plants poultry prepared-foods soap coffee fruits pet food","","market","http://www.peacefulsoulfarmersmarket.com","-79.094455","42.571743","14081"
"Peekskill ","https://www.facebook.com/peekskillfarmersmarket","Peekskill Farmers Market - Indoor Market","ny","4 Nelson Ave.","organic baked goods cheese crafts eggs seafood herbs vegetables honey jams maple meat poultry soap wine fruits mushrooms","@PkskllFarmMkt ","market","http://peekskillfarmersmarket.com/","-73.9226448","41.2910604","10566"
"Peekskill","https://www.facebook.com/peekskillfarmersmarket","Peekskill Farmers Market - Outdoor Market","ny","13 Bank Street, Peekskill New York","organic baked goods cheese crafts flowers eggs seafood herbs vegetables honey jams maple meat poultry soap wine fruits juices mushrooms pet food","@pkskllfarmmkt","market","http://peekskillfarmersmarket.com","-73.919085","41.291198","10566"
"Perry","https://www.facebook.com/PerryFarmersMarket","Perry Farmers Market","ny"," S Main St between Lake and Dolbeer Streets","baked goods cheese crafts flowers eggs herbs vegetables honey jams maple meat plants soap trees wine coffee fruits wild","","market","http://www.perryfarmersmarket.com","-78.002954","42.717515","14530"
"Philadelphia","https://www.facebook.com/pages/Philadelphia-Farmers-Market/213464668678323?ref=hl","Philadelphia Farmers Market","ny","2 South Main Street","crafts eggs vegetables poultry prepared-foods soap wine","","market","http://www.phillyny.com","-75.709706","44.146837","13673"
"Village of Philmont","","Philmont Farmers' Market ","ny","116 Main St. - opposite Local 111 restaurant ","organic baked goods cheese crafts flowers eggs herbs vegetables honey jams maple meat plants poultry prepared-foods soap fruits","","market","http://www.philmontcooperative.com","-73.649443","42.249303","12565"
"Pine Bush ","","Pine Bush Farmers Market","ny","62 Main Street","organic baked goods cheese crafts flowers eggs herbs vegetables honey meat plants wine coffee fruits","","market","","-74.3003420","41.6095260","12566"
"Pine Island","","Pine Island Farmer's Market","ny","329 Glenwood Rd","organic baked goods cheese crafts eggs herbs vegetables honey jams maple meat poultry prepared-foods soap wine","","market","http://www.pineislandfarmersmarket.com","-74.4770163","41.2791127","10969"
"Brooklyn","www.facebook.com/CHLDC","Pitkin Verde Farmers Market","ny","2094 Pitkin Avenue","flowers herbs vegetables fruits mushrooms","twitter.com/CHLDC","market","http://www.cypresshills.org","-73.895438","40.671863","11207"
"Pittsford","","Pittsford Farmers Market","ny","3400 Monroe Avenue","organic baked goods flowers eggs herbs vegetables honey jams maple nursery plants soap wine","","market","","-77.535667","43.101484","14534"
"Modena","","Plattekill Farmers Market","ny","1915 Rte 44-55","","","market","http://www.town.plattekill.ny.us","-74.1042","41.6682","12548"
"Plattsburgh","https://www.facebook.com/pages/Plattsburgh-Farmers-and-Crafters-Market/121588034547095","Plattsburgh Farmers'& Crafters' Market","ny","Durkee street,","organic baked goods cheese crafts flowers eggs herbs vegetables honey jams maple meat plants poultry prepared-foods soap wine coffee beans fruits juices pet food","","market","","-73.4516","44.6964","12901"
"Plattsburgh","http://facebook.com/plattsburghfarmersmarket","Plattsburgh Winter Farmers Market","ny","52 US Oval","organic baked goods cheese flowers eggs herbs vegetables honey jams maple meat poultry prepared-foods wine","plattsburghfarmersmarket","market","http://plattsburghfarmersmarket.com","-73.445664","44.686762","12903"
"Pleasant Valley","","Pleasant Valley Farmers Market","ny","Town Hall, Rt 44","","","market","","-73.8047","41.7504",""
"Pleasantville","https://www.facebook.com/PvilleFarmMarket","Pleasantville Farmers Market - Indoor","ny","40 Romer Avenue","organic baked goods cheese crafts flowers eggs seafood herbs vegetables honey jams maple meat nuts poultry prepared-foods soap coffee fruits juices mushrooms wild","","market","http://pleasantvillefarmersmarket.com","-73.783867","41.134211","10570"
"Pleasantville","https://www.facebook.com/PvilleFarmMarket","Pleasantville Farmers Market - Outdoor","ny","Memorial Plaza (next to the train station)","organic baked goods cheese crafts flowers eggs seafood herbs vegetables honey jams maple meat nuts plants poultry prepared-foods soap wine coffee fruits juices mushrooms wild","","market","http://pleasantvillefarmersmarket.com","-73.791678","41.134760","10570"
"Bronx","https://www.facebook.com/bronxgreenmarkets","Poe Park Greenmarket","ny","Grand Concourse & 192 St","baked goods vegetables honey fruits","","market","http://www.grownyc.org","-73.8958435","40.8642600","10468"
"Poestenkill","http://www.facebook.com/poestenkillfarmersmarket","Poestenkill Farmers Market","ny","38 Davis Drive","baked goods cheese crafts flowers eggs herbs vegetables honey jams maple meat plants poultry soap wine fruits mushrooms pet food","","market","http://www.poestenkillfarmersmarket.com","-73.5635307","42.6904758","12140"
"Flushing","https://www.facebook.com/QCHFarmersMarket","Pomonok Community Run Farmers' Market","ny","67-09 Kissena Blvd","herbs vegetables honey nuts fruits","","market","http://www.qchnyc.org","-73.8146481","40.7352888","11367"
"Poolville","","Poolville Second Saturdays Winter Farmers Market","ny","Route 89","","","market","","-75.5064","42.7755","13332"
"Port Chester","https://www.facebook/Port-Chester-Farmers-Market-1440567712732869/","Port Chester Farmers Market","ny","Highland St","organic baked goods cheese eggs seafood herbs vegetables honey jams maple meat nuts poultry prepared-foods coffee fruits juices mushrooms pet food","https://www.twitter.com/cgmarketsllc","market","https://www.portchesterfarmersmarket.com","-73.661339","41.002110","10573"
"Port Henry","","Port Henry Farmers' Market","ny","Main St.","crafts vegetables","","market","http://www.adirondackfarmersmarket.com","-73.4591401","44.0491221","12974"
"Port Jefferson","","Port Jefferson Farmers Market","ny","Parking lot next to Ferry, Rt 25A","","","market","","-72.8546","40.8786","11777"
"Port Jervis ","","Port Jervis Healthy Orange Farmers Market","ny","","baked goods crafts eggs seafood herbs vegetables honey maple poultry prepared-foods soap coffee fruits juices","","market","http://pjfarmmarket.com","-74.6926630","41.3750937","12771"
"Port Washington","facebook.com/grassrootsinfo","Port Washington Organic Farmers' Market","ny","Town Dock, Main Street","organic baked goods cheese crafts flowers eggs seafood herbs vegetables honey plants soap coffee fruits","twitter.com/GrassrootsEnvEd","market","http://grassrootsinfo.org/farmersmarket.php","-73.702532","40.832058","11050"
"Potsdam ","https://www.facebook.com/thepotsdamfarmersmarket","Potsdam Farmers Market","ny","Ives Park","baked goods crafts flowers eggs herbs honey jams maple meat plants poultry prepared-foods soap wine coffee beans fruits mushrooms wild","","market","http://thepotsdamfarmersmarket.org","-74.9850133","44.6660049","13676"
"Poughkeepsie","","Poughkeepsie Farmers' Market","ny","Pulaski Park on Washington Street","baked goods vegetables soap wine","","market","http://www.farmproject.org/market","-73.930864","41.712841","12601"
"Poughkeepsie","facebook.com/POKWaterfrontMarket/","Poughkeepsie Waterfront Market","ny","75 North Water St.","baked goods eggs seafood vegetables poultry prepared-foods","","market","http://mhcm.org/visit/poughkeepsie-waterfront-market","-73.940010","41.709079","12601"
"Prattsburgh","https://www.facebook.com/pages/Prattsburgh-Farmers-Market/214315745259298","Prattsburgh's Sustainable Farmers Market","ny"," Main st","baked goods crafts flowers eggs herbs vegetables honey jams maple meat plants poultry prepared-foods soap fruits mushrooms","","market","","-77.2890630","42.5202059","14873"
"Rochester","","Project HOPE Farm Stand","ny","92 Conkey Avenue","vegetables fruits","","market","","-77.6193330","43.1749480","14621"
"New York","","PS 11 Farm Market","ny","320 West 21st Street","organic cheese eggs herbs vegetables honey maple meat poultry fruits wild","","market","http://www.ps11chelsea.org","-74.001176","40.744677","10011"
"Pulaski","","Pulaski Farmers Market","ny","South Park, center of village","organic baked goods crafts flowers herbs vegetables honey jams maple meat plants prepared-foods soap","","market","http://www.pulaskifarmersmarket.com","-78.8296","42.8216","13142"
"Queens","https://www.facebook.com/DowntoEarthMarkets","Queens Botanical Garden's Down to Earth Farmers Market","ny","Dahlia Avenue at Main Street","baked goods eggs vegetables honey plants fruits","https://twitter.com/DowntoEarthMkts","market","http://www.downtoearthmarkets.com","-73.826430","40.751784","11355"
"Jamaica","","Queens Hospital Center Farmers Market","ny","82 164th Street","","","market","","-73.7991","40.7089","11432"
"Queensbury","https://www.facebook.com/GFFarmersMarket","Queensbury Farmers Market","ny","Sweet Basil parking lot, Route9, Queensbury","eggs vegetables honey jams plants fruits","","market","http://www.glensfallsfarmersmarket.com","-73.683081","43.342329",""
"Randolph","","Randolph Farmers Market","ny","Pavilion behind Fire Hall, 72 Main St","","","market","","-75.6651","43.1142",""
"Brooklyn ","","RB's Bushwick Farmers Market ","ny","Knickerbocker Ave at Starr Street ","baked goods cheese crafts flowers eggs vegetables honey jams maple meat nuts plants poultry prepared-foods soap trees wine coffee beans fruits grains juices mushrooms tofu wild","","market","https://www.rbscc.org/rbfarmersmarkets","-73.9253918","40.7028088","11237"
"Brooklyn ","","RB's Bushwick Farmers' Market","ny","553 Bushwick Ave ","baked goods crafts flowers eggs vegetables honey jams maple soap coffee fruits grains juices","","market","http://rbscc.org/rbfarmersmarkets ","-73.935753","40.699545","11206"
"Olean","https://www.facebook.com/olean.farmers.market","REAP Olean Farmers Market","ny","Cinema Drive","baked goods cheese crafts flowers eggs herbs vegetables honey jams maple meat plants poultry soap trees wine fruits","","market","http://www.oleanfarmersmarket.com","-78.4648828","42.0800011","14760"
"Brooklyn","","Red Hook Farmers Market","ny","580 Columbia St.","cheese flowers herbs vegetables jams meat plants","","market","http://www.added-value.org","-74.009","40.672","11231"
"Geneva","https://www.facebook.com/redjacketorchards","Red Jacket Orchards","ny","957 Route 5 & 20","organic baked goods cheese herbs vegetables honey jams maple meat nuts prepared-foods soap fruits","https://twitter.com/Redjacketny","market","http://www.redjacketorchards.com","-77.020653","42.857681","14456"
"North Greenbush","","Rensselaer County Farmers Market","ny","Twin Town Little League Field, Williams Rd","","","market","","-73.6772","42.6719",""
"RHINEBECK","RHINEBECKFARMERSMARKET","Rhinebeck Farmers Market","ny","61 EAST MARKET ST","organic baked goods cheese crafts flowers eggs seafood vegetables honey jams maple meat plants poultry prepared-foods soap trees wine fruits grains juices mushrooms","RHINEBECKMKT","market","http://WWW.RHINEBECKFARMERSMARKET.COM","-73.9102070","41.9273780","12572"
"RHINEBECK","RHINEBECKFARMERSMARKET","RHINEBECK FARMERS' MARKET LTD","ny","80 EAST MARKET ST","organic baked goods crafts flowers eggs seafood herbs vegetables honey jams maple meat nuts plants poultry soap trees wine fruits grains juices mushrooms","RHINEBECKMKT","market","http://WWW.RHINEBECKFARMERSMARKET.COM","-73.9089610","41.9267700","12572"
"Richfield Springs","Richfield Springs Farmers Market","Richfield Springs Area Farmers Market","ny"," Main Street & Church Street","baked goods cheese flowers eggs herbs vegetables honey jams maple plants poultry soap fruits mushrooms wild","","market","","-74.984285","42.853408","13439"
"Queens","https://www.facebook.com/QueensGreenmarkets","Ridgewood YM","ny","Myrtle Ave and Cypress Ave","organic baked goods vegetables jams plants fruits","","market","http://www.grownyc.org","-73.906193","40.700110","11385"
"Bronx","","Riverdale  Y Sunday Market","ny","West 237th Street and Independence Avenue","organic baked goods cheese crafts flowers eggs vegetables honey jams poultry prepared-foods soap fruits","","market","http://www.riverdaley.org","-73.9131097","40.8883134","10471"
"Bronx","https://www.facebook.com/BronxGreenmarkets","Riverdale YM","ny","Mosholu Ave. and 256th St.","vegetables jams plants fruits","","market","http://www.grownyc.org","-73.9031286","40.9038811","10471"
"Riverhead","","Riverhead Farmers Market","ny","Next to Aquarium, Downtown","","","market","","-72.6566","40.9185",""
"Bronx","https://www.facebook.com/BronxGreenmarkets","Roberto Clemente Plaza YM","ny","3rd Ave bet East 148th & East 149th Streets","vegetables jams plants fruits","","market","http://www.grownyc.org","-73.9149219","40.8149360",""
"Rock Hill ","www.facebook.com/rhfarmersmarket","Rock Hill Farmers Market","ny","223 Rock Hill Drive","baked goods cheese crafts flowers eggs herbs vegetables honey jams maple meat poultry prepared-foods soap wine fruits mushrooms","","market","http://www.rockhillfarmersmarket.com","-74.5964929","41.6252146","12775"
"New York","https://www.facebook.com/ManhattanGreenmarkets","Rockefeller Center Greenmarket","ny","Rockefeller Plaza - 50 St.","organic baked goods cheese eggs herbs vegetables honey jams poultry prepared-foods wine fruits","","market","http://www.grownyc.org","-73.980560","40.759513","10185"
"rockville centre","","rockville centre farmers market","ny","sunrise high/long beach road","baked goods cheese flowers eggs seafood herbs vegetables honey jams plants prepared-foods soap wine","","market","http://www.loriherbelfarmersmarkets.com","-73.6278794","40.6652431","11571"
"Rocky Point ","https://www.facebook.com/pages/Rocky-Point-Civic-Association/232940942217","Rocky Point Farmers and Artisans Market","ny","Prince and Broadway","organic baked goods cheese crafts eggs herbs vegetables honey jams maple meat nuts plants poultry prepared-foods soap trees wine fruits juices mushrooms","","market","http://rockypointfarmersmarket.wordpress.com","-72.9239102","40.9492665","11778"
"Rome","","Rome Farmers Market","ny","100 block of East Dominick Street","","","market","http://www.romenewyork.com","-75.458","43.2111","13440"
"Roosevelt","https://www.facebook.com/Roosevelt-Community-Farmers-Market-1412573385674026/?ref=bookmarks","Roosevelt Community Farmers' Market","ny","380 Nassau Road ","organic flowers vegetables honey maple fruits juices","@RCRGLI","market","http://www.rooseveltfarmersmarket.com","-73.5908479","40.6817846","11575"
"","","Roscoe Farmers Market","ny","Cty Rd. 179","","","market","","-73.7266","41.788",""
"Roscoe ","Roscoe Farmers Market","Roscoe Farmers Market","ny","Rt 17","baked goods cheese crafts seafood herbs vegetables honey jams maple meat plants poultry soap trees fruits grains mushrooms","","market","","-74.912180","41.932894","12776"
"Rosendale","","Rosendale Farmers Market","ny","1055 Rt.32","organic baked goods cheese flowers herbs vegetables honey jams maple meat plants prepared-foods soap","","market","http://www.rosendalefarmersmarket.com","-74.0757","41.8422","12472"
"Roslyn","","Roslyn North Hills Farmers Market","ny","Christopher Morley Park, Searingtown Road","","","market","","-73.6628","40.7819",""
"Queens","","Roy Wilkins Park Farmer's Market","ny","Merrick and Baisley Boulevards","baked goods vegetables","","market","http://www.harvesthomefm.org","-73.7697577","40.6837255","11434"
"Rush","","Rush Community Farmers Market","ny","6200 Rush Lima Rd (Rte 15A)","","","market","","-77.6961","43.1463",""
"Rye","https://www.facebook.com/DowntoEarthMarkets","Rye Farmers Market","ny","Theodore Fremd Avenue and Purchase Street","baked goods cheese flowers eggs herbs vegetables honey jams meat nuts poultry fruits","https://twitter.com/DowntoEarthMkts","market","http://www.downtoearthmarkets.com","-73.684314","40.985239","10580"
"Rye","www.facebook.com/DowntoEarthMarkets","Rye's Down to Earth Farmers Market","ny","Parking Lot in back of Purchase St. Stores","baked goods cheese flowers eggs herbs vegetables jams meat nuts plants poultry prepared-foods wine fruits juices pet food","twitter.com/DowntoEarthMkts","market","http://DowntoEarthMarkets.com","-73.685285","40.984412","10580"
"Sag Harbor","","Sag Harbor Farmers Market","ny","Bay and Burke Streets","organic baked goods cheese flowers eggs seafood herbs vegetables honey jams meat plants prepared-foods wine","","market","http://www.sagharborfarmersmarket.org","-72.2913373","41.0010570","11963"
"Albany","","Sage College Farmers Market","ny","Sage College, New Scotland Rd, Albany","","","market","http://www.ccealbany.com","-73.8336","42.65",""
"Salamanca","https://www.facebook.com/pages/Southern-Tier-Farmers-Market/165092373544019","Salamanca Farmers market","ny","12 Park Ave","baked goods crafts flowers eggs herbs vegetables honey jams maple meat plants poultry soap fruits","","market","","-78.041832","42.211214","14779"
"Salem","","Salem Farmers Market","ny","Village Park, Main Street (Route 22)","","","market","","-73.326","43.1812","12865"
"Amsterdam","https://www.facebook.com/fultonmontgomeryfarmersmarket","Sanford Farms Amsterdam Farmers Market","ny","Sanford Farms, Route 30","baked goods flowers eggs vegetables jams maple plants trees wine fruits","","market","http://www.fultonmontgomeryfarmersmarket.org","-74.185102","42.959257","12010"
"Saranac","SaranacGreenMarket","Saranac Green Market","ny","Intersection of Picketts Corners Road and Route 3","crafts eggs herbs vegetables maple meat poultry soap trees wine fruits","","market","http://www.saranacgreenmarket.com","-73.733963","44.661660","12981"
"Saranac Lake","","Saranac Lake Farmers' Market","ny","Fusion Market   Lake Flower Drive","vegetables meat plants poultry fruits","","market","http://www.adirondackfarmersmarket.com","-74.124118","44.323702","12983"
"Saranac Lake","https://www.facebook.com/ausablevalleygrangefarmersmarkets/","Saranac Lake Village Farmers Market","ny","Riverside Park","baked goods cheese crafts flowers eggs vegetables honey jams maple meat nuts plants prepared-foods soap wine coffee fruits juices mushrooms","","market","http://www.ausablevalleygrangefarmersmarkets.com","-74.131251","44.324630","12983"
"Saratoga Springs ","https://www.facebook.com/SaratogaFarmersMarket/","Saratoga Farmers' Market - Outdoor Market (May-October)","ny","High Rock Park, High Rock Park Ave","organic baked goods cheese crafts flowers eggs seafood herbs vegetables honey jams maple meat plants poultry prepared-foods soap trees wine coffee fruits juices mushrooms pet food wild","@SaratogaMarket","market","http://www.saratogafarmersmarket.org","-73.781149","43.085525","12866"
"Saratoga Springs ","https://www.facebook.com/SaratogaFarmersMarket/","Saratoga Farmers' Market - Winter Market","ny","65 South Broadway, Saratoga Spa State Park","organic baked goods cheese crafts flowers eggs seafood herbs vegetables honey jams maple meat poultry prepared-foods soap trees wine coffee fruits juices mushrooms pet food wild","@SaratogaMarket","market","http://www.saratogafarmersmarket.org","-73.790038","43.064686","12866"
"Seneca","","Sauder's Farmers Market","ny","2146 River Rd., 1/4 mi. W of village","","","market","","-76.8228","42.9049",""
"Saugerties","https://www.facebook.com/SaugertiesFarmersMarket","Saugerties Farmers Market ","ny","115 Main Street ","organic baked goods cheese crafts flowers eggs seafood herbs vegetables honey jams maple meat nuts plants poultry prepared-foods soap trees wine coffee fruits juices mushrooms tofu wild","","market","http://saugertiesfarmersmarket.com","-73.9489637","42.0789867","12477"
"Saugerties","","Saugerties Farmers Market (Summer)","ny","115 Main Street parking lot","baked goods cheese flowers eggs seafood herbs vegetables honey jams maple meat nuts plants poultry prepared-foods soap wine beans fruits grains juices mushrooms tofu","","market","http://www.saugertiesfarmersmarket.com","-73.949866","42.079151","12477"
"Saugerties","https://www.facebook.com/SaugertiesFarmersMarket","Saugerties Winter Farmers Market - Summer","ny","207 Market Street","baked goods cheese flowers eggs seafood herbs vegetables honey jams maple meat nuts plants poultry prepared-foods soap wine beans fruits grains juices mushrooms tofu","","market","http://www.saugertiesfarmersmarket.com/","-73.949428","42.079003","12477"
"Saugerties","https://www.facebook.com/SaugertiesFarmersMarket","Saugerties Winter Farmers Market - Winter","ny","115 Main Street","organic baked goods cheese crafts flowers eggs seafood herbs vegetables honey jams maple meat plants poultry prepared-foods soap trees wine coffee fruits juices mushrooms wild","","market","http://SaugertiesFarmersMarket.com ","-73.949737","42.079453","12477"
"Yonkers","","Saw Mill Farmers Market","ny","29 Warburton Ave.","organic baked goods eggs herbs vegetables honey maple prepared-foods","","market","http://www.groundworkhv.org","-73.899107","40.935594","10701"
"North White Plains","","Scarsdale Farmers Market","ny","1001 Post Rd.","","","market","http://www.localmarketlady.blogspot.com","-73.7966","40.9888","10603"
"SCHENECTADY","","SCFB UPPER UNION STREET","ny","WOODLAND MUNICAPAL PARKING LOT","baked goods flowers vegetables honey jams plants fruits","","market","","-73.905169","42.803462","12309"
"","","Schaghticoke Farmers Market","ny","290 Northline Drive","","","market","","-73.6166","42.8653",""
"NISKAYUNA","https://www.facebook.com/UpperUnionStreetFarmersMarket","Schenectady County Farm Bureau Farmers Market","ny","COLDWELL &BANKERS PARKING LOT ","baked goods cheese crafts flowers eggs herbs vegetables honey jams maple plants poultry prepared-foods soap trees fruits","","market","","-73.8771901","42.8056144","12309"
"Schenectady","https://www.facebook.com/SchenectadyGreenmarket","Schenectady Greenmarket","ny","(Nov - April) 432 State Street / (May - Oct) 105 Jay Street","organic baked goods cheese crafts flowers eggs seafood herbs vegetables honey jams maple meat nuts plants poultry prepared-foods soap wine coffee fruits juices mushrooms wild","https://twitter.com/SchdyGreenmkt","market","http://www.schenectadygreenmarket.org","-73.9397922","42.8142950","12305"
"Schenectady","https://www.facebook.com/schenectadyfarmersmarket","Schenectady St. Luke's Church Farmers Market","ny","1241 State Street","vegetables fruits","","market","http://www.schenectadyfarmersmarket.com","-73.924730","42.798898","12304"
"Cobleskill","https://www.facebook.com/pages/Schoharie-Fresh/358894410847280","Schoharie Fresh","ny","122 Rockland Lane","organic baked goods cheese crafts flowers eggs herbs vegetables honey jams maple meat poultry prepared-foods soap coffee fruits wild","","market","http://www.schohariefresh.com","-74.5036964","42.6713310","12043"
"Montour Falls","","Schuyler County Farm & Craft Market","ny","Fireman's Carnival Grounds, Rt. 224, Montour Falls","","","market","","-76.8452","42.3473",""
"Scottsville","Scottsville Midweek Farmers' Market","Scottsville Midweek Farmers' Market","ny","61 Main St.","baked goods cheese flowers eggs herbs vegetables honey jams meat poultry prepared-foods soap fruits","","market","","-77.753379","43.022276","14546"
"Seaford 11550","","seaford farmes market","ny","seaford rail road parking lot sunrise highway and washington street","baked goods cheese flowers eggs seafood herbs vegetables honey jams meat plants poultry prepared-foods soap trees fruits","","market","http://www.longislandgrowersmarket.com","-73.494415","40.667098",""
"Seneca Falls","https://www.facebook.com/SenecaFallsFarmersMarket/","Seneca Falls Farmers Market","ny","15 Water Street","baked goods crafts flowers eggs vegetables honey jams maple meat plants poultry prepared-foods soap coffee fruits pet food","","market","http://senecamarket.com","-76.798951","42.90918","13148"
"Sharon Springs","https://www.facebook.com/pages/Sharon-Springs-Farmers-Market","Sharon Springs Farmers Market","ny","210 Main St, Roseboro Hotel","baked goods cheese flowers eggs herbs vegetables honey jams maple meat poultry prepared-foods soap fruits mushrooms wild","","market","","-74.617252","42.795180","13459"
"Sherburne","www.facebook.com/sherburnewinterfarmersmarket","Sherburne Winter Farmers Market","ny","15 S. Main street","organic baked goods cheese eggs vegetables honey jams maple meat poultry soap pet food","","market","","-75.4974880","42.6757990","13460"
"Wyandanch ","https://www.facebook.com/ShilohFamily/","Shiloh Community Farmers' Market","ny","40 Station Drive","vegetables fruits","","market","http://www.wyandanchcdc.org","-73.358753","40.755746","11798"
"Shortsville","","SHORTSVILLE - MANCHESTER FARMERS MARKET","ny","Water Street","baked goods crafts herbs vegetables plants soap fruits","","market","","-77.224660","42.958590","14548"
"Clay","https://www.facebook.com/sidetrackfarmersmarket?ref=tn_tnmn","Side Track Farmer's Market","ny","4975 State Route 31","baked goods cheese crafts eggs herbs vegetables honey jams maple meat plants poultry prepared-foods soap wine fruits","","market","http://www.sidetrackfarmersmarket.org/","-76.172304","43.186252","13041"
"Sidney Farmers' Market","https://www.facebook.com/SidneyNYFarmersMarket/","Sidney Farmers' Market","ny","89 Main St","vegetables fruits","","market","https://ccedelaware.org/","-74.966439","42.1981990","13838"
"Java Center","","Siler's Farm Market ","ny","1911 Rt 78","","","market","http://www.localharvest.org/silers-farm-market-M57252","-78.3512","42.6526","14082"
"Skaneateles","","Skaneateles Farmers Market","ny","1 East Austin Street","baked goods cheese flowers eggs herbs vegetables honey jams maple meat nuts plants poultry prepared-foods soap fruits","","market","http://www.townofskaneateles.com","-76.43034","42.95094","13152"
"Queens","https://www.facebook.com/QueensGreenmarkets","Socrates Sculpture Park Greenmarket","ny","Vernon Blvd & Broadway","vegetables honey fruits","","market","http://www.grownyc.org","-73.9359467","40.7675924","11106"
"Sodus","https://www.facebook.com/SodusFarmersMarket","Sodus Farmers' Market","ny","58 W. Main Street","baked goods cheese crafts flowers herbs vegetables honey jams maple plants poultry prepared-foods soap coffee fruits mushrooms","","market","https://www.sutmc.org/sodus-farmers-market","-77.065859","43.236237","14551"
"","","South Bronx Community Farmers Market","ny","E. 146th Street & St. AnnNULLs Ave.","","","market","","-73.9141","40.8123",""
"The Bronx","https://www.facebook.com/southbronxfarmersmarke","South Bronx Farmers Market","ny","330 East 138th Street","baked goods flowers eggs herbs honey jams plants prepared-foods wine coffee fruits wild","@Sbxfarmmarket","market","http://www.southbronxfarmersmarket.com","-73.924684","40.809789","10454"
"South Dayton","Facebook.com/South.Dayton.Farmers.Market","South Dayton Farmers' Market","ny","Rt 322 and Park St","baked goods crafts eggs herbs vegetables jams plants soap fruits","","market","","-79.0496019","42.3609079","14138"
"Rochester","","South Wedge Farmers Market","ny","100 Alexander St.","organic baked goods cheese flowers eggs herbs vegetables honey maple meat nursery plants poultry prepared-foods wine","","market","http://www.swfarmersmarket.org","-77.6024330","43.1459820","14620"
"Olean","https://www.facebook.com/pages/Southern-Tier-Farmers-Market/165092373544019","Southern Tier Farmers Market - Olean","ny","1900 Constitution Ave","baked goods crafts flowers eggs herbs vegetables honey jams maple plants soap fruits","","market","","-78.041832","42.211214","14760"
"Saratoga Springs ","facebook://spacityfarmersmarket","Spa City Farmers' Market","ny","65 South Broadway","organic baked goods cheese crafts flowers eggs herbs vegetables honey jams maple meat nuts plants poultry prepared-foods soap trees wine coffee beans fruits juices mushrooms pet food tofu wild","Spa City Market","market","http://www.spacityfarmersmarket.com","-73.7904427","43.0646350","12866"
"Speculator","https://www.facebook.com/ADKSpecFarmersMarket","Speculator Farmers and Crafters' Market","ny","Rt 30","baked goods crafts eggs herbs vegetables honey jams maple plants prepared-foods soap trees wine fruits","","market","http://www.speculatorchamber.com","-74.359031","43.495958","12164"
"Manhasset","https://www.facebook.com/SpinneyHillFarmersMarket","Spinney Hill Farmer's Market","ny","125 Community Dr. ","","","market","","-73.7041","40.7826","11030"
"Spring Valley","https://www.facebook.com/DowntoEarthMarkets","Spring Valley Farmers Market","ny","Memorial Park","herbs vegetables fruits","https://twitter.com/DowntoEarthMkts","market","http://www.downtoearthmarkets.com","-74.043420","41.114541","10977"
"Springville","","Springville Farmers Market","ny","Gentner Auction, 341 West Main St","","","market","","-78.6797","42.5106",""
"Staten Island","https://www.facebook.com/StatenIslandGreenmarkets","St. George Greenmarket","ny","St Marks & Hyatt St","baked goods vegetables meat poultry","","market","http://www.grownyc.org","-74.0779055","40.6415918","10301"
"New York City","","St. John's Church Farmers Market","ny","1 Hudson Street","baked goods herbs vegetables honey plants trees fruits","","market","http://www.stjohnsfarmersmarket.blogspot.com","-73.898807","40.933746","10701"
"Syracuse","","St. Joseph's Hospital Health Center's Mobile Market","ny","206 Prospect Ave.","","","market","","-76.1484","43.0547",""
"Rochester","","St. Mark's and St. John's Farm Stand","ny","1245 Culver Road","vegetables fruits","","market","","-77.5621880","43.1680680","14609"
"New York","https://www.facebook.com/ManhattanGreenmarkets","St. Mark's Church Greenmarket","ny","E 10 St. & 2 Av","organic baked goods vegetables","","market","http://www.grownyc.org","-73.9868166","40.7297528","10003"
"Rochester","","St. Stephen's Farm Stand","ny","350 Chili Avenue","vegetables fruits","","market","","-77.6460641","43.1474500","14611"
"New York","https://www.facebook.com/ManhattanGreenmarkets","Staten Island Ferry/Whitehall Greenmarket","ny","4 South Street (inside terminal)","baked goods vegetables honey jams maple meat fruits","","market","http://www.grownyc.org","-74.013648","40.701952","10004"
"Staten Island","https://www.facebook.com/StatenIslandGreenmarkets","Staten Island Mall Greenmarket","ny","Richmond Ave Entrance (Parking Lot)","baked goods vegetables honey fruits","","market","http://www.grownyc.org","-74.162908","40.603429","10314"
"Pocantico Hills","","Stone Barns Center Farm Market","ny","630 Bedford Road","","","market","http://www.stonebarnscenter.org","-73.82896","41.10308","10591"
"Clayton","","Stone Mills Farmers Market","ny","Old Stone Museum, NYS Rt 180, South of Lafargeville, West from I-81 Exit 49","","","market","http://www.stonemills.org","-76.0858","44.2395",""
"Stony Point","https://www.facebook.com/StonyPointFarmersMarket?ref=hl","Stony Point Farmers Market ","ny","74 East Main Street","organic baked goods herbs vegetables honey jams maple prepared-foods wine fruits juices","","market","http://www.stonypointfarmersmarket.com","-73.984589","41.228506","10980"
"New York","https://www.facebook.com/ManhattanGreenmarkets","Stuyvesant Town Greenmarket","ny","14th St loop & Ave A (in the Oval)","organic baked goods cheese eggs seafood vegetables jams meat poultry wine fruits","","market","http://www.grownyc.org","-73.977814","40.731763","10009"
"Suffern","","SUFFERN FARMERS' MARKET","ny","","organic baked goods cheese crafts flowers eggs herbs vegetables honey jams maple meat poultry prepared-foods soap wine","","market","http://www.suffernfarmersmarket.wordpress.com","-74.1495889","41.1148179","10901"
"Chester","www.facebook.com/loafmarket","Sugar Loaf Farmers Market","ny","1389 Kings Highway","organic baked goods cheese crafts flowers herbs vegetables honey jams maple meat plants soap","","market","","-74.2877","41.3196","10918"
"Summit","","Summit Farmers Market","ny","Route 10 Summit Fire Dept.","organic baked goods cheese flowers eggs herbs vegetables honey jams maple meat plants poultry soap coffee fruits grains juices pet food","","market","","-74.5882017","42.5795203","12175"
"New York","","Sunday Market- Bronx Museum","ny","165th Grand Concourse","vegetables","","market","","-73.9203","40.8309","10456"
"Mahopac","","Sunday Putnam Market ","ny","760 Route 6 (at Croton Falls Rd)","","","market","http://www.localharvest.org/sunday-putnam-market-M58716","-73.7264","41.3773","10541"
"Queens","https://www.facebook.com/QueensGreenmarkets","Sunnyside Greenmarket","ny","Skillman - 42 & 43 Sts","baked goods cheese eggs seafood vegetables honey jams meat poultry wine fruits","","market","http://www.grownyc.org","-73.921230","40.746899","11104"
"Brooklyn","https://www.facebook.com/BrooklynGreenmarkets","Sunset Park Greenmarket","ny","4th Ave - 59 & 60 Sts","vegetables meat plants fruits","","market","http://www.grownyc.org","-74.0183554","40.6408131","11220"
"Sylvan Beach","","Sylvan Beach Farmers Market","ny","foot of bridge","eggs herbs vegetables jams wine fruits","","market","","-75.728618","43.196887","13157"
"Syracuse","","Syracuse Eastside Neighborhood Farmers Market","ny","Westcott Community Center, 826 Euclid Avenue","","","market","","-76.1193","43.0365","13210"
"Deer Park ","https://www.facebook.com/EatLocalLongIsland","Tanger Deer Park Farmers Market","ny","152 The Arches Circle","baked goods eggs vegetables honey jams plants prepared-foods soap trees wine fruits juices","","market","http://www.eatlocallongisland.com","-73.305557","40.764701","11729"
"Bronx","","Taqwa Community Farmstand","ny","90 W. 164th St at Ogden Ave, in the garden","flowers eggs herbs vegetables fruits","","market","","-73.9291","40.8327","10452"
"Tarrytown","https://www.facebook.com/DowntoEarthMarkets","Tarrytown Farmers Market","ny","Patriot's Park on Rte 9 ","organic baked goods flowers eggs seafood herbs vegetables honey jams fruits","https://twitter.com/DowntoEarthMkts","market","http://www.downtoearthmarkets.com","-73.858510","41.081505","10591"
"Tarrytown","https://www.facebook.com/theTaSHfm","TaSH Farmers Market ","ny","Patriots Park","organic baked goods cheese crafts flowers eggs seafood herbs vegetables honey maple meat plants poultry soap wine fruits pet food tofu","","market","http://tashfarmersmarket.org/","-73.8591815","41.0818768","10591"
"Poughkeepsie","Taste NY Todd Hill","Taste NY at Todd Hill","ny","4640 Taconic State North","baked goods flowers eggs herbs vegetables jams maple meat plants poultry prepared-foods soap wine fruits mushrooms wild","","market","","-73.919869","41.694595","12010"
"Amsterdam ","https://www.facebook.com/TasteoftheMohawkValley","Taste of the Mohawk Valley Farmer's Market","ny","1863 Route 5S","baked goods cheese eggs honey jams maple meat poultry soap wine","","market","http://montgomerycountyny-swcd.com/index_files/Page1426.htm","-74.245563","42.935040","12010"
"Buffalo","","The Broadway Market","ny","999 Broadway St.","baked goods cheese crafts seafood vegetables honey jams maple meat plants poultry prepared-foods soap wine fruits","","market","http://www.broadwaymarket.org","-78.8373","42.8933","14212"
"cornwall n.y.","","The cornwall farmers market","ny","183 main street","organic baked goods cheese flowers eggs vegetables honey jams meat prepared-foods soap coffee fruits","","market","","-74.059815","41.442234","12518"
"Bronx","https://www.facebook.com/heightscommunityfarmersmarket","The Heights Community Farmers' Market","ny","University Avenue & West 181st Street","herbs vegetables honey nuts fruits","","market","http://www.bronxworks.org","-73.909616","40.857017","10453"
"Highland","","The Highland Farmers Market","ny","94 North Main Street","","","market","","-78.5425","42.6419","14080"
"Watertown","https://www.facebook/thelittlebarnbulkfoods.com","The Little Barn Bulk Foods Market","ny","17937 State Route 3","","","market","","-75.9740196","43.9717663","13601"
"Greece","","The Mall at Greece Ridge Farmers Market","ny","Ridge Road West & Long Pond Rd, Sears Lot","","","market","http://www.greeceridgecenter.com","-77.6959","43.21",""
"Bronx","","The Market at Bissel Gardens","ny","E. 241st St. & Baychester Ave.","baked goods crafts eggs herbs vegetables plants","","market","","-73.846900","40.900555","10466"
"New York City","","The New York Botanical Garden Farmers Market","ny","Mosholu Pkwy. Gate at Kazimiroff Blvd.(in garden)","baked goods vegetables honey plants fruits","","market","http://www.grownyc.org/greenmarket","-73.882316","40.865757",""
"New York","","The Northeast Bronx Community  Farmers Market","ny","Haffen Park Hammersley & Wickham Avenues","","","market","","-73.8392","40.8728","10469"
"","","The Olde Farmers Market / Springville","ny","Mechanic Street","","","market","","-78.6661","42.5086",""
"Ghent","","The Olde Ghent Farmers Market","ny","2149 Route 66","","","market","http://www.ghentfarmersmarket.com","-73.6283","42.3193","12075"
"Penn Yan","https://www.facebook.com/pages/The-Windmill-Farm-and-Craft-Market/299445191760","The Windmill Farm & Craft Market","ny","3900 Rt. 14A","baked goods cheese crafts flowers eggs vegetables honey jams maple nuts plants prepared-foods soap trees wine coffee fruits juices","","market","http://www.thewindmill.com","-77.035997","42.576918","14527"
"Johnson City","","The Y Farmers Market","ny","740 Main Street","","","market","","-75.9782","42.1162","13790"
"Batavia","https://www.facebook.com/ywcagenesee.bataviany?ref=ts&fref=ts","The YWCA's Market at North Street","ny","301 North Street","","","market","http://www.ywcagenesee.org","-78.1728","43.0057","14020"
"Bronx","","Throgs Neck Market","ny","Schley Avenue/ Balcom Avenue and E 177th Street","baked goods vegetables","","market","http://www.harvesthomefm.org","-73.825483","40.822424","10465"
"TICONDEROGA","","TICONDEROGA AREA FARMERS MARKET","ny","Route 9N, Southwest of the Liberty Monument","baked goods crafts vegetables honey jams maple fruits","","market","http://www.ticonderogany.com","-73.435385","43.848038","12883"
"Hector","","TJ's Farmers Market","ny","6069 State Route 414, Hector+D128","","","market","","-76.8763","42.5308",""
"New York","https://www.facebook.com/ManhattanGreenmarkets","Tompinks Square Greenmarket","ny","E 7 St. & Ave A","baked goods cheese seafood herbs vegetables jams meat poultry fruits","","market","http://www.grownyc.org","-73.9835350","40.7260560","10009"
"Copiague","","Town of Babylon Farmers Market","ny","Great Neck Rd. & Oak St.","","","market","","-73.3993","40.6799","11726"
"Pendleton","https://www.facebook.com/pages/Town-of-Pendleton-Farmers-Market/112370042114887","Town of Pendleton Farmers Market","ny","6570 Campbell Blvd.","baked goods cheese crafts eggs herbs vegetables jams meat poultry prepared-foods coffee fruits","","market","http://www.pendletonfm.com","-78.774631","43.107704","14094"
"Holland Patent","","Trenton Farmers' Market","ny","Route 365","baked goods cheese crafts flowers eggs herbs vegetables jams maple meat poultry soap coffee beans fruits pet food","","market","http://www.sites.google.com/site/trentonfarmersmarket/Home","-75.256605","43.240638","13354"
"New York","https://www.facebook.com/ManhattanGreenmarkets","Tribeca Greenmarket","ny","Greenwich & Chambers","organic baked goods cheese eggs herbs vegetables meat poultry fruits","","market","http://www.grownyc.org","-74.0109940","40.7163009","10007"
"Troy","www.facebook.com/TroyWaterfrontFarmersMarket","Troy Waterfront Farmers Market","ny","River Street at Monument Square","organic baked goods cheese crafts flowers eggs seafood herbs vegetables honey jams maple meat nuts plants poultry prepared-foods soap wine coffee beans fruits juices mushrooms pet food tofu wild","www.twitter.com/troymarket","market","http://www.troymarket.org","-73.6924962","42.7311572","12181"
"Trumansburg","https://www.facebook.com/pages/Trumansburg-Farmers-Market/143441459077567?ref=hl","Trumansburg Farmers Market","ny","Corner of Route 96 and Route 227, aka Main St. and Hector St.","organic baked goods cheese crafts flowers eggs herbs vegetables honey jams maple meat plants poultry prepared-foods soap trees wine coffee fruits mushrooms","","market","http://www.tburgfarmersmarket.com/","-76.666375","42.542072","14886"
"New York","https://www.facebook.com/ManhattanGreenmarkets","Tucker Square Greenmarket","ny","W 66 St. & Columbus","organic baked goods cheese eggs seafood herbs vegetables maple meat plants poultry fruits","","market","http://www.grownyc.org","-73.9815730","40.7736020","10023"
"Delmar","www.facebook.com/TuesdayDelmarFarmersMarket","Tuesday Delmar Farmers Market (Capital District Farmers Market Assoc.)","ny","428 Kenwood Avenue","baked goods cheese flowers eggs herbs vegetables honey jams plants prepared-foods soap beans fruits mushrooms","","market","","-73.836047","42.622625","NY"
"Tupper Lake","https://www.facebook.com/TupperLakeFarmersMarket/","Tupper Lake Farmers' Market","ny","The Wild Center, 45 Museum Drive","baked goods crafts flowers eggs herbs vegetables honey jams maple meat plants poultry soap wine fruits","","market","https://www.tupperlakefarmersmarket.com","-74.4384780","44.2197660","12986"
"Tuxedo","https://www.facebook.com/groups/83763788078/","Tuxedo Farmers' Market","ny","240 Route 17","organic baked goods cheese crafts flowers eggs herbs vegetables honey jams maple meat nuts plants poultry prepared-foods soap fruits","","market","http://www.tuxedofarmersmarket.com","-74.1844974","41.1944787","10987"
"Unadilla","","Unadilla Farmers Market","ny","187 Main Street","baked goods crafts flowers vegetables honey maple prepared-foods wine fruits","","market","","-75.315598","42.325371","13849"
"New York","https://www.facebook.com/UnionSquareGreenmarket","Union Square Greenmarket","ny","E 17 St. & Broadway","organic baked goods cheese flowers eggs seafood herbs vegetables honey jams maple meat plants poultry prepared-foods soap trees wine fruits","","market","http://www.grownyc.org","-73.990409","40.737096","10003"
"Buffalo","","University Community Farmers Market","ny","Main Street at Englewood Avenue","baked goods flowers herbs vegetables jams prepared-foods soap fruits","","market","http://www.ourheights.org/farmersmarket","-78.823393","42.952740","14214"
"Syracuse","https://www.facebook.com/UpstateFarmersMarket","Upstate Farmer's Market","ny","Upstate Golisano Children's Hospital/Upstate University Hospital at Community General","","","market","","-76.1262","43.0347","13210"
"Hudson ","https://www.facebook.com/upstreetmarket","UpStreet Market Hudson ","ny","","baked goods crafts flowers eggs herbs vegetables honey poultry prepared-foods soap fruits pet food wild","","market","","-73.782912","42.247401","12534"
" Buffalo","","Uptown Fresh Healthy Lifestyle Market","ny","3248 Bailey Ave","baked goods crafts flowers vegetables honey fruits mushrooms","","market","","-78.8136755","42.9432192","14215"
"Brooklyn","","Urban Oasis Farmers Market","ny","681 Clarkson Ave and Troy Ave","organic vegetables fruits","","market","","-73.9366943","40.6562338","11203"
"Utica","","Utica Farmers Market","ny","Chancellor Park, Bleecker St.","organic","","market","http://www.CityofUtica.com","-75.22513","43.09982","13501"
"Hector","","Valois Stone Arch Farmers Market","ny","Rt. 414, 1/4 mile south of Valois","","","market","","-76.8238","42.7811","14841"
"Vestal","","Vestal Farmers Market","ny","rte 434","organic baked goods cheese flowers eggs herbs vegetables honey jams maple meat nursery plants poultry soap","","market","","-76.0464","42.0876","13850"
"Victor","","Victor Farmers' Market","ny","60 East Main Street","baked goods flowers eggs herbs vegetables jams maple meat nursery plants poultry prepared-foods trees wine","","market","http://www.victorldc.org","-77.4085910","42.9813350","14564"
"Aurora","https://www.facebook.com/Aurora-Farmers-Market-1619273541646945/","Village of Aurora Farmers Market","ny","Main Street (Route 90)","baked goods crafts flowers eggs herbs vegetables honey jams maple plants prepared-foods soap wine coffee fruits","","market","https://auroranyfarmersmarket.com/","-76.700376","42.745254","13026"
"fishkill","","Village of Fishkill Farmers Market","ny","main street at cary avenue","organic baked goods cheese flowers herbs vegetables honey nuts plants trees fruits","","market","http://www.vofishkill.gov","-73.905861","41.532443","12524"
"Tuckahoe","","Village of Tuckahoe Farmers Market","ny","65 Main Street","","","market","http://www.tuckahoe.com","-73.8268","40.9501","10707"
"Virgil","","Virgil Farmer's Market","ny","4 Corners","","","market","","-76.1956","42.5104","13045"
"Fulton","","Volney Farmers Market","ny","1445 County Route  6","baked goods eggs vegetables jams prepared-foods fruits","","market","","-76.3584050","43.3415066","13069"
"Voorheesville","https://www.facebook.com/VoorheesvilleFarmersMarket","Voorheesville Farmers Market","ny","68 Maple Ave.","baked goods cheese flowers eggs herbs vegetables honey jams maple meat plants poultry prepared-foods soap fruits","","market","","-73.930027","42.649656","12186"
"New York City","","W. 79th St. Greenmarket","ny","W. 79th St at Columbus Ave","organic baked goods cheese flowers eggs seafood herbs vegetables honey jams maple meat plants soap wine fruits juices mushrooms wild","","market","http://www.grownyc.org/greenmarket","-73.975518","40.781841",""
"Walden","","Walden Farmers Market at Woosters Grove","ny","Wooster's Grove Park, 89 E Main Street,","baked goods crafts flowers herbs vegetables honey jams nursery nuts plants prepared-foods soap wine","","market","http://www.villageofwalden.org","-74.1768326","41.5634149","12586"
"Walton","https://www.facebook.com/WaltonFarmersMarket/","Walton Farmers' Market","ny","181 Delaware St","vegetables jams fruits","","market","https://ccedelaware.org/","-75.1317950","42.1680960","13856"
"Warrensburgh","","Warrensburgh Riverfront Farmers' Market","ny","173 River Street","organic baked goods cheese crafts flowers herbs vegetables honey jams maple meat plants prepared-foods soap","","market","http://www.localharvest.org","-73.7786","43.489","12885"
"Warsaw","","WARSAW FARMERS' MARKET","ny","2444  NORTH MAIN ST.","crafts flowers eggs vegetables plants fruits","","market","","-78.1290782","42.7634417","14569"
"Warwick","www.facebook.com/warwickvalleyfarmersmarket","Warwick Valley Farmers' Market","ny","South Street Parking Lot (one block east of Main @ Bank St)","organic baked goods cheese flowers eggs seafood herbs vegetables honey jams maple meat nuts plants poultry prepared-foods soap wine beans fruits juices mushrooms pet food wild","","market","http://www.warwickvalleyfarmersmarket.org","-74.3591410","41.2565810","10990"
"Waterford","","Waterford Harbor Farmers Market","ny","Waterford Harbor Promenade, in front of Visitors Center, 1 Tugboat Alley","","","market","http://www.waterfordmarket.com","-73.679","42.7875",""
"Watertown","https://www.facebook.com/watertownnyfarmersmarket","Watertown Farm & Craft Market","ny","317 Washington Street","organic baked goods cheese crafts flowers eggs herbs vegetables honey jams maple meat plants poultry prepared-foods soap trees wine coffee fruits","","market","http://www.watertownny.com","-75.911156","43.971732","13601"
"Watertown","","Watertown Monday Neighborhood Farmers Market","ny","CCE, 203 N. Hamilton St,","","","market","","-75.8949","43.9731",""
"Watertown","","Watertown Monday Neighborhood Mobile Farmers Market 1","ny","Midtown Towers, State St.","","","market","","-75.8591","43.9613",""
"Watertown","","Watertown Monday Neighborhood Mobile Farmers Market 2","ny","North Country Children's Clinic","","","market","","-75.9108","43.9748",""
"Watertown","","Watertown Monday Neighborhood Mobile Farmers Market 3","ny","Curtis Apartments, 336 W. Main St.","","","market","","-75.9113","43.9805",""
"Watertown","","Watertown Monday Neighborhood Mobile Farmers Market 4","ny","Skyline Apartments, coroner of Mill St.","","","market","","-75.9108","43.9748",""
"Watertown","","Watertown Monday Neighborhood Mobile Farmers Market 5","ny","LeRay Street Apartments, 848 LeRay St.","","","market","","-75.9087","43.9881",""
"Watertown","","Watertown Saturday Farmers Market","ny","J. B. Wise Place ,Pavillion, Watertown, New York 13601","organic baked goods crafts flowers eggs herbs vegetables honey jams maple meat nursery plants poultry prepared-foods soap wine","","market","","-75.909712","43.974858","13601"
"Waterville","https://www.facebook.com/waterville farmers market","Waterville Farmers Market","ny","Village Green","crafts eggs herbs vegetables jams meat fruits","","market","","-75.383782","42.929456","13480"
"Albany","","Watervliet Farmers Market","ny","Hudson Shores Park","","","market","","-73.698","42.7304",""
"Watkins Glen","","Watkins Glen Farmers Market","ny","Lafayette Park, 5th & Porter Sts","","","market","","-76.8695","42.381",""
"Waverly","https://www.facebook.com/WaverlyFarmersMarketMonday?ref=bookmarks","Waverly Farmers' Market","ny","Mini park, Broad St and Waverly St","organic cheese eggs herbs vegetables honey jams maple fruits","","market","","-76.540398","42.001217","14892"
"Webster","https://www.facebook.com/pages/Websters-Joe-Obbie-Farmers-Market-Inc/271407932889827","Webster's Joe Obbie Farmers' Market, Inc.","ny","1028 Ridge Road, Webster Towne Center","baked goods crafts flowers vegetables honey jams maple meat plants fruits","","market","http://www.webstersjoeobbiefarmersmarketinc.org","-77.452948","43.212229","14580"
"Weedsport","https://www.facebook.com/WeedsportAreaFarmersMarket/","Weedsport Area Farmers' Market","ny","2690 E. Brutus Street","baked goods cheese crafts flowers eggs vegetables honey jams maple meat plants soap fruits","","market","http://weedsportchamber.org/farmersmarket/","-76.562683","43.048553","13166"
"Brooklyn","","Weeksville Farmers Market","ny","1698 Bergen Street","baked goods flowers eggs herbs vegetables honey jams soap fruits","","market","http://www.weeksvillesociety.org","-73.9258860","40.6746170","11213"
"Wellsville","","Wellsville Farmer's Market","ny","North Main Street","baked goods cheese crafts flowers eggs herbs vegetables honey jams maple meat nursery poultry prepared-foods soap","","market","","-77.94747","42.120956","14895"
"Manhattan","https://www.facebook.com/ManhattanGreenmarkets","West 42nd Street","ny","West 42nd Street between 11th & 12th Aves","organic baked goods cheese vegetables honey jams meat poultry fruits","","market","http://www.grownyc.org","-73.999871","40.761381","10036"
"West Bloomfield","https://www.facebook.com/WBFMarket/?view_public_for=922164297818450","West Bloomfield Farmers Market","ny","9035 U.S. Rt. 5","baked goods cheese crafts flowers eggs herbs vegetables honey jams maple meat plants poultry prepared-foods soap trees wine fruits pet food wild","","market","http://wbfarmersmarket.org/","-77.538264","42.905331","14585"
"Village of Highland Falls","https://www.facebook.com/pages/WestPointTownofHighlandsFarmersMarket","West Point-Town of Highlands Farmers Market","ny","Main street","organic baked goods cheese crafts eggs herbs vegetables honey jams meat poultry prepared-foods soap fruits","","market","","-73.96631","41.36957","10928"
"White Plains","","Westchester County Indoor Farmers Market","ny","198 Central Ave.","baked goods cheese herbs vegetables honey jams maple meat nuts wine fruits tofu","","market","","-73.7788576","41.0370717","10601"
"Westfield","https://www.facebook.com/WestfieldFarmersAndArtisansMarket","Westfield Farmers and Artisans Market","ny","Portage Street and Main Street","organic baked goods cheese crafts flowers eggs herbs vegetables honey jams maple meat plants poultry prepared-foods soap wine fruits","https://twitter.com/westfieldfmsmk","market","http://www.westfieldny.com","-79.578117","42.322035","14787"
"Westhampton Beach","","Westhampton Beach Farmers Market","ny","85 Mill Road","organic baked goods cheese crafts flowers eggs seafood herbs vegetables honey jams meat nuts plants poultry prepared-foods soap wine coffee fruits juices mushrooms pet food","","market","http://www.westhamptonbeachfarmersmarket.com","-72.643275","40.811779","11978"
"Westmoreland","https://www.facebook.com/pages/Westmoreland-Winter-Farmers-Market/134427909938654","Westmoreland Winter Farmers Market","ny","100 Station Rd.","","","market","","-75.399367","43.116356","13490"
"Rochester","https://www.facebook.com/westsidemarketrochester","Westside Farmers Market","ny","831 Genesee Street","baked goods cheese flowers eggs herbs vegetables jams meat poultry prepared-foods soap trees fruits juices","https://twitter.com/westsideroch","market","http://www.westsidemarketrochester.com","-77.63633","43.13433","14619"
"White Plains","","White Plains Farmer's Market","ny","","baked goods cheese crafts herbs vegetables honey plants","","market","","-73.7677","41.0319","10601"
"Salem","","Whitehall Farmers Market","ny","Saunders St","","","market","","-73.4075","43.5584","12865"
"Albany","","Whitehall Road Farmers Market","ny","Jewish Community Center, Whitehall Road, Albany","","","market","http://www.ccealbany.com","-73.8061","42.6485",""
"Whitesboro","https://www.facebook.com/whitesboromarket","Whitesboro Farmers Market","ny","Clinton St. & Main St.","baked goods cheese crafts flowers eggs herbs vegetables honey jams maple meat nuts plants poultry prepared-foods soap wine coffee fruits","","market","http://www.whitesborofarmersmarket.com","-75.291152","43.121684","13492"
"Whitney Point","","Whitney Point Farmers Market","ny","Whitney Pt Middle School, 2887 Rt 11","","","market","","-75.9727","42.3353",""
"Bronx","","Wholesale Greenmarket","ny","Oak Point Ave and Barry Street","herbs vegetables plants fruits","","market","http://www.grownyc.org","-73.894834","40.808940","10474"
"New York","https://www.facebook.com/HERBanFarmersMarket","Williamsbridge Square HERBan Farmers' Market","ny","White Plains Road and E. Gun Hill Road","organic baked goods cheese crafts flowers eggs herbs vegetables honey jams maple meat nuts poultry prepared-foods soap wine coffee fruits juices","https://twitter.com/HERBanFarmMarkt","market","http://www.HerbanFarmersMarket.org","-73.866440","40.877482","10467"
"Brooklyn","https://www.facebook.com/BrooklynGreenmarkets","Williamsburg Greenmarket","ny","Havemeyer & Broadway","baked goods vegetables jams fruits","","market","http://www.grownyc.org","-73.959382","40.708670","11211"
"Willsboro","","Willsboro Farmers' Market","ny","Rt. 22","crafts vegetables jams plants wine","","market","http://www.adirondackfarmersmarket.com","-73.394233","44.367977",""
"Brooklyn","https://www.facebook.com/BrooklynGreenmarkets","Windsor Terrace - PS154","ny","11th Ave between Sherman & Windsor Place","baked goods cheese eggs seafood vegetables poultry fruits","","market","http://www.grownyc.org","-73.976263","40.657208","11215"
"Cazenovia","","Winter Farmers Market at Circa Restaurant","ny","76 Albany Street","","","market","http://www.circarestaurant.net","-75.8532","42.9296","13035"
"New Paltz","","Winter Sun Farms Indoor Winter Market","ny","1 Veteran Drive","organic baked goods cheese crafts eggs herbs vegetables honey jams maple meat soap","","market","http://www.wintersunfarms.com","-74.0810590","41.7567320","12561"
"","","Winter Sun Farms New Paltz Market","ny","Broadhead Avenue","","","market","","-74.0856","41.7612",""
"","","Winter Sun Farms Vassar Market","ny","Chapin Ave. and Dutchess Ave.","","","market","","-74.0999","40.5961",""
"Winthrop ","","Winthrop Farmers' Market","ny","Main St","","","market","","-74.7779066","44.8029278",""
"Elmira","","Wisner Farmers Market / Lunch in the Park","ny","Wisner Park, N Main","","","market","","-76.8125","42.0978",""
"Wolcott","www.facebook.com/WolcottAreaFarmersMarket","Wolcott Area Farmers Market","ny","1 Northup Park","baked goods crafts eggs herbs vegetables honey jams plants prepared-foods soap fruits","","market","","-76.815495","43.220144","NY"
"Woodstock","https://www.facebook.com/woodstockfarmfestival/","Woodstock Farm Festival","ny","6 Maple Lane","organic baked goods flowers eggs seafood herbs vegetables honey jams maple meat plants poultry prepared-foods soap fruits mushrooms","","market","https://www.woodstockfarmfestival.org/","-74.117834","42.040522","12498"
"Brooklyn","","Wyckoff Farmhouse Farmers' Market","ny","5816 Clarendon Road at Ralph Avenue","","","market","http://www.ecostationny.org","-73.9206","40.6447","11203"
"Hempstead","www.facebook.com/longislandfarmtopreschool","YALE Farmers Market","ny","160 Baldwin Rd","flowers eggs vegetables honey fruits","","market","http://www.childcarenassau.org","-73.6159760","40.6965680","11550"
"Penn Yan","https://www.facebook.com/PennYan.Farmers.Market","Yates County Cooperative Farm and Craft Market (Penn Yan Market)","ny","Main Street, North of Elm Street","organic baked goods cheese crafts flowers eggs herbs vegetables honey jams maple meat plants poultry soap fruits","","market","https://www.facebook.com/PennYan.Farmers.Market","-77.053889","42.661345","14527"
"Yorktown Heights","http://www.facebook.com/yorktownfarmersmarket","Yorktown Farmers Market","ny","650 Lee Blvd","baked goods cheese eggs herbs vegetables honey jams poultry prepared-foods soap coffee fruits juices mushrooms","","market","http://www.yorktownfarmersmarket.com","-73.807848","41.327070","10598"
