[{"type":"farm","street":"3960 SE 115th Street","city":"Belleview","state":"fl","zip":"34420","x":"-82.0817510","y":"29.0533560","name":"Abshier Blueberry Farm","website":"Www.abshierblueberryfarm.com","facebook":"www.facebook.com/pages/Abshier-Blueberry-Farm/295455157137236pages/Abshier-Blueberry-Farm/295455157137236","twitter":"","tags":""},{"type":"farm","street":"1211 W. Terrace Dr","city":"Plant City","state":"fl","zip":"33563","x":"-82.1347270","y":"28.0394270","name":"Abundant Gardens","website":"https://www.abundantgardens.net/","facebook":"https://www.facebook.com/AbundantGardensPlantCity/","twitter":"","tags":"bedding plants canned preserved coffee tea crafts woodworking nursery-stock"},{"type":"farm","street":"3261 Endsley Road","city":"Brooksville","state":"fl","zip":"34604","x":"-82.387655","y":"28.481463","name":"Al and MLiss Grissom","website":"","facebook":"","twitter":"","tags":"honey"},{"type":"farm","street":"124 Diamond Lake Lane","city":"Crescent City","state":"fl","zip":"32112","x":"-81.577329","y":"29.422782","name":"Allison Family Farm LLC.","website":"http://allisonfamilyfarm.com/","facebook":"","twitter":"","tags":"eggs fresh-fruits nursery-stock poultry fowl"},{"type":"farm","street":"8748 Guava St","city":"Yalaha","state":"fl","zip":"34797","x":"-81.807912","y":"28.737419","name":"Aquaponic Lynx LLC","website":"http://www.aquaponiclynx.com/","facebook":"https://www.facebook.com/pages/Aquaponic-Lynx-LLC/120267698035287?ref=hl","twitter":"","tags":"fish seafood fresh-vegetables"},{"type":"farm","street":"5949 Dairy Road","city":"baker","state":"fl","zip":"","x":"-86.6730810","y":"30.8061770","name":"Baker U-Pick Blueberries","website":"","facebook":"","twitter":"","tags":""},{"type":"farm","street":"10137 Preston Rd. just off Mondon Hill Road","city":"Brooksville","state":"fl","zip":"34601","x":"-82.3380549","y":"28.5530743","name":"Beasley Farm of Brooksville","website":"beasleyfarmbrooksville.blogspot.com or Beasley Farm facebook","facebook":"https://www.facebook.com/pages/Beasley-Farms/246402592050005?fref=ts","twitter":"","tags":"fresh-vegetables"},{"type":"farm","street":"43405 State Road 64 East","city":"Myakka Head","state":"fl","zip":"34251","x":"-82.096539","y":"27.459539","name":"Bellablue Berry Farm","website":"www.bellablueberryfarm.com","facebook":"BellaBlue Berry Farm","twitter":"","tags":"canned preserved honey nursery-stock"},{"type":"farm","street":"14800 sw 31st ct","city":"Davie ","state":"fl","zip":"33331","x":"-80.346566","y":"26.081398","name":"Bender's Tropical Grove","website":"Bendersgrove.com","facebook":"https://www.facebook.com/pages/Benders-Tropical-Grove/119092214773666","twitter":"https://www.twitter.com/bendersgrove","tags":"fresh-fruits nursery-stock"},{"type":"farm","street":"7606 Kinard Rd.","city":"Plant City","state":"fl","zip":"33565","x":"-82.232089","y":"28.065417","name":"Big Bear Farms, Inc.","website":"BIGBEARFARMS.MYSITE.COM","facebook":"","twitter":"","tags":""},{"type":"farm","street":"1522 CR 308","city":"Crescent City","state":"fl","zip":"32112","x":"-81.571514","y":"29.442212","name":"Blueberry Hill Farm Inc.","website":"","facebook":"https://www.facebook.com/pages/Blueberry-Hill-Farm/353380774779857","twitter":"","tags":""},{"type":"farm","street":"7450 Ne 135th Street","city":"Bronson","state":"fl","zip":"32621","x":"-82.652593","y":"29.531500","name":"Brads Organic Blueberries","website":"","facebook":"","twitter":"","tags":""},{"type":"farm","street":"27400 Old Trilby Road","city":"Brooksville","state":"fl","zip":"34602","x":"-82.2828490","y":"28.5061180","name":"Bramble Bush Farm","website":"","facebook":"","twitter":"","tags":""},{"type":"farm","street":"8505 Silver Star Road","city":"Orlando","state":"fl","zip":"32818","x":"-81.501306","y":"28.577967","name":"Brook Hollow Hydroponics Strawberry Farm","website":"www.thebrookhollowfarm.com","facebook":"www.facebook.com/thebrookhollowfarm","twitter":"","tags":"fresh-fruits fresh-vegetables"},{"type":"farm","street":"13992 North U.S. 301","city":"Oxford","state":"fl","zip":"34484","x":"-82.0375700","y":"28.9490610","name":"Brown's Country Market","website":"http://www.brownandbrownfarms.com/browns-country-market","facebook":"https://www.facebook.com/pages/Browns-Country-Market/162179200496592","twitter":"","tags":"baked-goods canned preserved dairy products herbs grains flour honey juices ciders maple-products prepared-foods red-meat non-poultry-meat"},{"type":"farm","street":"20335 Snipe Rd","city":"Altoona","state":"fl","zip":"32702","x":"-81.619253","y":"29.041259","name":"Butthead Farm","website":"https://www.thebuttheadsoapcompany.com/","facebook":"","twitter":"","tags":"baked-goods canned preserved crafts woodworking dairy products dry beans eggs herbs nuts pet-food soap body-care"},{"type":"farm","street":"14451 NE County Road 339","city":"Trenton","state":"fl","zip":"32693","x":"-82.7505810","y":"29.5425110","name":"Carlton Myers Nursery and Orchard","website":"","facebook":"https://www.facebook.com/carltonmyerspersimmon","twitter":"","tags":"fresh-fruits nursery-stock"},{"type":"farm","street":"12951 SW Paddock Dr","city":"Indiantown","state":"fl","zip":"34956","x":"-80.477947","y":"27.047453","name":"CoLab Farms","website":"www.colabfarms.com","facebook":"www.facebook.com/colabfarms","twitter":"","tags":"canned preserved eggs fresh-fruits fresh-vegetables honey"},{"type":"farm","street":"","city":"Naples","state":"fl","zip":"","x":"-81.7948103","y":"26.1420358","name":"Colusa Farms","website":"www.colusafarms.com","facebook":"","twitter":"","tags":"herbs fresh-vegetables mushrooms soap body-care"},{"type":"farm","street":"24 NW 6th Avenue","city":"Fort Lauderdale","state":"fl","zip":"33311","x":"-80.1495294","y":"26.1225240","name":"Criswell Farms","website":"","facebook":"https://www.facebook.com/pages/Criswell-Farms-LLC/1375826332671388?fref=ts","twitter":"","tags":"herbs fresh-vegetables nursery-stock"},{"type":"farm","street":"2980 R.M. Ward Road","city":"Ponce De Leon","state":"fl","zip":"32455","x":"-85.875196","y":"30.703488","name":"Cypress Cattle and Produce","website":"www.cypresscattle.com","facebook":"","twitter":"","tags":""},{"type":"farm","street":"1615 U.s. Highway 92 East","city":"Seffner","state":"fl","zip":"33584","x":"-82.255264","y":"28.013423","name":"D&K Upick Blueberries","website":"","facebook":"","twitter":"","tags":"honey"},{"type":"farm","street":"9179 Garden St","city":"Jacksonville ","state":"fl","zip":"32219","x":"-81.811935","y":"30.408552","name":"Eden Gardens Jax","website":"Https://edengardensjax.org","facebook":"Http://Facebook.com/edengardensjax","twitter":"","tags":"bedding plants canned preserved herbs fresh-fruits fresh-vegetables honey"},{"type":"farm","street":"2331 Red Ember Road","city":"Oviedo","state":"fl","zip":"32765","x":"-81.1614990","y":"28.6241510","name":"Fresh Start Farm Inc","website":"","facebook":"","twitter":"","tags":"canned preserved fresh-fruits fresh-vegetables honey"},{"type":"farm","street":"6381 Tulip Drive","city":"Wesley Chapel","state":"fl","zip":"33544","x":"-82.3826890","y":"28.2494100","name":"Genes Patch","website":"","facebook":"","twitter":"","tags":""},{"type":"farm","street":"4612 S. Calhoun Road","city":"Plant City","state":"fl","zip":"33567","x":"-82.1659740","y":"27.9509030","name":"Glovers Blueberries","website":"stanair@aol.com","facebook":"","twitter":"","tags":""},{"type":"farm","street":"16824 Mahan Drive","city":"Tallahassee","state":"fl","zip":"32309","x":"-83.995597","y":"30.528972","name":"Goat First Network:Mahan Farms Enterperises","website":"goatfirstnetwork.com","facebook":"","twitter":"","tags":"baked-goods canned preserved dairy products eggs fresh-vegetables"},{"type":"farm","street":"29513 US Highway 27th Moore Haven, FL","city":"Moore Haven ","state":"fl","zip":"33471","x":"-81.0820604","y":"26.7822802","name":"Gray's and Danny's Meat Plant","website":"http://www.GDMeatPlant.com/","facebook":"www.Facebook.com/GDMeatPlant","twitter":"","tags":"red-meat non-poultry-meat"},{"type":"farm","street":"16323 NW 37 Dr","city":"Gainesville","state":"fl","zip":"32609","x":"-82.382328","y":"29.806093","name":"Great Tasting Pigs","website":"greattastingpigs.com","facebook":"https://www.facebook.com/greattastingpigs","twitter":"","tags":"eggs"},{"type":"farm","street":"177 East Bluebird Road","city":"Monticello","state":"fl","zip":"32344","x":"-83.926417","y":"30.532259","name":"Green Meadows Farm","website":"localharvest.org/greenmeadowsfarm","facebook":"GreenMeadowsFarm","twitter":"","tags":"fresh-fruits"},{"type":"farm","street":"31107 Blanton Road","city":"Dade CIty","state":"fl","zip":"33523","x":"-82.302178","y":"28.420417","name":"Hancock Groves","website":"","facebook":"","twitter":"","tags":"canned preserved fresh-fruits honey juices ciders"},{"type":"farm","street":"2102 N Shannon Ave","city":"Plant City","state":"fl","zip":"33563","x":"-82.1195750","y":"28.0325360","name":"Hardy Farms LLC","website":"www.hardypalmtrees.com","facebook":"https://www.facebook.com/hardypalmtrees","twitter":"","tags":"nursery-stock"},{"type":"farm","street":"21310 Fort Christmas Rd","city":"Christmas","state":"fl","zip":"32709","x":"-81.057472","y":"28.574788","name":"Heart of Christmas Farms LLC","website":"www.hocfarms.com","facebook":"www.facebook.com/hocfarms","twitter":"","tags":"canned preserved coffee tea dairy products dry beans eggs herbs fresh-fruits fresh-vegetables grains flour honey juices ciders mushrooms nuts pet-food red-meat non-poultry-meat tofu non-animal protein"},{"type":"farm","street":"15880 SE 36th Ave","city":"Summerfield","state":"fl","zip":"34491","x":"-82.089987","y":"28.991447","name":"Heirloom Country Farms","website":"www.heirloomcountryfarms.com","facebook":"Heirloom Countryfarms","twitter":"Heirloom Cntry Farms","tags":"eggs herbs fresh-fruits fresh-vegetables pet-food poultry fowl red-meat non-poultry-meat"},{"type":"farm","street":"15433 Cr 39 South","city":"Lithia","state":"fl","zip":"33547","x":"","y":"","name":"Herbs Erbs & Teas","website":"www.fortlonesome.org","facebook":"","twitter":"","tags":""},{"type":"farm","street":"13170 N. Meridian Rd.","city":"Tallahassee ","state":"fl","zip":"32312","x":"-84.282286","y":"30.640816","name":"Hiamonee Farms","website":"","facebook":"https://www.facebook.com/pages/Hiamonee-Farms/172018742823967?ref=bookmarks","twitter":"","tags":"fresh-fruits nursery-stock nuts"},{"type":"farm","street":"10804 Nw Sr 45","city":"High Springs","state":"fl","zip":"32643","x":"-82.6102960","y":"29.7548850","name":"High Springs Orchard Bakery LLC","website":"www.highspringsorchard.com","facebook":"https://www.facebook.com/pages/High-Springs-Orchard-Bakery/147947418567459","twitter":"","tags":"baked-goods canned preserved fresh-fruits grains flour honey nuts"},{"type":"farm","street":"8276 Ibis Street","city":"Sarasota","state":"fl","zip":"34241","x":"-82.434218","y":"27.239731","name":"Honeyside Farms","website":"www.honeysidefarms.com","facebook":"https://www.facebook.com/HoneysideFarms","twitter":"","tags":"fresh-fruits fresh-vegetables"},{"type":"farm","street":"1101 Shell Point Rd East","city":"Ruskin","state":"fl","zip":"33570","x":"-82.4200797","y":"27.7205480","name":"Hydro Harvest Farms","website":"http://www.hydroharvestfarms.com/","facebook":"https://www.facebook.com/hydroharvestfarms","twitter":"","tags":"bedding plants canned preserved herbs fresh-fruits fresh-vegetables honey"},{"type":"farm","street":"17010 West Newberry Road","city":"Newberry","state":"fl","zip":"32669","x":"-82.5244450","y":"29.6545260","name":"Jonesville Persimmons","website":"","facebook":"","twitter":"","tags":"fresh-fruits"},{"type":"farm","street":"2397 SE 37th Avenue","city":"Trenton","state":"fl","zip":"32693","x":"-82.745686","y":"29.703875","name":"Laughing Chicken Farm","website":"www.laughingchickenfarm.com","facebook":"https://www.facebook.com/pages/Laughing-Chicken-Farm/108558185834354","twitter":"","tags":"pet-food poultry fowl red-meat non-poultry-meat"},{"type":"farm","street":"2763 Caniehead Rd","city":"Campbellton","state":"fl","zip":"32416","x":"-85.3652210","y":"30.9599602","name":"LE Farms LLC","website":"www.chestnutsrus.com","facebook":"","twitter":"","tags":"nuts"},{"type":"farm","street":"4540 Corey Road","city":"Grant-Valkaria","state":"fl","zip":"32950","x":"-80.5901268","y":"27.9454762","name":"Liberty Farms of Florida","website":"http://libertyfarms.info/home","facebook":"https://www.facebook.com/libertyfarmsflorida","twitter":"","tags":"bedding plants cut-flowers fresh-fruits fresh-vegetables honey"},{"type":"farm","street":"15585 NW 29 Street","city":"Gainesville","state":"fl","zip":"32609","x":"-82.3671380","y":"29.7986300","name":"Loftus Family Farm","website":"www.loftusfamilyfarm.com/","facebook":"","twitter":"","tags":""},{"type":"farm","street":"11400 County Road 13N","city":"Saint Augusrine","state":"fl","zip":"32092","x":"-81.592435","y":"29.908869","name":"Maggies Herb Farm LLC","website":"http://maggiesherbfarm.com","facebook":"maggies herb farm","twitter":"","tags":"bedding plants coffee tea herbs honey nursery-stock soap body-care"},{"type":"farm","street":"18900 County Road  561","city":"Clermont","state":"fl","zip":"34715","x":"-81.7575774","y":"28.6212576","name":"Marks Upick Blueberries","website":"www.marksblueberries.com","facebook":"","twitter":"","tags":"fresh-fruits"},{"type":"farm","street":"3685 Orlando Avenue","city":"Mims","state":"fl","zip":"32754","x":"-80.85993","y":"28.715838","name":"Meadors Blueberry Farm","website":"","facebook":"www.facebook.com/MeadorsBlueberryFarm","twitter":"","tags":"baked-goods bedding plants canned preserved coffee tea eggs fresh-fruits honey"},{"type":"farm","street":"17569 76th Street","city":"Live Oak","state":"fl","zip":"32060","x":"-83.114041","y":"30.313149","name":"Mitillini Vineyards","website":"http://www.mitillinivineyards.com/","facebook":"https://www.facebook.com/pages/Mitillini-Vineyards/101321156639678?ref=hl","twitter":"","tags":"fresh-fruits"},{"type":"farm","street":"36815 LESLYE LN","city":"EUSTIS","state":"fl","zip":"32736","x":"-81.529005","y":"28.884393","name":"Momma G Farms","website":"www.mommagfarms.org","facebook":"https://www.facebook.com/mommagfarm","twitter":"","tags":"honey nursery-stock wild-harvested forest-products"},{"type":"farm","street":"6980 33rd street","city":"Vero Beach","state":"fl","zip":"32966","x":"-80.470328","y":"27.653808","name":"Osceola Organic Farm","website":"osceolaorganicfarm.com","facebook":"https://www.facebook.com/osceolaorganicfarm","twitter":"","tags":"herbs fresh-fruits fresh-vegetables"},{"type":"farm","street":"1320 Hog Wallow Lane SW","city":"Labelle","state":"fl","zip":"33935","x":"-81.471965","y":"26.821593","name":"Pattys Patch Blueberry Upick","website":"www.pattyspatch.com","facebook":"https://www.facebook.com/PattysPatchBlueberryUPick","twitter":"","tags":""},{"type":"farm","street":"11106 State Road 674","city":"lithia","state":"fl","zip":"33547","x":"-82.190870","y":"27.705119","name":"Peach Pit Farms","website":"","facebook":"","twitter":"","tags":"eggs fresh-fruits fresh-vegetables honey"},{"type":"farm","street":"102 Palm Beach St","city":"Lake Placid","state":"fl","zip":"33852","x":"-81.3157150","y":"27.2238330","name":"Persimmony Snickets, LLC.","website":"www.persimmonysnickets.com","facebook":"https://www.facebook.com/PersimmonySnicketsFarm","twitter":"https://www.twitter.com/PSnickets","tags":"baked-goods bedding plants canned preserved coffee tea eggs fresh-fruits honey mushrooms nursery-stock nuts pet-food poultry fowl soap body-care"},{"type":"farm","street":"12571 Aubrey Ln","city":"Bokeelia","state":"fl","zip":"33922","x":"-82.1225610","y":"26.6449070","name":"Pine Island Botanicals, Inc","website":"http://www.pineislandbotanicals.com","facebook":"https://www.facebook.com/pages/Pine-Island-Botanicals/306895999417914?fref=ts","twitter":"","tags":"eggs herbs fresh-fruits fresh-vegetables"},{"type":"farm","street":"3604 Barjar Place","city":"Plant City","state":"fl","zip":"33565","x":"-82.2089630","y":"28.0531100","name":"Rebman Farms Llc.","website":"Merker95@yahoo.com","facebook":"","twitter":"","tags":"fresh-fruits"},{"type":"farm","street":"6000 Polk City Road","city":"Haines City","state":"fl","zip":"33844","x":"-81.677643","y":"28.158483","name":"Ridge Island Groves, Inc.","website":"http://www.ridgeislandgroves.com","facebook":"https://www.facebook.com/RidgeIslandGroves","twitter":"","tags":"canned preserved coffee tea dairy products eggs herbs fresh-fruits fresh-vegetables honey juices ciders poultry fowl"},{"type":"farm","street":"8611 47th Drive","city":"Live Oak","state":"fl","zip":"32060","x":"-82.843306","y":"30.294693","name":"Rooney's Front Porch Farm","website":"www.rooneyfarm.com","facebook":"www.facebook.com/rooneysfarm","twitter":"","tags":"canned preserved fresh-fruits"},{"type":"farm","street":"17790 96th St.","city":"Live Oak","state":"fl","zip":"32060","x":"-83.117329","y":"30.275264","name":"Sampson Family Farm","website":"sampsonfamilyfarm.com","facebook":"https://www.facebook.com/sampsonfamilyfarm","twitter":"","tags":"pet-food"},{"type":"farm","street":"23515 S.W. 162 Ave","city":"Homestead ","state":"fl","zip":"33031","x":"-80.453495","y":"25.547377","name":"SANDY ACRE AVOCADO & MANGO FARM","website":"","facebook":"","twitter":"","tags":"fresh-fruits nursery-stock"},{"type":"farm","street":"6220 SW Martin Highway","city":"Palm City","state":"fl","zip":"34990","x":"-80.337821","y":"27.161413","name":"Shadowood Farm, Inc.","website":"http://www.shadowoodfarm.com/","facebook":"","twitter":"","tags":"fresh-vegetables"},{"type":"farm","street":"35622 Braddock Road","city":"Callahan","state":"fl","zip":"32011","x":"-81.864069","y":"30.611727","name":"Shepperds Farms","website":"Shepperdsfarms@gmail.com","facebook":"","twitter":"","tags":"canned preserved"},{"type":"farm","street":"7097 Old River Road","city":"Baker","state":"fl","zip":"32531","x":"-86.597905","y":"30.888099","name":"Shockley Springs Blueberry Farm","website":"http://shockleysprings.com","facebook":"https://www.facebook.com/pages/Shockley-Springs-Nursery/83091184375?ref=hl&ref_type=bookmark","twitter":"","tags":"fresh-fruits honey"},{"type":"farm","street":"15912 S County Road 325","city":"Hawthorne","state":"fl","zip":"32640","x":"-82.1673278","y":"29.4863878","name":"South Moon Farms","website":"http://upickblueberriesgainesville.com","facebook":"https://www.facebook.com/SouthMoonFarms","twitter":"","tags":""},{"type":"farm","street":"16651 Schofield Road","city":"Clermont","state":"fl","zip":"34714","x":"-81.6798800","y":"28.4488130","name":"Southern Hill Farms, Inc.","website":"https://southernhillfarms.com","facebook":"www.facebook.com/southernhillfarms","twitter":"www.twitter.com/shfblueberries","tags":"baked-goods canned preserved coffee tea fresh-fruits honey juices ciders prepared-foods soap body-care wine spirits beer hard-cider"},{"type":"farm","street":"234 E Michigan Ave","city":"Deland","state":"fl","zip":"32723","x":"-81.300512","y":"29.032739","name":"Stetson Farmers Market","website":"http://stetson.orgsync.com/org/hatterharvest","facebook":"https://www.facebook.com/HatterHarvest","twitter":"","tags":"baked-goods canned preserved coffee tea dairy products herbs fresh-fruits honey juices ciders nursery-stock prepared-foods soap body-care"},{"type":"farm","street":"","city":"Lake Wales","state":"fl","zip":"33898","x":"-81.596409","y":"27.924955","name":"Sustainable Seasons Farm","website":"www.sustainableseasons.com","facebook":"","twitter":"","tags":"fresh-vegetables"},{"type":"farm","street":"8335 240th Street","city":"O'Brien","state":"fl","zip":"32071","x":"-82.9173849","y":"30.0142258","name":"The Back Acres Farm","website":"http://thebackacresfarm.com","facebook":"https://www.facebook.com/thebackacresfarm","twitter":"","tags":"baked-goods canned preserved crafts woodworking eggs fresh-fruits fresh-vegetables poultry fowl soap body-care"},{"type":"farm","street":"9050 Corkscrew Road","city":"Estero","state":"fl","zip":"33928","x":"-81.8041580","y":"26.4303040","name":"The Farm","website":"thefarm-estero .com","facebook":"https://www.facebook.com/TheFarmEstero","twitter":"","tags":"baked-goods canned preserved cut-flowers fresh-fruits fresh-vegetables honey juices ciders soap body-care"},{"type":"farm","street":"1655 Flamingo Road","city":"Davie","state":"fl","zip":"33325","x":"-80.3151580","y":"26.0989820","name":"The Farmers Market at Flamingo Road Nursery","website":"www.flamingoroadnursery.com","facebook":"https://www.facebook.com/FlamingoRoadNursery","twitter":"","tags":"baked-goods bedding plants canned preserved coffee tea cut-flowers fish seafood herbs fresh-fruits fresh-vegetables grains flour honey juices ciders maple-products mushrooms nursery-stock nuts prepared-foods"},{"type":"farm","street":"4166 Millside Road","city":"Laurel Hill ","state":"fl","zip":"32567","x":"-86.455150","y":"30.929088","name":"The Flyin D Ranch","website":"TheFlyinDRanch.com","facebook":"","twitter":"","tags":"eggs"},{"type":"farm","street":"5010 Highway 27","city":"Clermont","state":"fl","zip":"34714","x":"-81.705697","y":"28.419663","name":"The Showcase of Citrus","website":"www.showcaseofcitrus.com","facebook":"https://www.facebook.com/pages/The-Showcase-of-Citrus/357567637588517","twitter":"","tags":"baked-goods canned preserved coffee tea fresh-fruits honey juices ciders prepared-foods soap body-care"},{"type":"farm","street":"324 E. Orlando Avenue","city":"Ocoee","state":"fl","zip":"34761","x":"-81.539775","y":"28.563578","name":"Tom West Blueberries","website":"www.tomwestblueberries.com","facebook":"facebook.com/tomwestblueberries.","twitter":"","tags":"fresh-fruits honey"},{"type":"farm","street":"1010 Camellia road","city":"West Palm Beach ","state":"fl","zip":"33405","x":"-80.0664210","y":"26.6720180","name":"Tropical Acres Farms Inc","website":"","facebook":"Facebook.com/TropicalAcresFarms","twitter":"","tags":"canned preserved fresh-fruits nursery-stock"},{"type":"farm","street":"5344 White Road","city":"Brooksville ","state":"fl","zip":"34602","x":"-82.2781762","y":"28.5093419","name":"Twelve Oaks Community Farms, Inc.","website":"","facebook":"","twitter":"","tags":"baked-goods canned preserved crafts woodworking cut-flowers dairy products dry beans eggs herbs fresh-fruits fresh-vegetables grains flour honey juices ciders maple-products mushrooms nuts pet-food poultry fowl red-meat non-poultry-meat soap body-care"},{"type":"farm","street":"22310 County Road 455","city":"Howey in the Hills","state":"fl","zip":"34737","x":"-81.766621","y":"28.667251","name":"Valley View Vineyards","website":"","facebook":"Valley View Vineyards","twitter":"","tags":"fresh-fruits"},{"type":"farm","street":"601 Johnson Lake Rd","city":"DeLeon Springs","state":"fl","zip":"32130","x":"-81.348352","y":"29.154785","name":"Vo-LaSalle Farms, Inc","website":"Www.giftfruitfromflorida.com","facebook":"Vo-LaSalle Farms","twitter":"","tags":"fresh-fruits fresh-vegetables honey"},{"type":"farm","street":"252 Wakulla Springs Road","city":"Crawfordville","state":"fl","zip":"32327","x":"-84.3146530","y":"30.2932220","name":"Wakulla Berries","website":"","facebook":"Facebook/Wakullaberries","twitter":"","tags":""},{"type":"farm","street":"14663 Mahan Drive","city":"Tallahassee","state":"fl","zip":"32309","x":"-84.0296410","y":"30.5220880","name":"Windy Hill Vineyard","website":"windyhillvineyard.com","facebook":"","twitter":"","tags":"fresh-fruits"},{"type":"farm","street":"3003 Pearson Road","city":"Valrico","state":"fl","zip":"33596","x":"-82.2268610","y":"27.9007480","name":"Wingspread Farm","website":"https://wingspread.farm/farmstand/","facebook":"https://www.facebook.com/WingspreadFarm-739542422837766/","twitter":"","tags":"eggs fresh-fruits fresh-vegetables"},{"type":"market","name":"A Growers' Market","website":"","facebook":"","twitter":"","street":"229 Lake Ella Drive","city":"Tallahassee ","state":"fl","zip":"32303","x":"-84.279874","y":"30.461953","tags":"baked goods cheese flowers eggs herbs vegetables honey jams prepared-foods soap fruits mushrooms"},{"type":"market","name":"Airport Farmers and Flea Market","website":"","facebook":"https://www.facebook.com/airportfarmersandfleamarket","twitter":"","street":"17375 Spring Hill Dr","city":"Brooksville","state":"fl","zip":"34604","x":"-82.441514","y":"28.481294","tags":"organic baked goods cheese crafts flowers eggs seafood herbs vegetables honey jams maple nuts plants prepared-foods soap trees wine coffee fruits juices pet food wild"},{"type":"market","name":"Alachua County Farmers' Market","website":"http://www.441market.com","facebook":"https://www.facebook.com/441acfmarket","twitter":"","street":"5920 NW 13th Street","city":"Gainesville","state":"fl","zip":"32653","x":"-82.3525150","y":"29.7106652","tags":"organic baked goods cheese flowers eggs herbs vegetables honey jams meat plants poultry prepared-foods soap trees coffee fruits mushrooms pet food wild"},{"type":"market","name":"Artisan Alley Farmers and Makers Market","website":"","facebook":"","twitter":"","street":"Artisan Alley","city":"DeLand","state":"fl","zip":"32720","x":"-81.304341","y":"29.027562","tags":"baked goods crafts flowers eggs seafood herbs vegetables honey jams meat nuts plants poultry prepared-foods soap trees wine coffee fruits grains pet food"},{"type":"market","name":"Brooksville Farmers' Market","website":"http://www.hernandogrowers.org","facebook":"facebook.com/hernandogrowers","twitter":"twitter.com/HernandoGrowers","street":"15487 Citrus Way","city":"Brooksville","state":"fl","zip":"34614","x":"-82.449304","y":"28.654639","tags":"baked goods cheese crafts eggs seafood herbs vegetables honey jams meat plants poultry soap trees fruits tofu"},{"type":"market","name":"Cagan Crossings Farmers' Market","website":"","facebook":"https://www.facebook.com/caganfarmersmarket/","twitter":"","street":"600 Cagan Park Ave.","city":"Clermont","state":"fl","zip":"34714","x":"-81.678425","y":"28.355644","tags":"baked goods cheese crafts eggs seafood herbs vegetables honey jams prepared-foods soap coffee fruits juices pet food"},{"type":"market","name":"Cape Coral Farmers' Market","website":"http://www.CapeCoralFarmersMarket.com","facebook":"Cape Coral Farmers Market","twitter":"https://twitter.com/capecoralfarmer","street":"SE 47th Terr & SE 10th Pl","city":"Cape Coral ","state":"fl","zip":"33904","x":"-81.9525140","y":"26.5637330","tags":"organic baked goods cheese crafts flowers eggs seafood herbs vegetables honey jams maple meat poultry prepared-foods soap trees coffee fruits juices mushrooms wild"},{"type":"market","name":"Delray GreenMarket","website":"http://delraycra.org","facebook":"Delray Beach GreenMarket","twitter":"","street":"NE 2nd Avenue, half block east of Atlantic Avenue","city":"Delray Beach","state":"fl","zip":"33444","x":"-80.071595","y":"26.462365","tags":"baked goods cheese flowers eggs seafood herbs vegetables honey jams meat poultry prepared-foods soap coffee fruits juices mushrooms pet food wild"},{"type":"market","name":"Downtown Alachua Farmer's Market","website":"http://alachuafarmersmarket.com","facebook":"https://www.facebook.com/alachuafarmersmarket","twitter":"","street":"14801 Main Street","city":"Alachua","state":"fl","zip":"32615","x":"-82.495552","y":"29.790872","tags":"organic baked goods cheese eggs herbs vegetables honey jams meat plants poultry prepared-foods trees coffee fruits juices mushrooms pet food wild"},{"type":"market","name":"Downtown Farmers Market of Fort Pierce, Inc.","website":"http://dfpfarmersmarket@yahoo.com","facebook":"downtown fort pierce farmers market","twitter":"","street":"Melody Lane and Marina Square","city":"Fort Pierce ","state":"fl","zip":"34950","x":"-80.321851","y":"27.449057","tags":"organic baked goods cheese flowers eggs seafood herbs vegetables honey jams maple meat nuts plants poultry prepared-foods soap trees coffee fruits juices mushrooms pet food"},{"type":"market","name":"High Springs Farmers Market","website":"http://highspringsfarmersmarket.com","facebook":"fb.com/farmersmarkethighsprings","twitter":"","street":"115 NE Railroad Avenue","city":"High Springs","state":"fl","zip":"32643","x":"-82.5962570","y":"29.8255090","tags":"baked goods cheese crafts flowers eggs seafood herbs vegetables honey jams maple meat nuts plants poultry prepared-foods soap trees coffee beans fruits mushrooms pet food tofu wild"},{"type":"market","name":"Legion Park Farmers Market ","website":"http://urbanoasisproject.org","facebook":"https://www.facebook.com/UpperEastSideFarmersMarket","twitter":"https://twitter.com/urbanoasisproj","street":"6601 Biscayne Blvd","city":"Miami","state":"fl","zip":"33138","x":"-80.183190","y":"25.836248","tags":"organic baked goods crafts flowers eggs seafood herbs vegetables honey jams meat plants prepared-foods soap coffee fruits grains juices mushrooms pet food"},{"type":"market","name":"Main Street DeFuniak Farmer's Market","website":"http://www.mainstreetdfs.org/farmers-market/","facebook":"https://www.facebook.com/MainStreetDFS/","twitter":"","street":"Baldwin Avenue between 7th and 8th St.","city":"DeFuniak Springs","state":"fl","zip":"32435","x":"-86.113700","y":"30.720266","tags":"baked goods cheese crafts eggs seafood herbs vegetables honey jams maple plants soap trees beans fruits pet food"},{"type":"market","name":"Market Mondays at the Arsht Center","website":"http://urbanoasisproject.org","facebook":"","twitter":"","street":"1301 Biscayne Blvd","city":"Miami","state":"fl","zip":"33132","x":"-80.189222","y":"25.787119","tags":"organic baked goods cheese eggs herbs vegetables honey jams meat prepared-foods soap coffee fruits juices mushrooms pet food tofu"},{"type":"market","name":"Ocala Downtown Market","website":"http://www.ocaladowntownmarket.com","facebook":"","twitter":"","street":"corner of SE 3rd Street and SE 3rd Avenue","city":"Ocala","state":"fl","zip":"34471","x":"-82.320981","y":"29.19393","tags":"baked goods cheese crafts flowers eggs seafood vegetables honey jams maple plants poultry prepared-foods soap coffee beans fruits"},{"type":"market","name":"Orange Park Farmer's & Arts Market","website":"http://www.OrangeParkMarket.com","facebook":"@OrangeParkMarket","twitter":"","street":"2042 Park Ave","city":"Orange Park","state":"fl","zip":"32073","x":"-81.701986","y":"30.165438","tags":"baked goods cheese crafts eggs seafood herbs vegetables honey jams maple meat nuts poultry prepared-foods soap coffee fruits pet food tofu"},{"type":"market","name":"Ormond Beach Farmers Market","website":"http://www.ormondbeachfarmersmarket.com","facebook":"https://www.facebook.com/ormondfarmersmarket","twitter":"","street":"22 S. Beach St. (City Hall Plaza)","city":"Ormond Beach","state":"fl","zip":"32174","x":"-81.055484","y":"29.284852","tags":"baked goods cheese crafts eggs herbs vegetables honey jams plants prepared-foods soap trees fruits"},{"type":"market","name":"Redland Community Farm and Market","website":"","facebook":"https://www.facebook.com/RedlandCommunityFAM/","twitter":"","street":"12690 SW 280th Street","city":"Homestead","state":"fl","zip":"33033","x":"-80.395809","y":"25.506957","tags":"organic baked goods cheese crafts flowers eggs herbs vegetables honey jams nuts plants prepared-foods soap trees wine coffee fruits juices mushrooms wild"},{"type":"market","name":"Redland Community Farm and Market","website":"","facebook":"https://www.facebook.com/RedlandCommunityFAM/","twitter":"","street":"12690 SW 280th Street","city":"Homestead","state":"fl","zip":"33033","x":"-80.395820","y":"25.506957","tags":"organic baked goods cheese crafts flowers eggs herbs vegetables honey jams nuts plants prepared-foods soap trees coffee fruits juices mushrooms wild"},{"type":"market","name":"Riverside Arts Market","website":"","facebook":"","twitter":"","street":"715 Riverside Avenue","city":"Jacksonville","state":"fl","zip":"32204","x":"-81.6762903","y":"30.3164943","tags":"baked goods cheese crafts flowers eggs herbs vegetables honey jams maple meat nuts plants poultry prepared-foods soap trees wine coffee fruits grains juices pet food tofu"},{"type":"market","name":"Santa Rosa Farmers Market","website":"","facebook":"https://www.facebook.com/FarmersMarketSantaRosa","twitter":"https://twitter.com/NWFLfarmersmkt","street":"4587 Woodbine Road","city":"Pace","state":"fl","zip":"32571","x":"-87.1835590","y":"30.6039770","tags":"baked goods cheese crafts eggs vegetables honey jams nuts plants poultry prepared-foods soap trees coffee fruits pet food wild"},{"type":"market","name":"Soutel Community Market","website":"","facebook":"https://www.facebook.com/SoutelCommunityMarket/","twitter":"https://twitter.com/SoutelM","street":"4750 Soutel Dr","city":"Jacksonville","state":"fl","zip":"32208","x":"-81.720010","y":"30.403740","tags":"vegetables jams prepared-foods soap coffee fruits"},{"type":"market","name":"Southwest Community Farmers Market at Tropical Park","website":"http://swcommunityfarmersmarket.org/","facebook":"https://www.facebook.com/SouthwestCommunityFarmersMarket","twitter":"","street":"7901 SW 40th St.","city":"Miami","state":"fl","zip":"33155","x":"-80.325631","y":"25.731970","tags":"organic baked goods crafts flowers eggs seafood herbs vegetables honey jams meat nuts prepared-foods soap coffee fruits grains juices mushrooms"},{"type":"market","name":"St. Petersburg Saturday Morning Market","website":"http://www.saturdaymorningmarket.com","facebook":"https://www.facebook.com/Saturday-Morning-Market","twitter":"SPSatAMMkt","street":"First Street and First Avenue South","city":"St Petersburg","state":"fl","zip":"33701","x":"-82.633652","y":"27.769964","tags":"organic baked goods cheese crafts flowers eggs seafood herbs vegetables honey jams meat nuts plants poultry prepared-foods soap trees coffee fruits juices mushrooms pet food wild"},{"type":"market","name":"Surfside Sunset Market","website":"","facebook":"https://www.facebook.com/SurfsideSunsetMarket","twitter":"https://twitter.com/capecoralfarmer","street":"Veteran's Pkwy & Surfside Blvd","city":"Cape Coral ","state":"fl","zip":"33991","x":"-82.024341","y":"26.608161","tags":"baked goods cheese crafts eggs seafood herbs vegetables honey jams meat poultry prepared-foods soap fruits juices mushrooms pet food"},{"type":"market","name":"Sweetwater Sunday Market","website":"http://sweetwater-organic.org/","facebook":"https://www.facebook.com/sundaymarket/","twitter":"https://twitter.com/SweetwaterTampa","street":"6942 West Comanche Avenue","city":"Tampa","state":"fl","zip":"33634","x":"-82.560612","y":"27.999259","tags":"organic baked goods cheese crafts flowers eggs herbs vegetables honey jams maple plants prepared-foods soap trees coffee fruits grains juices mushrooms tofu wild"},{"type":"market","name":"Temple Terrace Farmers' Market","website":"https://www.ttfarmersmarket.com/","facebook":"https://www.facebook.com/ttfarmersmarket/","twitter":"","street":"11302 N 56th St","city":"Temple Terrace","state":"fl","zip":"33617","x":"-82.3941250","y":"28.0509640","tags":"baked goods eggs vegetables honey jams meat poultry coffee fruits mushrooms wild"},{"type":"market","name":"The Indian Shores Sunday Morning Market","website":"http://www.TheBeachMarkets.com","facebook":"https://www.facebook.com/IndianShoresSundayMarket/","twitter":"","street":"19305 Gulf Blvd","city":"Indian Shores","state":"fl","zip":"33785","x":"-82.842837","y":"27.847880","tags":"baked goods crafts vegetables honey jams nuts prepared-foods soap coffee fruits grains juices tofu"},{"type":"market","name":"The Seminole Wednesday Market","website":"http://www.TheBeachMarkets.com","facebook":"https://www.facebook.com/SeminoleWednesdayMarket/","twitter":"https://twitter.com/thebeachmarkets","street":"9100 113th St","city":"Seminole","state":"fl","zip":"33772","x":"-82.796388","y":"27.855798","tags":"baked goods cheese crafts flowers eggs seafood herbs vegetables honey jams maple nuts plants prepared-foods soap trees coffee beans fruits grains juices mushrooms pet food tofu wild"},{"type":"market","name":"Union Street Farmers Market","website":"http://unionstreetfarmersmkt.com","facebook":"Union Street Farmers Market","twitter":"","street":"111 E. University Ave.","city":"Gainesville ","state":"fl","zip":"32601","x":"-82.3236020","y":"29.6517956","tags":"organic baked goods cheese flowers eggs seafood herbs vegetables honey jams meat nuts plants poultry prepared-foods coffee fruits juices mushrooms pet food"},{"type":"market","name":"Vanderbilt Farmers Market","website":"https://www.vanderbiltfarmersmarket.com/","facebook":"https://www.facebook.com/vanderbiltfarmersmarket","twitter":"","street":"Galleria Shoppes at Vanderbilt","city":"Naples ","state":"fl","zip":"34109","x":"-81.771054","y":"26.246337","tags":"organic baked goods cheese crafts flowers eggs seafood herbs vegetables honey jams maple nuts prepared-foods soap coffee fruits grains juices pet food wild"},{"type":"market","name":"Wynwood Yard Farmers Market","website":"http://urbanoasisproject.org","facebook":"https://www.facebook.com/events/1813562685367965/","twitter":"","street":"56 NW 29th St","city":"Miami  ","state":"fl","zip":"33127","x":"-80.196719","y":"25.803534","tags":"organic baked goods eggs vegetables honey jams prepared-foods soap coffee fruits mushrooms pet food"},{"type":"market","name":"Yellow Green Farmers Market","website":"http://www.ygfarmersmarket.com","facebook":"https://www.facebook.com/YGFarmersMarket","twitter":"https://twitter.com/ygfarmersmarket","street":"1940 North 30th Road","city":"Hollywood","state":"fl","zip":"33021","x":"-80.169243","y":"26.030260","tags":"organic baked goods cheese crafts flowers eggs seafood herbs vegetables honey jams maple meat nuts plants poultry prepared-foods soap trees wine coffee beans fruits grains juices mushrooms pet food tofu"}]
