"city","facebook","name","state","street","tags","twitter","type","website","x","y","zip"
"Pueblo","https://www.facebook.com/AWrensNestFarm","A Wren's Nest Farm","co","402 S Neilson Ave","bedding plants canned preserved soap body-care","","farm","http://awrensnest.com/nest/","-104.5579487","38.2639407","81001"
"Ft. Collins","https://www.facebook.com/pages/The-Bartels-Pumpkin-Patch/137755902661","Bartels Land and Livestock Upick and Pumpkin Patch","co","3424 E. Douglas Road","fresh-vegetables","","farm","llavud@frii.com","-105.031185","40.694011","80524"
"Grand Junction","https://www.facebook.com/pages/Boltons-Orchards-and-Farm-Market/342817158274","Bolton's Orchards","co","2257 L Road","canned preserved eggs fresh-fruits fresh-vegetables","","farm","","-108.6318750","39.1768720","81505"
"Canon City","www.facebook.com/colonorchards","Colon Orchards","co","3175 Grandview Avenue","canned preserved dairy products dry beans eggs herbs fresh-fruits fresh-vegetables honey juices ciders nuts red-meat non-poultry-meat soap body-care","","farm","www.colonorchards.com","-105.185165","38.435304","81212"
"Larkspur","www.facebook.com/crookedclove","Crooked Clove Farm & Ranch LLC","co","8222 S Perry Park Rd","baked-goods canned preserved eggs herbs fresh-vegetables soap body-care","www.twitter.com/crookedclove","farm","www.crookedclove.com","-104.956008","39.241712","80118"
"Montrose","DELYAKS","DELYAKS","co","14679 5875 Rd","red-meat non-poultry-meat","","farm","www.yakmeat.us  , www.yaksale.com","-107.991232","38.480011","81403"
"Paonia","https://www.facebook.com/pages/Desert-Weyr-LLC/56496179294","Desert Weyr, LLC","co","16870 Garvin Mesa Road","poultry fowl red-meat non-poultry-meat","https://twitter.com/Oogiem","farm","http://www.desertweyr.com","-107.574089","38.898061","81428"
"Berthoud ","","Dottie's Garden Spot","co","22440 County Road 1","fresh-vegetables","","farm","","-105.0541790","40.3268060","80513"
"Delta","","Dragonfly Farm","co","823 1400 Lane","","","farm","dragonflychurros.com","-108.108097","38.773807","81416"
"Lakewood","https://www.facebook.com/everittfarms","Everitt Farms","co","9400 W Alameda Ave","baked-goods canned preserved crafts woodworking cut-flowers dry beans eggs fresh-vegetables grains flour honey","https://twitter.com/EverittFarms","farm","www.everittfarms.com","-105.101698","39.710797","80226"
"Denver","www.facebook.com/feeddenver","Feed Denver: Sunnyside Farm & Market","co","44th Avenue and Vallejo Street","baked-goods bedding plants canned preserved crafts woodworking cut-flowers eggs herbs fresh-fruits fresh-vegetables honey nursery-stock pet-food prepared-foods wild-harvested forest-products","www.twitter.com/feeddenver","farm","www.FeedDenver.com","-105.0134837","39.7765630","80211"
"Aurora","https://www.facebook.com/pages/Fresh-Start-Family-Farms/199168826774078?ref=hl","Fresh Start Family Farms LLC.","co","23700 E 42nd Avenue","eggs","","farm","http://www.freshstartfamilyfarms.com","-104.7104899","39.7746330","80019"
"Greeley","","Hansen Family Barnyard","co","4425 83rd Ave","dairy products eggs poultry fowl red-meat non-poultry-meat","","farm","Hansenfamilybarnyard.com","-104.813442","40.369227","80634"
"Dolores","https://facebook.com/harvestmoonproduce","Harvest Moon Produce LLC","co","28881 Road P","cut-flowers fresh-fruits fresh-vegetables","","farm","https://harvestmoonproduce.farm","-108.522003","37.421268","81323"
"Berthoud","https://www.facebook.com/HeritageLavender?ref=hl","Heritage Lavender, LLC","co","4809 Foothills Drive","baked-goods bedding plants crafts woodworking cut-flowers herbs prepared-foods soap body-care","","farm","http://heritagelavender.com/","-105.163392","40.287934","80513"
"Black Forest","https://www.facebook.com/#!/pages/High-Altitude-Rhubarb-LLC/161735683855277","High Altitude Rhubarb--Organic Farm & Nursery","co","7225 Wildridge Road","fresh-vegetables honey nursery-stock","","farm","http://www.highaltituderhubarb.com","-104.692742","39.039318","80908"
"Walsenburg ","","Hugs Farm","co","616 Stout St","canned preserved herbs fresh-fruits fresh-vegetables","","farm","www.HugsFarm.weebly.com","-104.7935518","37.6300888","81089"
"Divide","","Jenkins Farm, L.L.C.","co","7093  County Road 61","eggs herbs fresh-fruits fresh-vegetables nursery-stock","","farm","","-105.169881","38.847830","80814"
"Brush","","Just What Grows Gardens","co","25641 County Road T.9","herbs fresh-vegetables nursery-stock","","farm","","-103.666797","40.275803","80723"
"Fort Collins ","https://www.facebook.com/laughingbuckfarm","Laughing Buck Farm","co","3724 North County Road 13","eggs fresh-vegetables soap body-care","","farm","www.laughingbuckfarm.com","-105.0566885","40.6404242","80524"
"MONTROSE","https://www.facebook.com/pages/Life-Cycles-Pasture/400632466741298?ref=bookmarks","Life Cycles Pasture","co","1875 Locust Rd","poultry fowl red-meat non-poultry-meat","","farm","www.lifecyclespasture.com","-107.8606070","38.4917080","81401"
"Palisade","","Morton's Organic Orchards","co","3651 E 1/2 Road","canned preserved fresh-fruits fresh-vegetables","","farm","www.mortonsorchards.com","-108.3749150","39.0835220","81526"
"Fort Collins","www.facebook.com/onthevinefarm","On the Vine at Richmond Farms Urban Market","co","W. Horsetooth and Richmond Dr","cut-flowers eggs fresh-fruits fresh-vegetables honey poultry fowl","","farm","www.onthevineatrichmondfarms.com","-105.099421","40.538248","80526"
"Henderson","https://www.facebook.com/PalomboMarket","Palombo Farms Market","co","11500 Havana Street","baked-goods canned preserved dry beans eggs fresh-fruits fresh-vegetables honey juices ciders mushrooms nuts","https://twitter.com/@palombomarket","farm","www.PalomboMarket.com","-104.8641280","39.9030356","80640"
"Cortez","PittsFamilyRanchGrassfedMilk","Pitts Family Ranch","co","15238 Rd 21","dairy products eggs poultry fowl red-meat non-poultry-meat","","farm","","-108.6622140","37.4322350","81321"
"Denver","","RoastedChile.com","co","1701 South Cherokee St","canned preserved dry beans honey nuts","","farm","Roastedchili.com","-104.991521","39.685542","80229"
"Monument","https://www.facebook.com/pages/Searle-Ranch-Grass-Fed-Beef","Searle Ranch","co","18911 Cherry Springs Ranch Dr.","","","farm","searleranch.com","-104.781932","39.107269","80132"
"Cedaredge","https://www.facebook.com/pages/Uncle-Johnnys-U-Pick-Farm/152162904866587","Uncle Johnnys UPick Farm","co","18561 Surface Creek Road","bedding plants fresh-fruits fresh-vegetables","","farm","","-107.909922","38.923679","81413"
"Penrose","","Upper Beaver Creek Ranch","co","116 Red Rock Dr.","baked-goods eggs red-meat non-poultry-meat","","farm","","-105.051367","38.534429","81240"
"Alamosa","https://www.facebook.com/pages/Alamosa-Farmers-Market/104375596315429?fref=ts","Alamosa Farmers Market","co","Corner of 6th Street and State Avenue's Parking Lot","organic baked goods cheese crafts flowers eggs herbs vegetables honey jams meat nuts plants prepared-foods soap coffee beans fruits grains mushrooms","","market","http://www.alamosafarmersmarket.org","-105.865006","37.467321","81101"
"Basalt","","Basalt Sunday Market","co","101 Midland Avenue","baked goods cheese crafts flowers eggs seafood herbs vegetables honey jams meat prepared-foods soap coffee fruits grains juices mushrooms","","market","http://www.basaltsundaymarket.com","-107.034736","39.368957","81621"
"Loveland","https://www.facebook.com/cityoflovelandfarmersmarket","City of Loveland Farmers Market","co","700 S. Railroad","organic baked goods cheese crafts flowers eggs herbs vegetables honey jams maple meat poultry prepared-foods soap wine coffee beans fruits grains mushrooms pet food tofu wild","","market","https://www.cityofloveland.org/farmersmarket","-105.078652","40.387479","80537"
"Colorado Springs","https://www.facebook.com/farmandartmarket","Colorado Farm and Art Market","co","7350 Pine Creek Road","baked goods cheese crafts flowers eggs seafood herbs vegetables honey jams meat plants poultry prepared-foods soap wine coffee beans fruits juices pet food","https://twitter.com/cofarmartmarket","market","http://www.farmandartmarket.com","-104.8146880","38.9377160","80919"
"Colorado Springs","https://www.facebook.com/farmandartmarket","Colorado Farm and Art Market","co","215 S. Tejon","organic baked goods cheese crafts flowers eggs seafood herbs vegetables honey jams meat poultry prepared-foods soap coffee beans fruits juices mushrooms","https://twitter.com/cofarmartmarket","market","http://www.farmandartmarket.com","-104.822309","38.830543","80903"
"Cortez","https://www.facebook.com/groups/265957719169/admins/?order=default","Cortez Farmers Market","co","Main and Elm Streets","baked goods crafts flowers eggs herbs vegetables honey jams meat plants poultry prepared-foods soap coffee beans fruits","","market","http://www.cortezfarmmarket.com","-108.587634","37.348444","81321"
"Dove Creek","https://www.facebook.com/DoloresCountyFarmersMarket/","Dolores County Farmers Market","co","390 Main Street","baked goods flowers eggs herbs vegetables honey jams plants soap coffee beans fruits wild","","market","http://www.dovecreekfood.org","-108.903587","37.764836","81324"
"Durango","https://www.facebook.com/durangofarmersmarket/","Durango Farmers Market","co","259 W 9th Street","organic baked goods cheese crafts flowers eggs seafood herbs vegetables honey jams meat plants poultry prepared-foods soap trees wine coffee beans fruits grains juices mushrooms tofu wild","","market","http://www.durangofarmersmarket.com/","-107.882758","37.273063","81301"
"Fort Collins","https://www.facebook.com/larimercountyfarmersmarket","Larimer County Farmers' Market","co","200 W. Oak Street","organic baked goods cheese crafts flowers eggs herbs vegetables honey jams meat plants poultry prepared-foods soap wine coffee beans fruits juices mushrooms pet food tofu","https://twitter.com/larimercountyfm","market","http://www.larimercountyfarmersmarket.org","-105.079950","40.586187","80521"
"Minturn","https://www.facebook.com/minturnmarket","Minturn Market","co","Historic Downtown Minturn","baked goods cheese crafts eggs seafood vegetables honey jams nuts prepared-foods soap coffee fruits","","market","https://www.minturn.org/explore-minturn/pages/minturn-market","-106.4315","39.58839","81645"
"Montrose ","https://m.facebook.com/MontroseFarmersMarket/","Montrose Farmers Market - Summer","co","S. Uncompahgre and S. 1st Street","baked goods cheese crafts flowers eggs herbs vegetables honey jams meat nuts plants poultry prepared-foods soap trees coffee beans fruits grains juices mushrooms pet food","","market","http://montrosefarmersmarket.weebly.com/","-107.874269","38.479423","81401"
"Collbran","","Plateau Valley Farmers Market","co","2003 Main Street","baked goods crafts flowers eggs herbs vegetables honey jams meat plants soap coffee fruits","","market","","-107.962277","39.238943","81624"
"Walsenburg","Spanish Peaks Farm Stand","Spanish Peaks Farm Stand","co","23500 US Hwy 160","vegetables fruits","","market","","-104.831846","37.600391","81089"
"Timnath","Facebook.com/COFeedGrain","Sunday Market on Main Street","co","4138 Main St, Unit A","baked goods cheese crafts flowers eggs herbs vegetables honey jams meat nuts poultry prepared-foods soap wine coffee beans fruits grains juices pet food","","market","http://www.ColoradoFeedAndGrain.com/SundayMarket","-104.981878","40.529078","80547"
"Telluride","https://www.facebook.com/thetelluridefarmersmarket/?modal=admin_todo_tour","Telluride Farmers' Market","co","South Oak St","organic baked goods crafts flowers eggs seafood herbs vegetables honey jams meat plants poultry prepared-foods soap coffee fruits juices mushrooms tofu wild","","market","http://www.thetelluridefarmersmarket.com","-107.8130860","37.9368430","81435"
"Creede","www.facebook.com/creedefarmersmarket","The Creede Farmers and Local Artisan Market","co","001 - 1st Street","organic baked goods cheese crafts flowers eggs herbs vegetables jams meat prepared-foods soap fruits grains mushrooms","www.twitter.com/creedemarket","market","http://www.creedefarmersmarket.com","-106.926949","37.852344","81130"
"Westminster ","https://facebook.com/orchardfarmersmarket/","The Orchard Farmers Market","co","14697 Delaware St","baked goods cheese crafts vegetables honey jams meat nuts soap fruits","","market","","-104.992071","39.961115","80023"
"Westcliffe","www.facebook.com/WestcliffeFarmersMarket","Westcliffe Farm and Maker's Market","co","315 Main Street, Jess Price Park","baked goods crafts vegetables honey jams meat poultry prepared-foods soap fruits pet food","","market","http://www.westcliffefarmersmarket.com","-105.466411","38.136152","81252"
