[{"type":"farm","street":"S387 Korthals Ln. ","city":"Chaseburg","state":"wi","zip":"45621","x":"-91.1102715","y":"43.7134959","name":"Adoni Arces Family Farm LLC ","website":"","facebook":"","twitter":"","tags":"eggs fresh-fruits poultry fowl red-meat non-poultry-meat"},{"type":"farm","street":"7020 Plover Rd (Hwy. 54 E)","city":"Wisconsin Rapids","state":"wi","zip":"54494","x":"-89.738168","y":"44.419143","name":"Altenburg's Country Gardens LLC","website":"http://www.altenburgsfarm.com/","facebook":"https://www.facebook.com/altenburgsfarm","twitter":"","tags":"canned preserved fresh-fruits fresh-vegetables maple-products prepared-foods"},{"type":"farm","street":"1670 Mar-El Road","city":"DePere","state":"wi","zip":"54115","x":"-88.092893","y":"44.378637","name":"Apple Valley Orchard LLC","website":"AppleValleyLLC.com","facebook":"https://www.facebook.com/pages/Apple-Valley-Orchard/117313941615608","twitter":"","tags":"baked-goods canned preserved crafts woodworking fresh-fruits juices ciders soap body-care"},{"type":"farm","street":"8079 Maurer Road","city":"Cross Plains","state":"wi","zip":"53528","x":"-89.6159386","y":"43.0421176","name":"Appleberry Farm LLC","website":"theappleberryfarm.com","facebook":"upickappleberryfarm.com","twitter":"","tags":"baked-goods canned preserved crafts woodworking cut-flowers eggs fresh-fruits fresh-vegetables honey juices ciders maple-products prepared-foods soap body-care"},{"type":"farm","street":"W853 County Road B","city":"Campbellsport","state":"wi","zip":"53010","x":"-88.199707","y":"43.707108","name":"Armstrong Apples LLC","website":"Armstrongapples.com","facebook":"https://www.facebook.com/pages/Armstrong-Apples-Orchard-and-Winery/103621803066115","twitter":"","tags":"baked-goods canned preserved dairy products fresh-fruits honey juices ciders soap body-care wine spirits beer hard-cider"},{"type":"farm","street":"W7402 Fox Trail Rd.","city":"Shell Lake","state":"wi","zip":"54871","x":"-91.913566","y":"45.764247","name":"Bashaw Valley Farm & Greenhouse","website":"bashawvalley@gmail.com","facebook":"","twitter":"","tags":"bedding plants canned preserved eggs fresh-fruits honey maple-products nursery-stock red-meat non-poultry-meat"},{"type":"farm","street":"4420 Behnke rd","city":"lena ","state":"wi","zip":"54139","x":"-87.980007","y":"44.999195","name":"Behnkes Grass Fed Beef & Pasture Pork","website":"","facebook":"https://www.facebook.com/Behnkes-Grass-Fed-Beef-And-Pasture-Pork-250614411763880/?fref=ts&ref=br_tf","twitter":"","tags":"canned preserved fresh-vegetables poultry fowl red-meat non-poultry-meat wild-harvested forest-products"},{"type":"farm","street":"1990 Hwy 46","city":"New Richmond","state":"wi","zip":"54017","x":"-92.3841138","y":"45.1486124","name":"Blue Gentian Farm","website":"","facebook":"","twitter":"https://www.twitter.com/bgfarmboy","tags":"eggs red-meat non-poultry-meat"},{"type":"farm","street":"246 Carlson Lane","city":"River Falls","state":"wi","zip":"54022","x":"-92.709957","y":"44.895888","name":"Blue Ridge Growers Orchard Nursery","website":"www.facebook.com/WIFarmFreshAtlas","facebook":"https://www.facebook.com/WIFarmFreshAtlas","twitter":"","tags":"canned preserved crafts woodworking fresh-fruits soap body-care"},{"type":"farm","street":"W9967 County  Road XX","city":"Bear Creek","state":"wi","zip":"54922","x":"-88.6909960","y":"44.5884040","name":"Blueberry Haven LLC","website":"BLUEBERRYHAVEN.NET","facebook":"","twitter":"","tags":"canned preserved fresh-fruits"},{"type":"farm","street":"1266 Walnut St","city":"Prescott ","state":"wi","zip":"54021","x":"-92.789672","y":"44.751793","name":"Borner Farm Project","website":"bornerfarmproject.com","facebook":"Borner Farm Project","twitter":"","tags":"baked-goods bedding plants canned preserved cut-flowers eggs fresh-fruits maple-products prepared-foods"},{"type":"farm","street":"765 50th Avenue","city":"Clear Lake","state":"wi","zip":"54005","x":"-92.3202280","y":"45.2822048","name":"Bull Brook Keep","website":"http://www.bullbrookkeep.com","facebook":"http://www.facebook.com/BullBrookKeep","twitter":"twitter.com/BronxToBarn","tags":""},{"type":"farm","street":"W7675 US Hwy 12","city":"Fort Atkinson","state":"wi","zip":"53538","x":"-88.912620","y":"42.968651","name":"Busy Barns Adventure Farm LLC","website":"https://www.busybarnsfarm.com","facebook":"https://www.facebook.com/busybarnsfarm","twitter":"https://twitter.com/busybarnsfarm","tags":"honey prepared-foods"},{"type":"farm","street":"5576 County Road Q","city":"Colgate","state":"wi","zip":"53017","x":"-88.3134342","y":"43.1930480","name":"Copper Kettle Farm LLC","website":"http://www.copperkfarm.com","facebook":"https://www.facebook.com/CopperKettleFarm","twitter":"https://www.twitter.com/copperkfarm","tags":""},{"type":"farm","street":"S1843 County Road U","city":"Cochrane","state":"wi","zip":"54622","x":"-91.683419","y":"44.328264","name":"Cowsmo, Inc.","website":"www.cowsmocompost.com","facebook":"","twitter":"","tags":""},{"type":"farm","street":"E8975 E. Ridge Road","city":"Westby","state":"wi","zip":"54667","x":"-90.805682","y":"43.653914","name":"Deep Rooted","website":"http://www.deeprootedorganics.com/","facebook":"https://www.facebook.com/DeepRootedWestby","twitter":"","tags":"bedding plants canned preserved herbs fresh-vegetables"},{"type":"farm","street":"W8707 Sawmill Rd","city":"Blanchardville","state":"wi","zip":"53516","x":"-89.7915410","y":"42.7899850","name":"Dorothy's Grange LLC","website":"dorothysgrange.com","facebook":"","twitter":"","tags":"cut-flowers herbs fresh-vegetables red-meat non-poultry-meat"},{"type":"farm","street":"1545 Main Street","city":"Mukwonago","state":"wi","zip":"53149","x":"-88.3444","y":"42.841521","name":"Elegant Farmer","website":"","facebook":"","twitter":"","tags":""},{"type":"farm","street":"W12426 Paiser Ln","city":"Leopolis","state":"wi","zip":"54948","x":"-88.873415","y":"44.778915","name":"ElevenM Ranch","website":"elevenmranch.com","facebook":"https://www.facebook.com/elevenmranch","twitter":"","tags":"poultry fowl"},{"type":"farm","street":"W1414 County Rd. Z","city":"Fall River","state":"wi","zip":"53932","x":"-89.068339","y":"43.428831","name":"Englewood Grass-Fed Beef","website":"","facebook":"https://www.facebook.com/pages/Englewood-Grass-fed-Beef/102825246458689","twitter":"","tags":"red-meat non-poultry-meat"},{"type":"farm","street":"1500 S Springdale Road","city":"Waukesha","state":"wi","zip":"53186","x":"-88.1850680","y":"43.0159300","name":"Field to Fork Farm and Market","website":"www.fieldtoforkfarms.com","facebook":"https://www.facebook.com/pages/Field-To-Fork-Farms/444165995616374?ref=hl","twitter":"","tags":"cut-flowers eggs herbs fresh-vegetables poultry fowl red-meat non-poultry-meat"},{"type":"farm","street":"N5100 Webster Lane","city":"Gilman","state":"wi","zip":"54433","x":"-90.795837","y":"45.216076","name":"Futility Farms LLC","website":"http://www.futilityfarms.com/","facebook":"Futility Farms","twitter":"","tags":"poultry fowl red-meat non-poultry-meat"},{"type":"farm","street":"1333 - 120th Street","city":"Amery","state":"wi","zip":"54001","x":"-92.408597","y":"45.397467","name":"Glenna Farms Country Store & Sugarhouse","website":"http://glennafarms.com/","facebook":"https://www.facebook.com/pages/Glenna-Farms/52322147733?ref=hl","twitter":"https://twitter.com/GlennaFarms1","tags":"canned preserved coffee tea crafts woodworking dairy products fresh-vegetables honey maple-products wine spirits beer hard-cider"},{"type":"farm","street":"15115 Lax Chapel Rd.","city":"Kiel","state":"wi","zip":"53042","x":"-87.981956","y":"43.914557","name":"Golden Bear Farm","website":"www.goldenbearfarm.com","facebook":"Golden Bear Farm","twitter":"","tags":"red-meat non-poultry-meat"},{"type":"farm","street":"N44867 County Road E","city":"Osseo","state":"wi","zip":"54758","x":"-91.2514078","y":"44.4903959","name":"Golden Hills Buffalo Farm","website":"","facebook":"","twitter":"","tags":"poultry fowl"},{"type":"farm","street":"10431 Mayflower Road","city":"Milladore","state":"wi","zip":"54454","x":"-89.9088330","y":"44.6255150","name":"Good Earth Farms","website":"www.goodearthfarms.com","facebook":"https://www.facebook.com/pages/Good-Earth-Farms/176806359091394","twitter":"","tags":"poultry fowl"},{"type":"farm","street":"W11280 County Road B","city":"Humbird","state":"wi","zip":"54746","x":"-90.884823","y":"44.528060","name":"Grampa Glenns Organic Strawberries Glennenn Farm","website":"www.grampaglennsorganicstrawberries.com","facebook":"https://www.facebook.com/GrampaGlennsCertifiedOrganicStrawberries","twitter":"","tags":"honey"},{"type":"farm","street":"173 County Road N","city":"Edgerton","state":"wi","zip":"53534","x":"-89.140436","y":"42.861329","name":"Harried U-Pick-Umm Farm LLC.","website":"www.facebook.com/pages/Harried-U-Pick-Umm-Farm/142386852440308","facebook":"","twitter":"","tags":"fresh-fruits poultry fowl"},{"type":"farm","street":"N 2963 Lakeshore Dr","city":"Chilton","state":"wi","zip":"53014","x":"-88.311825","y":"43.995193","name":"Heritage Orchard LLC","website":"www.heritageorchard.net","facebook":"","twitter":"","tags":"baked-goods canned preserved crafts woodworking fresh-fruits fresh-vegetables honey juices ciders maple-products nuts prepared-foods soap body-care"},{"type":"farm","street":"87080 Valley Rd","city":"Bayfield","state":"wi","zip":"54814","x":"-90.867633","y":"46.832896","name":"Highland Valley Farm Inc.","website":"http://www.bayfieldblues.com/index.html","facebook":"https://www.facebook.com/pages/Highland-Valley-Farm/117845948235187","twitter":"","tags":"fresh-fruits honey maple-products"},{"type":"farm","street":"N9488 Rte G","city":"St. Cloud","state":"wi","zip":"53079","x":"-88.2058260","y":"43.8853530","name":"Holyland Berries Farm","website":"","facebook":"https://www.facebook.com/HolylandBerries","twitter":"","tags":"fresh-fruits fresh-vegetables"},{"type":"farm","street":"w329s5402 county rd E","city":"North Prairie","state":"wi","zip":"53153","x":"-88.404992","y":"42.945864","name":"Kipp Farms and Country Market LLC","website":"www.kippfarms.com","facebook":"https://www.facebook.com/pages/Kipp-Farms-Country-Market-LLC/274280116083169?fref=ts","twitter":"","tags":"bedding plants eggs fresh-vegetables honey red-meat non-poultry-meat soap body-care"},{"type":"farm","street":"704 Hillcrest Avenue","city":"Nekoosa","state":"wi","zip":"54457","x":"-89.8530470","y":"44.2665210","name":"Lotis Alpacas","website":"www.lotisalpacas.com","facebook":"https://www.facebook.com/lotisalpacas?ref=ts&fref=ts","twitter":"","tags":"crafts woodworking"},{"type":"farm","street":"10439 130th Avenue","city":"Bloomer","state":"wi","zip":"54724","x":"-91.462292","y":"45.025737","name":"Macs Berry Farm","website":"","facebook":"https://www.facebook.com/pages/Macs-Berry-Farm-Bloomer-Wisconsin/128131573868102","twitter":"","tags":"fresh-fruits fresh-vegetables maple-products"},{"type":"farm","street":"6675 Maple Ave","city":"Cashton","state":"wi","zip":"54619","x":"-90.8597170","y":"43.7993250","name":"Maple Ridge Orchard","website":"www.mapleridgeorchard.com","facebook":"https://www.facebook.com/pages/Maple-Ridge-Orchard/346451842039608","twitter":"","tags":"baked-goods canned preserved crafts woodworking fresh-fruits maple-products"},{"type":"farm","street":"N2564  Highway 151","city":"Chilton","state":"wi","zip":"53014","x":"-88.304602","y":"43.981162","name":"Meuer Farm, LLC","website":"www.meuerfarm.com","facebook":"https://www.facebook.com/MeuerFarm,LLC","twitter":"","tags":"baked-goods canned preserved coffee tea eggs fresh-fruits fresh-vegetables grains flour honey juices ciders maple-products nuts poultry fowl prepared-foods soap body-care wine spirits beer hard-cider"},{"type":"farm","street":"1329 E M-H Townline Road","city":"Milton ","state":"wi","zip":"53563","x":"-89.0076937","y":"42.7604481","name":"Meyer's Farm Market","website":"www.meyersfarmmarket.com","facebook":"www.facebook.com/meyersfarmmarket","twitter":"","tags":"herbs fresh-fruits fresh-vegetables honey juices ciders"},{"type":"farm","street":"15455 W Kadlec Road","city":"Hayward","state":"wi","zip":"54843","x":"-91.467657","y":"45.983106","name":"Northfork Ranch","website":"","facebook":"","twitter":"","tags":"canned preserved herbs fresh-vegetables red-meat non-poultry-meat"},{"type":"farm","street":"125 County Road CB","city":"Neenah","state":"wi","zip":"54956","x":"-88.504904","y":"44.179237","name":"Oakridge Farms","website":"http://oakridgeberries.com/","facebook":"https://www.facebook.com/pages/Oakridge-Farms/80596262554","twitter":"https://twitter.com/oakridgeberries","tags":"fresh-fruits fresh-vegetables honey"},{"type":"farm","street":"1017 Observatory Hill Rd.","city":"Belleville","state":"wi","zip":"53508","x":"-89.559045","y":"42.909700","name":"Observatory Hill Farm LLC","website":"http://observatoryhillfarm.com/","facebook":"","twitter":"","tags":"red-meat non-poultry-meat"},{"type":"farm","street":"5453 Pierceville Road","city":"Cottage Grove","state":"wi","zip":"53527","x":"-89.1544170","y":"43.1471750","name":"Offbeat Acres","website":"www.offbeatacres.com","facebook":"https://www.facebook.com/OffbeatAcresAlpacas","twitter":"https://twitter.com/OffbeatAcres","tags":"fresh-fruits fresh-vegetables"},{"type":"farm","street":"7814 Raynor Ave","city":"Franksville","state":"wi","zip":"53126","x":"-88.070998","y":"42.828252","name":"Old Homestead Orchard","website":"","facebook":"https://www.facebook.com/orchardstore","twitter":"","tags":"canned preserved crafts woodworking cut-flowers eggs fresh-fruits fresh-vegetables honey juices ciders maple-products poultry fowl"},{"type":"farm","street":"E13240 E Hillsdale Dr","city":"Fall Creek","state":"wi","zip":"54742","x":"-91.261903","y":"44.690853","name":"Out to Pasture Beef","website":"www.outtopasturebeef.com","facebook":"","twitter":"","tags":"maple-products red-meat non-poultry-meat"},{"type":"farm","street":"359 130th Street","city":"Amery","state":"wi","zip":"54001","x":"-92.427783","y":"45.259556","name":"Pike Hole Family Farm","website":"www.pikeholefarm.com","facebook":"Brad Burke","twitter":"","tags":"canned preserved herbs fresh-fruits fresh-vegetables"},{"type":"farm","street":"W11780 County Road KK","city":"Ripon","state":"wi","zip":"54971","x":"-88.749112","y":"43.807534","name":"Pinnacle Pastures","website":"pinnaclepastures,com","facebook":"https://www.facebook.com/pinnacle.pastures?fref=ts","twitter":"","tags":"red-meat non-poultry-meat"},{"type":"farm","street":"4891 state hwy. 80","city":"Pittsville","state":"wi","zip":"","x":"-90.1252475","y":"44.4239469","name":"Pittsview Farm Elk","website":"http://pittsviewfarmelk.com/","facebook":"https://www.facebook.com/pittsvillefarmelk","twitter":"","tags":""},{"type":"farm","street":"W4314 State Hwy 156","city":"Bonduel","state":"wi","zip":"54107","x":"-88.4575537","y":"44.6115636","name":"Porter's Patch","website":"www.PortersPatch.com","facebook":"https://www.facebook.com/porterspatch.navarino?fref=ts","twitter":"Porters Patch","tags":"cut-flowers fresh-fruits fresh-vegetables"},{"type":"farm","street":"N301 County Rd. H / PO Box H","city":"Palmyra","state":"wi","zip":"53156","x":"-88.609618","y":"42.854952","name":"Rushing Waters Fisheries, LLC","website":"www.rushingwaters.net","facebook":"","twitter":"","tags":"canned preserved crafts woodworking dairy products fish seafood juices ciders maple-products pet-food prepared-foods red-meat non-poultry-meat wine spirits beer hard-cider"},{"type":"farm","street":"W4192 Bristol Rd","city":"Columbus","state":"wi","zip":"53925","x":"-89.211417","y":"43.282549","name":"Sassy Cow Creamery","website":"www.sassycowcreamery.com","facebook":"https://www.facebook.com/pages/Sassy-Cow-Creamery/53518889031","twitter":"","tags":"baked-goods coffee tea dairy products grains flour honey maple-products nuts prepared-foods red-meat non-poultry-meat soap body-care"},{"type":"farm","street":"711 Railroad Avenue","city":"Viroqua","state":"wi","zip":"54665","x":"-90.8784554","y":"43.5619804","name":"Schott Farm","website":"http://schottfarm.com/","facebook":"","twitter":"","tags":"red-meat non-poultry-meat"},{"type":"farm","street":"4958 thomas hill rd","city":"edgar","state":"wi","zip":"54426","x":"-89.949112","y":"44.920106","name":"Scotch and Soda Acres","website":"","facebook":"","twitter":"","tags":"eggs honey poultry fowl"},{"type":"farm","street":"10494 157th ave","city":"Bloomer","state":"wi","zip":"54724","x":"-91.4610330","y":"45.0691110","name":"Seibel's Organic Meats, LLC","website":"https://sites.google.com/site/seibelsorganic/","facebook":"https://www.facebook.com/pages/Seibels-Organic-Meats-LLC/102229873169639","twitter":"","tags":"poultry fowl red-meat non-poultry-meat"},{"type":"farm","street":"2713 Hayner Road","city":"Janesville","state":"wi","zip":"53548","x":"-89.080485","y":"42.641113","name":"Skelly's Farm Market","website":"www.skellysfarmmarket.com","facebook":"www.facebook.com/skellysfarmmarket","twitter":"http://twitter.com/skellysfarm","tags":"baked-goods canned preserved coffee tea fresh-fruits fresh-vegetables prepared-foods"},{"type":"farm","street":"21010 County Highway R","city":"Jim Falls","state":"wi","zip":"54748","x":"-91.253864","y":"45.135569","name":"Spring Creek Meats","website":"https://www.springcreekmeats.com/","facebook":"https://m.facebook.com/SpringCreekMeats/?tsid=0.7024591669409054&source=result","twitter":"","tags":"eggs fresh-vegetables poultry fowl red-meat non-poultry-meat"},{"type":"farm","street":"253 County Road CE","city":"Kaukauna","state":"wi","zip":"54130","x":"-88.1887477","y":"44.2494042","name":"Star Orchard, LLC","website":"http://www.starorchard.com/","facebook":"http://www.facebook.com/starorchardllc","twitter":"","tags":"canned preserved fresh-fruits honey"},{"type":"farm","street":"W1417 US HWY 10","city":"Granton","state":"wi","zip":"54436","x":"-90.383979","y":"44.582582","name":"Sternitzky Specialty Foods LLC / DBA The Maple Dude","website":"www.themapledude.com","facebook":"https://www.facebook.com/pages/The-Maple-Dude/582639041784552","twitter":"https://www.twitter.com/themapledude.com","tags":"dairy products honey maple-products prepared-foods red-meat non-poultry-meat"},{"type":"farm","street":"10108 Sugar Hill Lane","city":"Wausau ","state":"wi","zip":"54403","x":"-89.496442","y":"44.982007","name":"Sugar Hill Sugar Bush LLC","website":"www.sugarhillsugarbush.com","facebook":"www.facebook.com/Sugarhillsugarbush","twitter":"","tags":"maple-products"},{"type":"farm","street":"N4249 HWY 51","city":"Poynette","state":"wi","zip":"53955","x":"-89.402007","y":"43.426767","name":"Sweet Wisconsin Honey Farm","website":"","facebook":"","twitter":"","tags":"honey"},{"type":"farm","street":"W2493 Cty Rd ES","city":"East Troy","state":"wi","zip":"53120","x":"-88.4248929","y":"42.7825894","name":"The Gardens @ Michael Fields","website":"www.michaelfields.org","facebook":"www.facebook.com/MichaelFieldsAgriculturalInstitute","twitter":"twitter.com/MichaelFieldsAg","tags":"cut-flowers eggs herbs fresh-fruits fresh-vegetables"},{"type":"farm","street":"w383n9009 mill st","city":"Oconomowoc ","state":"wi","zip":"53066","x":"-88.5051080","y":"43.1831070","name":"The Garlic Underground","website":"http:/www.thegarlicunderground.com","facebook":"https://www.facebook.com/garlicug","twitter":"","tags":""},{"type":"farm","street":"E7624 County Road P","city":"Westby","state":"wi","zip":"54667","x":"-90.870672","y":"43.707198","name":"Timber Coulee Outfitters","website":"","facebook":"","twitter":"","tags":"pet-food"},{"type":"farm","street":"W13702 highway 60","city":"Prairie Du Sac","state":"wi","zip":"53578","x":"-89.680302","y":"43.307907","name":"Toms Raspberries","website":"sites.google.com/site/tomsraspberries/","facebook":"https://www.facebook.com/pages/Toms-Raspberries/597930213559027","twitter":"","tags":"fresh-fruits fresh-vegetables"},{"type":"farm","street":"E208 State Highway 54","city":"Waupaca","state":"wi","zip":"54981","x":"-89.184127","y":"44.352231","name":"Turners Fresh Market & Greenhouse","website":"www.turnersfreshmarket.com","facebook":"","twitter":"","tags":"bedding plants canned preserved fresh-fruits fresh-vegetables soap body-care"},{"type":"farm","street":"E14214 County Road D","city":"La Farge","state":"wi","zip":"54639","x":"-90.545937","y":"43.561362","name":"Under A Rock Farm, LLC","website":"www.underarockfarm.com","facebook":"https://www.facebook.com/UnderARockFarm","twitter":"https://www.twitter.com/underarockfarm","tags":"bedding plants canned preserved crafts woodworking eggs herbs fresh-vegetables poultry fowl red-meat non-poultry-meat soap body-care wild-harvested forest-products"},{"type":"farm","street":"74 County Road F","city":"Blanchardville","state":"wi","zip":"53516","x":"-89.865292","y":"42.817160","name":"Valhalla Hills LLC","website":"","facebook":"","twitter":"","tags":"canned preserved cut-flowers herbs fresh-fruits fresh-vegetables mushrooms soap body-care"},{"type":"farm","street":"2555 West Star Rd","city":"Cottage Grove","state":"wi","zip":"53527","x":"-89.202571","y":"43.013389","name":"West Star Organics","website":"www.weststarfarm.com","facebook":"https://www.facebook.com/pages/West-Star-Organics/77210898093?ref=hl","twitter":"https://twitter.com/WestStarFarm","tags":"bedding plants nursery-stock"},{"type":"farm","street":"1907 43RD ST","city":"CALEDONIA","state":"wi","zip":"53108","x":"-87.9729920","y":"42.8112760","name":"Wick Place Candles and Farm","website":"wickplacefarm.com","facebook":"","twitter":"","tags":"canned preserved crafts woodworking eggs fresh-fruits fresh-vegetables honey maple-products poultry fowl"},{"type":"farm","street":"7528 Manitou Dr","city":"Two Rivers","state":"wi","zip":"54241","x":"-87.650674","y":"44.189762","name":"Wilfert Farms, LLC","website":"www.wilfertfarms.com","facebook":"@WilfertFarms.WI","twitter":"","tags":"fresh-fruits fresh-vegetables"},{"type":"farm","street":"W1237 Brooklyn Albany Rd","city":"Albany","state":"wi","zip":"53502","x":"-89.425043","y":"42.769865","name":"Windy Fleece Farm","website":"www.windyfleecefarm.com","facebook":"www.facebook.com/windyfleecefarm","twitter":"","tags":"poultry fowl red-meat non-poultry-meat soap body-care"},{"type":"farm","street":"W5416 King Road","city":"Rio","state":"wi","zip":"53960","x":"-89.2718330","y":"43.3996300","name":"Yorkshire Rose Farm","website":"","facebook":"","twitter":"","tags":""},{"type":"market","name":"Antigo Farmers Market, Inc.","website":"http://www.antigomarket.com","facebook":"Antigo Farmers Market, Inc","twitter":"","street":"420 Field Street","city":"Antigo","state":"wi","zip":"54409","x":"-89.149850","y":"45.138703","tags":"baked goods crafts flowers eggs herbs vegetables honey jams maple meat plants poultry soap beans fruits juices mushrooms wild"},{"type":"market","name":"Baldwin's Main St. Farmers Market","website":"https://www.villageofbaldwin.com/community/page/main-st-farmers-market","facebook":"https://www.facebook.com/BaldwinsMainStFarmersMarket/","twitter":"","street":"Main St. and 6th Ave.","city":"Baldwin","state":"wi","zip":"54002","x":"-92.370763","y":"44.966999","tags":"organic baked goods flowers eggs herbs vegetables honey jams maple meat plants soap mushrooms"},{"type":"market","name":"Bruce Community Farmers Market","website":"","facebook":"Bruce Community Farmers Market","twitter":"","street":"Corner of Hwy 8 and N Alvey Street","city":"Bruce","state":"wi","zip":"54819","x":"-91.2746971","y":"45.4551101","tags":"baked goods cheese crafts flowers eggs herbs vegetables honey jams maple meat poultry prepared-foods soap coffee fruits mushrooms wild"},{"type":"market","name":"Caledonia Outdoor Market","website":"","facebook":"https://www.facebook.com/EatLocalRacine/","twitter":"","street":"3920 N Greenbay Rd","city":"Caledonia","state":"wi","zip":"53404","x":"-87.822883","y":"42.769605","tags":"baked goods crafts flowers vegetables honey jams maple plants prepared-foods soap fruits"},{"type":"market","name":"Chippewa Falls Farmers Market","website":"http://www.chippewafallsmainst.org/Farmers_Market.html","facebook":"","twitter":"","street":"1 S. Bridge St.","city":"Chippewa Falls","state":"wi","zip":"54729","x":"-91.3902030","y":"44.9350090","tags":"baked goods cheese crafts flowers eggs herbs vegetables honey jams maple meat poultry prepared-foods soap fruits"},{"type":"market","name":"Country Lane Farmers Market","website":"http://www.countrylanemarket.com/farmers-market","facebook":"","twitter":"","street":"1642 16th St","city":"Barron","state":"wi","zip":"54812","x":"-91.828516","y":"45.443768","tags":"organic baked goods cheese crafts flowers eggs seafood herbs vegetables honey jams maple meat plants poultry prepared-foods soap trees coffee fruits grains mushrooms wild"},{"type":"market","name":"Darlington Farmers Market","website":"","facebook":"","twitter":"","street":"Main Street","city":"Darlington ","state":"wi","zip":"53530","x":"-90.117445","y":"42.677666","tags":"baked goods crafts flowers eggs vegetables honey jams maple plants soap"},{"type":"market","name":"DeForest Farmers' Market","website":"http://www.vi.deforest.wi.us/index.asp?Type=B_BASIC&SEC={38A90127-1135-4F1B-99D2-5AC8EE5AF484}","facebook":"https://www.facebook.com/deforestmarket/","twitter":"","street":"DeForest Street","city":"DeForest","state":"wi","zip":"53532","x":"-89.339846","y":"43.246672","tags":"organic baked goods cheese crafts flowers eggs herbs vegetables honey jams maple meat plants poultry prepared-foods soap trees fruits mushrooms"},{"type":"market","name":"Dodgeville Farmers Market","website":"","facebook":"https://www.facebook.com/dodgevillefarmersmarket","twitter":"","street":"327 N. Iowa Street","city":"Dodgeville","state":"wi","zip":"53533","x":"-90.129944","y":"42.962345","tags":"baked goods cheese crafts flowers eggs vegetables honey jams meat plants poultry soap coffee fruits"},{"type":"market","name":"Dousman Farmers Market","website":"http://www.dousmanchamber.org/farmers_market.html","facebook":"https://www.facebook.com/DousmanFarmersMarket","twitter":"","street":"118 S. Main St","city":"Dousman","state":"wi","zip":"53118","x":"-88.4725142","y":"43.0131210","tags":"baked goods crafts flowers herbs vegetables honey jams plants prepared-foods soap fruits wild"},{"type":"market","name":"Downtown Beloit Farmer's Market","website":"http://www.downtownbeloit.com","facebook":"https://www.facebook.com/BeloitFarmersMarket?ref=hl","twitter":"","street":"300 block of State Street, 400 block of East Grand Avenue, Gantry parking lot","city":"Beloit","state":"wi","zip":"53511","x":"-89.035555","y":"42.499698","tags":"organic baked goods cheese crafts flowers eggs seafood herbs vegetables honey jams maple meat nuts plants poultry prepared-foods soap trees wine coffee beans fruits grains juices mushrooms pet food wild"},{"type":"market","name":"Downtown Fond du Lac Farmers Market - Saturday","website":"http://downtownfdl.com/farmers-market.html","facebook":"https://www.facebook.com/FondDuLacFarmersMarket/","twitter":"","street":"Main Street from Western Ave. to Sheboygan St.","city":"Fond du Lac","state":"wi","zip":"54935","x":"-88.446973","y":"43.775364","tags":"baked goods cheese crafts flowers eggs seafood herbs vegetables honey jams maple meat plants poultry prepared-foods soap trees coffee beans fruits grains juices mushrooms pet food"},{"type":"market","name":"Downtown Fond du Lac Farmers Market - Wednesday","website":"http://downtownfdl.com/farmers-market.html","facebook":"https://www.facebook.com/FondDuLacFarmersMarket/","twitter":"","street":"Main Street Plaza ","city":"Fond du Lac","state":"wi","zip":"54935","x":"-88.447092","y":"43.777853","tags":"baked goods crafts flowers eggs vegetables honey jams maple meat plants poultry prepared-foods coffee beans fruits grains"},{"type":"market","name":"Downtown Green Bay Saturday Farmers Market","website":"https://downtowngreenbay.com/explore/downtown-events/saturday-farmers-market","facebook":"facebook.com/downtowngreenbay","twitter":"twitter.com/downtowngb","street":"200 S. Washington Street","city":"Green Bay","state":"wi","zip":"54301","x":"-88.017128","y":"44.513118","tags":"organic baked goods cheese crafts flowers eggs seafood herbs vegetables honey jams maple meat plants poultry prepared-foods soap coffee fruits juices mushrooms pet food"},{"type":"market","name":"Egg Harbor Farmers Market","website":"http://www.eggharbordoorcounty.org/events/farmers-market/","facebook":"https://www.facebook.com/pg/EggHarborDoorCounty/events/?ref=page_internal","twitter":"","street":"7809 Highway 42","city":"Egg Harbor","state":"wi","zip":"54209","x":"-87.280716","y":"45.049942","tags":"baked goods crafts herbs vegetables jams plants soap coffee fruits"},{"type":"market","name":"Fish Creek Settlement Shops Farm Market","website":"http://settlementshops.com","facebook":"","twitter":"","street":"9116 Hwy 42","city":"Fish Creek","state":"wi","zip":"54212","x":"-87.245350","y":"45.113436","tags":"organic baked goods crafts flowers herbs vegetables honey jams plants soap trees fruits"},{"type":"market","name":"Jackson County Farmers Market","website":"http://www.jcfarmmarket.org/","facebook":"https://www.facebook.com/brf.wi/","twitter":"","street":"Diploma Drive","city":"Black River Falls ","state":"wi","zip":"54615","x":"-90.862319","y":"44.291599","tags":"organic baked goods cheese crafts flowers eggs herbs vegetables honey jams maple meat poultry soap fruits"},{"type":"market","name":"Kenosha Public Market","website":"http://www.kenoshapublicmarkets.com","facebook":"https://www.facebook.com/kenoshapublicmarkets/","twitter":"","street":"625 52nd Street","city":"Kensoha","state":"wi","zip":"53140","x":"-87.819917","y":"42.587305","tags":"baked goods cheese flowers eggs herbs vegetables honey jams maple meat nuts plants poultry prepared-foods soap coffee beans fruits grains juices mushrooms wild"},{"type":"market","name":"MADWest Winter Farmers' Market","website":"","facebook":"www.facebook.com/MADWestFM","twitter":"","street":"55 South Gammon Road","city":"Madison","state":"wi","zip":"53717","x":"-89.502026","y":"43.066326","tags":"organic baked goods cheese crafts eggs seafood vegetables honey jams maple meat poultry prepared-foods coffee beans fruits grains mushrooms"},{"type":"market","name":"Market in the Park","website":"http://www.OSFMI.com","facebook":"Oshkosh Farmers Markets","twitter":"","street":"W South Park Ave & Georgia St","city":"Oshkosh","state":"wi","zip":"54901","x":"-88.5575090","y":"44.0053166","tags":"organic baked goods cheese crafts eggs herbs vegetables honey jams maple meat poultry prepared-foods coffee fruits mushrooms"},{"type":"market","name":"Market on Military Summer","website":"http://MilitaryAve.org","facebook":"Military Avenue Business Association","twitter":"","street":"Military Avenue and West Mason Street","city":"Green Bay ","state":"wi","zip":"54303","x":"-88.064640","y":"44.522210","tags":"baked goods crafts flowers eggs seafood herbs vegetables honey jams maple meat plants poultry prepared-foods soap wine fruits mushrooms pet food"},{"type":"market","name":"Mauston Farmers' Market","website":"https://www.maustonfarmersmarket.com/","facebook":"https://www.facebook.com/maustonsfarmersmarket/","twitter":"","street":"220 East State Street","city":"mauston","state":"wi","zip":"53948","x":"-90.082332","y":"43.801304","tags":"baked goods crafts eggs vegetables honey jams maple meat plants soap fruits"},{"type":"market","name":"Monroe Farmers Market ","website":"http://www.mainstreetmonroe.org","facebook":"Monroe Farmers Market on the Square","twitter":"","street":"10th St and 16th Ave","city":"Monroe","state":"wi","zip":"53566","x":"-89.639374","y":"42.601850","tags":"organic baked goods crafts flowers eggs herbs vegetables honey jams maple meat plants poultry prepared-foods soap coffee fruits"},{"type":"market","name":"Mosinee Farm Market","website":"http://www.mosineechamber.org","facebook":"https://www.facebook.com/profile.php?id=1671726160","twitter":"","street":"1101 Main Street","city":"City","state":"wi","zip":"54455","x":"-89.708626","y":"44.797421","tags":"baked goods cheese crafts flowers eggs herbs vegetables honey jams maple plants poultry soap trees coffee fruits mushrooms"},{"type":"market","name":"New Glarus Farmers Market","website":"","facebook":"https://www.facebook.com/newglarusfarmersmarket/","twitter":"","street":"1101 Hwy 69 ","city":"New Glarus","state":"wi","zip":"53574","x":"-89.632242","y":"42.809612","tags":"baked goods crafts flowers eggs herbs vegetables honey jams maple meat poultry soap coffee beans fruits pet food"},{"type":"market","name":"Northside Farmers Market","website":"http://www.northsidefarmersmarket.org","facebook":"https://www.facebook.com/madNFM/","twitter":"","street":"2900 N. Sherman","city":"Madison","state":"wi","zip":"53704","x":"-89.363109","y":"43.128582","tags":"baked goods cheese flowers eggs seafood herbs vegetables honey jams maple meat nuts plants poultry prepared-foods soap trees coffee beans fruits juices mushrooms pet food"},{"type":"market","name":"Oak Creek Farmers Market","website":"http://www.visitoakcreek.org","facebook":"https://www.facebook.com/groups/OakCreekFarmersMarket/","twitter":"","street":"Drexel Town Square","city":"Oak Creek ","state":"wi","zip":"53154","x":"-87.915013","y":"42.898212","tags":"organic baked goods cheese crafts flowers eggs herbs vegetables honey jams maple meat nuts plants poultry prepared-foods soap wine coffee beans fruits grains juices mushrooms pet food"},{"type":"market","name":"Oneida Farmers Market","website":"http://www.oneidanation.org/ofm","facebook":"https://www.facebook.com/#!/pages/Oneida-Farmers-Market-Wisconsin/157816204275054","twitter":"","street":"N7332 Water Circle Place","city":"Oneida","state":"wi","zip":"54155","x":"-88.202341","y":"44.503625","tags":"organic baked goods crafts flowers eggs herbs vegetables honey jams maple meat nuts plants poultry prepared-foods soap fruits"},{"type":"market","name":"Oshkosh Farmers Market - Downtown","website":"http://www.OSFMI.com","facebook":"Oshkosh Farmers Markets","twitter":"","street":"400-500 Blocks N Main St","city":"Oshkosh","state":"wi","zip":"54901","x":"-88.537573","y":"44.021478","tags":"organic baked goods cheese crafts flowers eggs seafood herbs vegetables honey jams maple meat nuts plants poultry prepared-foods soap coffee fruits juices mushrooms"},{"type":"market","name":"Oshkosh Farmers Market - Downtown","website":"http://www.OSFMI.com","facebook":"Oshkosh Farmers Markets","twitter":"","street":"400 & 500 Blocks N Main St & 100 Block Church Ave","city":"Oshkosh","state":"wi","zip":"54901","x":"-88.537461","y":"44.022875","tags":"organic baked goods cheese crafts flowers eggs seafood herbs vegetables honey jams maple meat nuts plants poultry prepared-foods soap coffee fruits mushrooms"},{"type":"market","name":"Oshkosh Farmers Market - Winter","website":"http://www.OSFMI.com","facebook":"Oshkosh Farmers Markets","twitter":"","street":"108 W New York Ave","city":"Oshkosh","state":"wi","zip":"54901","x":"-88.540004","y":"44.033250","tags":"organic baked goods cheese crafts eggs herbs vegetables honey jams maple meat nuts plants poultry prepared-foods soap coffee mushrooms"},{"type":"market","name":"Platteville Farmers Market - Summer","website":"https://plattevillefarmersmarketwi.com/","facebook":"www.facebook.com/PlattevilleFarmersMarket/","twitter":"","street":"100 Park Place","city":"Platteville","state":"wi","zip":"53818","x":"-90.479570","y":"42.735314","tags":"meat prepared-foods soap"},{"type":"market","name":"Platteville Farmers Market - Winter","website":"https://plattevillefarmersmarketwi.com/","facebook":"www.facebook.com/PlattevilleFarmersMarket/","twitter":"","street":"205 Market Street","city":"Platteville","state":"wi","zip":"53818","x":"-90.479874","y":"42.736018","tags":"baked goods crafts eggs herbs honey jams maple meat nuts prepared-foods soap coffee juices pet food"},{"type":"market","name":"Prairie Lakes Farmers Market","website":"","facebook":"https://www.facebook.com/PrairieLakesSunPrairie/","twitter":"","street":"2824 Prairie Lakes Dr, Ste. 201, Ste. 201","city":"Sun Prairie","state":"wi","zip":"53590","x":"-89.2702544","y":"43.1680835","tags":"organic baked goods cheese crafts flowers eggs herbs vegetables honey maple plants prepared-foods soap fruits"},{"type":"market","name":"Reedsburg Area Medical Center Farmer's Markets","website":"http://www.ramchealth.com","facebook":"","twitter":"","street":"2000 North Dewey Avenue","city":"Reedsburg","state":"wi","zip":"53959","x":"-89.993406","y":"43.549612","tags":"baked goods cheese crafts flowers eggs seafood herbs vegetables honey jams maple meat nuts plants poultry prepared-foods soap trees coffee beans fruits grains juices mushrooms pet food tofu"},{"type":"market","name":"Ridgeway Farmers Market","website":"http://ridgewayfarmersmarket.org","facebook":"https://www.facebook.com/ridgewayfarmersmarketwi/","twitter":"","street":"299 Hughitt Street","city":"Ridgeway","state":"wi","zip":"53582","x":"-89.993242","y":"42.998521","tags":"baked goods cheese crafts flowers eggs vegetables honey jams maple meat plants poultry prepared-foods soap coffee fruits grains mushrooms pet food wild"},{"type":"market","name":"Rusk County Farmers Market","website":"","facebook":"Rusk County Farmers Market","twitter":"","street":"US Highway 8 & W. 2nd  Street","city":"Ladysmith","state":"wi","zip":"54848","x":"-91.099240","y":"45.464998","tags":"organic baked goods cheese crafts flowers eggs herbs vegetables honey jams maple meat plants poultry soap coffee fruits mushrooms"},{"type":"market","name":"Shawano Farmers Market","website":"http://www.shawanofarmersmarket.org","facebook":"https://www.facebook.com/shawanofarmersmarket","twitter":"https://twitter.com/shawanomarket","street":"235 S. Washington Street","city":"Shawano","state":"wi","zip":"54166","x":"-88.611200","y":"44.779493","tags":"baked goods cheese crafts flowers seafood herbs vegetables honey jams maple meat plants prepared-foods soap fruits juices mushrooms"},{"type":"market","name":"Shorewood Farmers Market","website":"http://www.shorewoodfarmersmarket.com/","facebook":"https://www.facebook.com/shorewoodfarmersmarket/","twitter":"","street":"1600 E. Lake Bluff Blvd","city":"Shorewood","state":"wi","zip":"53211","x":"-87.890488","y":"43.096929","tags":"organic baked goods cheese flowers eggs seafood herbs vegetables honey jams maple meat plants poultry prepared-foods soap coffee fruits grains juices mushrooms wild"},{"type":"market","name":"Southshore Outdoor Market","website":"","facebook":"https://www.facebook.com/MondayMorningMarket/","twitter":"","street":"8505 Durand Ave","city":"sturtevant","state":"wi","zip":"53177","x":"-87.888847","y":"42.697348","tags":"baked goods crafts flowers herbs vegetables honey jams plants prepared-foods soap fruits"},{"type":"market","name":"Sustain Greenville Farmers Market","website":"http://www.sustaingreenville.org/","facebook":"https://www.facebook.com/Sustain.Greenville.Market/","twitter":"","street":"N1915 Julius Dr","city":"Greenville","state":"wi","zip":"54942","x":"-88.557375","y":"44.311141","tags":"organic baked goods cheese crafts flowers honey jams maple plants prepared-foods soap pet food"},{"type":"market","name":"The Market at Town Square","website":"http://greenlakerenewal.org/","facebook":"","twitter":"","street":"492 Hill St.","city":"Green Lake","state":"wi","zip":"54941","x":"-88.960382","y":"43.845375","tags":"organic baked goods crafts flowers herbs vegetables honey jams maple meat plants prepared-foods soap wine beans fruits juices mushrooms"},{"type":"market","name":"Tosa Farmers Market","website":"https://www.tosafarmersmarket.com","facebook":"https://www.facebook.com/TosaFarmersMarket/","twitter":"https://twitter.com/tosafarmmarket?lang=en","street":"7720 Harwood Avenue","city":"Wauwatosa","state":"wi","zip":"53213","x":"-88.008346","y":"43.048824","tags":"organic baked goods cheese flowers eggs vegetables honey jams maple meat nuts plants poultry prepared-foods coffee fruits grains juices mushrooms wild"},{"type":"market","name":"Two Rivers Farmers/Crafter Market","website":"","facebook":"","twitter":"","street":"","city":"Two Rivers","state":"wi","zip":"54241","x":"-87.569392","y":"44.150114","tags":"crafts eggs vegetables honey jams maple soap fruits"},{"type":"market","name":"Winter Farmers Market presented by Bellin Health","website":"https://downtowngreenbay.com/explore/downtown-events/winter-farmers-market","facebook":"facebook.com/downtowngreenbay","twitter":"twitter.com/downtowngb","street":"333 Main Street","city":"Green Bay, WI","state":"wi","zip":"54301","x":"-88.011250","y":"44.517943","tags":"organic baked goods cheese crafts eggs seafood vegetables honey jams maple meat poultry prepared-foods soap coffee fruits juices pet food"},{"type":"market","name":"Wisconsin Rapids Downtown Farmers Market","website":"","facebook":"https://www.facebook.com/WRDowntownFM/","twitter":"","street":"100-198 1st Avenue South","city":"Wisconsin Rapids","state":"wi","zip":"54495","x":"-89.82674","y":"44.392924","tags":"baked goods cheese crafts flowers seafood herbs vegetables honey jams maple prepared-foods soap fruits mushrooms"}]
