[{"type":"farm","street":"5985 S.W. Anglin Road","city":"Bentonville","state":"ar","zip":"72712","x":"-94.2898468","y":"36.3296074","name":"Anglin Beef","website":"http://www.anglinbeef.com","facebook":"","twitter":"","tags":""},{"type":"farm","street":"5909 Elm Springs Road","city":"Springdale","state":"ar","zip":"72762","x":"-94.195752","y":"36.193514","name":"Appel Farms","website":"","facebook":"https://www.facebook.com/AppelFarmsNWA","twitter":"","tags":"fresh-fruits fresh-vegetables"},{"type":"farm","street":"10309 Lafferty road","city":"Mt Pleasant","state":"ar","zip":"72561","x":"-91.913419","y":"36.0948783","name":"earthartandfoods.com","website":"earthartandfoods.com","facebook":"","twitter":"","tags":""},{"type":"farm","street":"","city":"Cave Springs ","state":"ar","zip":"72718","x":"-94.219384","y":"36.281402","name":"Ewe Bet Farm","website":"Www.ewebetfarm.com","facebook":"facebook.com/ewebetfarm","twitter":"@ewebetfarm","tags":"red-meat non-poultry-meat"},{"type":"farm","street":"6715 Highway 7 South","city":"Harrison","state":"ar","zip":"72601","x":"-93.122859","y":"36.167198","name":"Fenton's Farm Market","website":"www.fentonsberryfarm.com","facebook":"www.facebook.com/fentonsberryfarmAR","twitter":"","tags":"crafts woodworking eggs fresh-fruits fresh-vegetables honey"},{"type":"farm","street":"1414 Fayetteville Rd","city":"Van Buren","state":"ar","zip":"72956","x":"-94.356587","y":"35.454841","name":"M&M Farms","website":"","facebook":"","twitter":"","tags":"eggs red-meat non-poultry-meat"},{"type":"farm","street":"15620 Black Oak Quarry Road","city":"Fayetteville","state":"ar","zip":"72701","x":"-94.0963900","y":"35.9715879","name":"Mason Creek Farm","website":"http://www.masoncreekfarm.com/","facebook":"https://www.facebook.com/pages/Mason-Creek-Farm/125513010889959","twitter":"","tags":"eggs poultry fowl"},{"type":"farm","street":"14816 Miser Road","city":"Pea Ridge","state":"ar","zip":"72751","x":"-94.0784586","y":"36.4491077","name":"McGarrah Farms","website":"www.mcgarrahfarms.com","facebook":"Mcgarrah farms","twitter":"","tags":"fresh-fruits fresh-vegetables"},{"type":"farm","street":"1901 McGuire road","city":"Lamar","state":"ar","zip":"72846","x":"-93.394360","y":"35.475917","name":"Peach Pickin' Paradise","website":"","facebook":"Facebook.com/peachpickinparadise ","twitter":"@treeripepeach","tags":"fresh-fruits"},{"type":"farm","street":"1265 Will Baker Road","city":"London","state":"ar","zip":"72847","x":"-93.2818530","y":"35.3528890","name":"Renee's Berry Garden","website":"sites.google.com/site/reneesberrygarden/","facebook":"https://www.facebook.com/pages/Renees-Berry-Garden/172150249512730","twitter":"","tags":"honey"},{"type":"farm","street":"134 Keystone Lane","city":"Bruno","state":"ar","zip":"72682","x":"-92.748771","y":"36.155341","name":"Schot's Slopes Farm","website":"htp//schotsslopesfarm.com","facebook":"https://www.facebook.com/SchotsSlopesFarm","twitter":"","tags":"dairy products eggs poultry fowl"},{"type":"farm","street":"460 CR 6220","city":"Oakrk","state":"ar","zip":"72852","x":"-93.459919","y":"35.5700483","name":"SLB3","website":"baughmansfarm.com","facebook":"https://www.facebook.com/pages/Baughmans-Farm/780067088704026?ref=bookmarks","twitter":"","tags":"eggs poultry fowl red-meat non-poultry-meat"},{"type":"farm","street":"6688 West State Highway 10","city":"Booneville","state":"ar","zip":"72927","x":"-94.0256390","y":"35.1725090","name":"Sunnyland Berry Farm","website":"","facebook":"https://www.facebook.com/sunnylandberryfarm?ref_type=bookmark","twitter":"","tags":"fresh-fruits fresh-vegetables"},{"type":"farm","street":"12801 Taylor Orchard Road","city":"Gentry","state":"ar","zip":"72734","x":"-94.512708","y":"36.246170","name":"Taylors Orchard","website":"","facebook":"","twitter":"","tags":"fresh-fruits"},{"type":"farm","street":"42 Willow Tree Rd","city":"Ward","state":"ar","zip":"72176","x":"-91.872998","y":"34.971839","name":"Willow Tree Farms","website":"","facebook":"Willow Tree Farms","twitter":"","tags":"fresh-vegetables honey"},{"type":"market","name":"ASU Regional Farmers Market","website":"http://www.asuregionalfarmersmarket.org","facebook":"https://www.facebook.com/asuregionalfarmersmarket","twitter":"https://twitter.com/asufarmersmarket","street":"3300 Aggie Road","city":"Jonesboro","state":"ar","zip":"72401","x":"-90.667327","y":"35.840771","tags":"baked goods crafts flowers eggs herbs vegetables honey jams maple meat nuts plants poultry prepared-foods soap trees coffee fruits pet food"},{"type":"market","name":"Charleston Farmers Market","website":"","facebook":"https://www.facebook.com/Charleston-Ar-Farmers-Market-1593672464260381/","twitter":"","street":"","city":"Charleston","state":"ar","zip":"72933","x":"-94.0363153","y":"35.2970353","tags":"baked goods crafts vegetables honey plants prepared-foods soap coffee fruits"},{"type":"market","name":"Dardanelle Farmers Market","website":"","facebook":"fb.me/dardanellefarmersmarket","twitter":"","street":"120 N Front St","city":"Dardanelle","state":"ar","zip":"","x":"-93.153099","y":"35.220839","tags":"organic baked goods crafts flowers eggs herbs vegetables honey jams meat plants prepared-foods soap fruits grains pet food"},{"type":"market","name":"Downtown Newport Farmers Market","website":"http://newportfarmersmarket.org","facebook":"","twitter":"","street":"Corner of Hwy 101 & Angle St","city":"Newport","state":"ar","zip":"72112","x":"-91.234721","y":"35.6268","tags":"baked goods crafts vegetables jams plants"},{"type":"market","name":"Downtown Rogers Farmers Market","website":"https://www.downtownrogersinc.org/market","facebook":"https://www.facebook.com/DTRMarket/","twitter":"","street":"101 E Cherry Street","city":"Rogers","state":"ar","zip":"72756","x":"-94.115864","y":"36.330089","tags":"organic baked goods crafts flowers eggs herbs vegetables honey jams maple meat poultry prepared-foods soap wine coffee fruits mushrooms pet food"},{"type":"market","name":"Eureka Springs Farmers Market","website":"","facebook":"https://www.facebook.com/ESFarmersMarket","twitter":"","street":"44 Kingshighway","city":"Eureka Springs","state":"ar","zip":"72632","x":"-93.746149","y":"36.398616","tags":"organic baked goods cheese crafts flowers eggs herbs vegetables jams meat plants prepared-foods soap fruits mushrooms"},{"type":"market","name":"Farmers Market at MAD","website":"","facebook":"https://www.facebook.com/farmersmarketatmad","twitter":"","street":"105 East Locust","city":"El Dorado","state":"ar","zip":"71730","x":"-92.662280","y":"33.210240","tags":"baked goods crafts flowers eggs herbs vegetables honey jams soap fruits"},{"type":"market","name":"Historic Downtown Farmers Market","website":"http://hotspringsfarmermarket.com","facebook":"facebook.com/hotspringsfarmersmarket","twitter":"twitter.com/hs_farmersmkt","street":"121 Orange Street","city":"Hot Springs","state":"ar","zip":"71901","x":"-93.050943","y":"34.504886","tags":"baked goods crafts flowers eggs herbs vegetables honey jams meat plants poultry soap coffee beans fruits mushrooms"},{"type":"market","name":"Lafayette County Farmers Market","website":"","facebook":"https://www.facebook.com/Lafayette-County-Farmers-Market-At-Lewisville-1709681622637869/","twitter":"","street":"224 E. First Street","city":"Lewisville ","state":"ar","zip":"71845","x":"-93.577673","y":"33.355445","tags":"flowers eggs vegetables honey plants soap fruits"},{"type":"market","name":"Randolph County Farmers' Market","website":"","facebook":"Randolph County Farmers' Market","twitter":"","street":"1966 Highway 62 West","city":"Pocahontas ","state":"ar","zip":"72455","x":"-90.983393","y":"36.257409","tags":"baked goods flowers eggs herbs vegetables jams fruits"},{"type":"market","name":"Russellville Community Market","website":"http://russellville.locallygrown.net","facebook":"@russellvilleCM","twitter":"","street":"320 West C St. ","city":"Russellville","state":"ar","zip":"72801","x":"-93.135468","y":"35.280402","tags":"organic baked goods flowers eggs vegetables honey jams meat nuts plants poultry prepared-foods soap trees coffee fruits pet food"},{"type":"market","name":"Saracen Landing Farmers Market","website":"","facebook":"https://www.facebook.com/pages/Saracen-Landing-Farmers-Market/384646718262191","twitter":"","street":"200 Lake Saracen Drive","city":"Pine Bluff ","state":"ar","zip":"71601","x":"-92.004296","y":"34.231049","tags":"baked goods crafts eggs herbs vegetables honey jams maple soap fruits"},{"type":"market","name":"Sevier County Farmers Market","website":"","facebook":"https://m.facebook.com/SevierCountyFarmersMarketDeQueenArkansas","twitter":"","street":"Herman Dierks Park   604 East Hayes Avenue","city":"De Queen","state":"ar","zip":"71832","x":"-94.342133","y":"34.042245","tags":"baked goods crafts flowers eggs herbs vegetables honey jams meat plants soap fruits"},{"type":"market","name":"White St. Saturday Market","website":"","facebook":"https://www.facebook.com/SaturdayFarmersMarket","twitter":"","street":"26 White St.","city":"Eureka Springs","state":"ar","zip":"72632","x":"-93.741728","y":"36.404902","tags":"organic baked goods flowers eggs vegetables jams fruits"}]
