"city","facebook","name","state","street","tags","twitter","type","website","x","y","zip"
"Rigby","","Ashland Produce","id","158 N 4544 E","fresh-fruits fresh-vegetables","","farm","","-111.7958160","43.6501639","83442"
"Caldwell","","Black Dog Berry Farm and Market Garden","id","14623 Galloway Rd","cut-flowers eggs herbs fresh-fruits fresh-vegetables","","farm","","-116.683530","43.749677","83607"
"Downey","","Bradys Plant Ranch","id","3525 E. Virginia Road","baked-goods bedding plants canned preserved crafts woodworking dairy products eggs herbs fresh-fruits fresh-vegetables honey juices ciders nursery-stock prepared-foods red-meat non-poultry-meat","","farm","www.bradysplantranch.com","-112.1586133","42.5034199","83234"
"Kuna","https://www.facebook.com/Aplles4uall","Cabalo's Orchard & Gardens","id","2087 West King Rd","eggs fresh-fruits fresh-vegetables honey juices ciders poultry fowl","","farm","cabalosorchard.com","-116.439328","43.473453","83634"
"POCATELLO","","Giving Ground Farm","id","147 ELLSWORTH RD","cut-flowers dry beans herbs fresh-vegetables nursery-stock","","farm","www.givinggroundseeds.com","-112.462140","43.022498","83202"
"Kuna","https://www.facebook.com/goshenfarm","Goshen Farm, LLC","id","Kuna Rd/cloverdale Area","dairy products","","farm","www.goshenfarm.weebly.com","-116.4201223","43.4918307","83634"
"Blackfoot","https://www.facebook.com/GroveCityGardens?ref_type=bookmark","Grove City Gardens, LLC","id","246 Wet 200 North","","https://twitter.com/grovecitygarden","farm","","-112.345567","43.225728","83221"
"Eagle","","July Blueberries LLC.","id","2190 W Burns Street","fresh-fruits","","farm","","-116.3805630","43.7092380","83616"
"Weiser","https://www.facebook.com/KelleyOrchards","Kelley Orchards","id","53 Hill Road","canned preserved fresh-fruits fresh-vegetables honey","https://www.twitter.com/KelleyOrchards","farm","www.kelleyorchards.com","-116.877558","44.159926","83672"
"Soda Springs","https://www.facebook.com/laufamilyfarm/","Lau Family Farm, llc","id","675 east highway 30","red-meat non-poultry-meat","","farm","www.laufamilyfarm.com","-111.579731","42.651939","83276"
"Carmen","https://www.facebook.com/mountainvalleyfarmstead/","Mountain Valley Farmstead","id","7 Mac Nab Lane","dairy products","","farm","MountainValleyFarmstead.com","-113.892029","45.258484","83462"
"Salmon","","Mundy Farms","id","2 Scott Lane","crafts woodworking fresh-vegetables","","farm","","-113.798368","45.130416","83467"
"Buhl ","NORTHVIEW ORCHARD","NORTHVIEW ORCHARD","id","1826 E  4500 N","fresh-fruits nuts","","farm","","-114.6870020","42.6568320","83316"
"Preston","https://www.facebook.com/pages/Preston-Berry-Farms/282551275111518","Preston Berry Farms","id","660 South State Street","canned preserved fresh-fruits fresh-vegetables juices ciders","","farm","Prestonberryfarms@live.com","-111.8766600","42.0842998","83263"
"Hauser","https://www.facebook.com/Redcanoefarms","Red Canoe Farms","id","28405 W. Highway 53","","","farm","","-117.036141","47.739601","83854"
"Emmett","https://www.facebook.com/idahoberry","Richardson Farm","id","4250 Valley View Road","fresh-fruits fresh-vegetables wine spirits beer hard-cider","","farm","http://www.idahoberry.wordpress.com/","-116.677997","43.870432","83617"
"Emmett","","Wee Kings Orchard","id","2955 West South Slope Road","eggs fresh-fruits","","farm","","-116.5663479","43.8350104","83617"
"Boise City","BOISE FARMERS MARKET","Boise Farmers Market","id","10TH & GROVE  - SUMMER MARKET","organic baked goods cheese flowers eggs seafood herbs vegetables honey jams meat nuts plants poultry prepared-foods soap wine coffee fruits grains juices mushrooms wild","BOISE FARMERS MARKET","market","http://WWW.THEBOISEFARMERSMARKET.COM","-116.444084","43.532957","83702"
"Boise City","BOISE FARMERS MARKET","BOISE FARMERS MARKET","id","516 S. 8th Street","organic baked goods cheese crafts eggs seafood herbs vegetables honey jams maple meat nuts poultry prepared-foods soap coffee beans fruits grains juices mushrooms wild","BOISE FARMERS MARKET","market","http://www.theboisefarmersmarket.com","-116.191930","43.607980","83702"
"Challis ","","Challis Community Farmers Market","id","Challis City Park","baked goods cheese crafts flowers eggs seafood herbs vegetables honey plants prepared-foods soap trees coffee fruits grains wild","","market","","-114.227231","44.505154","83226"
"donnelly","donnelly farmers market","Donnelly Farmers Market","id","FW Gestrin and E. Roseberry Rd","organic baked goods crafts eggs herbs vegetables honey jams poultry soap coffee fruits","","market","","-116.076720","44.730034","83615"
"Idaho Falls","https://www.facebook.com/pages/Idaho-Falls-Farmers-Market/83193557893","Idaho Falls Farmers' Market","id","A - D St. Memorial Drive","baked goods cheese crafts flowers eggs herbs vegetables honey jams maple meat plants prepared-foods soap trees coffee fruits grains juices","","market","http://www.idahofallsfarmersmarket.org/","-112.042508","43.494592","83402"
"Meridian","https://www.facebook.com/MeridianMainStreetMarket/","Meridian Main Street Market","id","33 E. Broadway Ave.","baked goods crafts flowers eggs vegetables honey jams meat poultry prepared-foods soap wine coffee grains pet food","","market","http://www.meridianmainstreetmarket.com","-116.392301","43.609999","83642"
"Moscow","https://www.facebook.com/MoscowFarmersMarket/","Moscow Farmers Market","id","400 South Main, Moscow, Idaho 83843","organic baked goods cheese crafts flowers eggs herbs vegetables honey jams meat nuts plants poultry prepared-foods soap trees wine fruits grains juices mushrooms pet food wild","https://twitter.com/mosfarmersmkt","market","http://www.ci.moscow.id.us/197/Farmers-Market","-117.0014061","46.7317086","83843"
"Orofino","https://www.facebook.com/Orofino-Farmers-Market-139500116131731/","Orofino Farmers Market","id","101 Michigan Ave.","baked goods cheese crafts flowers eggs herbs vegetables honey jams meat nuts plants prepared-foods soap fruits","","market","http://www.orofinofarmersmarket.com/","-116.255806","46.477929","83544"
"Payette ","www.facebook.com/payettefarmersmarket/","Payette Farmers Market","id","Kiwanis Park","baked goods crafts vegetables fruits","","market","http://www.payettevalleyfoodconnection.com","-116.935907","44.069117","83661"
"Rexburg","https://www.facebook.com/rexburgfarmersmarket/","Rexburg Farmers Market","id","118 College Ave.","baked goods crafts flowers eggs herbs vegetables honey jams plants prepared-foods soap fruits grains","https://twitter.com/RexburgMarket","market","http://www.rexburgfarmersmarket.org/","-111.782405","43.823218","83440"
"Kellogg","https://business.facebook.com/silvervalleymarket/?business_id=522814814564925","Silver Valley Farmers Market","id","10 Station Ave","baked goods cheese crafts flowers eggs vegetables prepared-foods soap wine coffee fruits juices","","market","http://www.silvervalleychamber.com/farmers-market.htm","-116.120504","47.536412","83837"
"St. Maries","https://www.facebook.com/stmariesfarmersmarkets/","St. Maries Farmers Market","id","","baked goods crafts flowers eggs vegetables honey jams plants soap coffee fruits wild","","market","","-116.586445","47.318286","83861"
"Weiser ","Weiser Farmers Market","Weiser Farmer's Market","id","1 State Street","baked goods crafts eggs herbs vegetables honey jams prepared-foods soap fruits","","market","","-116.971130","44.244083","83672"
