[{"type":"farm","street":"10600 Highland Springs Ave.","city":"Cherry Valley","state":"ca","zip":"92223","x":"-116.944304","y":"33.969105","name":"123 Farm at Highland Springs Resort","website":"www.123farm.com","facebook":"https://www.facebook.com/hsresort","twitter":"","tags":"baked-goods cut-flowers herbs soap body-care wild-harvested forest-products"},{"type":"farm","street":"22001 Shenandoah School Road","city":"Plymouth","state":"ca","zip":"95669","x":"-120.804192","y":"38.528671","name":"Amador Flower Farm","website":"AmadorFlowerFarm.com","facebook":"https://www.facebook.com/pages/Amador-Flower-Farm-Nursery/129585181590","twitter":"","tags":"bedding plants nursery-stock"},{"type":"farm","street":"6401 Hultberg Rd","city":"Hilmar","state":"ca","zip":"95324","x":"-120.896124","y":"37.381382","name":"Anderson Almonds ","website":"ANDERSONALMONDS.COM","facebook":"","twitter":"","tags":""},{"type":"farm","street":"550 Golden Road","city":"Fallbrook","state":"ca","zip":"92028","x":"-117.2443950","y":"33.3725040","name":"Ballou's Farm","website":"","facebook":"","twitter":"","tags":""},{"type":"farm","street":"40650 Sierra maria rd ","city":"Murrieta ","state":"ca","zip":"92562","x":"-117.309869","y":"33.540500","name":"Bel Cielo Villa LLC ","website":"www.belcielovilla.com","facebook":"Belcielovilla ","twitter":"","tags":"canned preserved coffee tea cut-flowers eggs herbs fresh-fruits fresh-vegetables"},{"type":"farm","street":"2500 Dahlberg Drive","city":"Morgan Hill ","state":"ca","zip":"95037","x":"-121.6830930","y":"37.1146863","name":"Bernal Properties","website":"","facebook":"","twitter":"","tags":"red-meat non-poultry-meat"},{"type":"farm","street":"5170 Marshall Road","city":"Garden Valley","state":"ca","zip":"95633","x":"-120.867010","y":"38.847827","name":"Berry Heaven","website":"www.BerryHeavenUSA.com","facebook":"https://www.facebook.com/pages/Berry-Heaven-USA/184265071641852?ref=hl","twitter":"","tags":"baked-goods canned preserved fresh-fruits fresh-vegetables honey"},{"type":"farm","street":"9911 Quail Hill Drive","city":"Newcastle","state":"ca","zip":"95658","x":"-121.1149200","y":"38.8688000","name":"Burgeson Family Farm","website":"www.burgesonfamilyfarm.com","facebook":"","twitter":"","tags":""},{"type":"farm","street":"2323 Old Coast Hwy","city":"Gaviota","state":"ca","zip":"93117","x":"-120.192036","y":"34.543206","name":"Classic Organic Farm & Market","website":"www.classicorganic.org","facebook":"www.facebook.com/pages/Classic-Organic-Farm-Market/101770889289?ref=mf","twitter":"","tags":"herbs fresh-fruits fresh-vegetables honey"},{"type":"farm","street":"501 La Paloma Rd.","city":"El Sobrante","state":"ca","zip":"94803","x":"-122.3086680","y":"37.9724040","name":"Cloverfield","website":"","facebook":"https://www.facebook.com/cloverfieldorganic","twitter":"","tags":"cut-flowers dry beans herbs fresh-fruits fresh-vegetables grains flour nursery-stock wild-harvested forest-products"},{"type":"farm","street":"","city":"Fiddletown","state":"ca","zip":"95629","x":"-120.7565689","y":"38.5039105","name":"DAMAS Vinyeards","website":"www.damasvineyards.com","facebook":"","twitter":"","tags":""},{"type":"farm","street":"3620 Gallagher Road","city":"Rio Oso","state":"ca","zip":"95674","x":"-121.483186","y":"38.969894","name":"Derby Walnuts","website":"https://www.derbywalnuts.com","facebook":"https://www.facebook.com/derbywalnuts/","twitter":"","tags":"nuts"},{"type":"farm","street":"345 Rose Court corner of Doak and Highland","city":"Ripon","state":"ca","zip":"95366","x":"-121.148429","y":"37.727654","name":"Double Dutch Farms","website":"","facebook":"https://www.facebook.com/pages/Pom-Girl/158669604180922?fref=nf","twitter":"","tags":"canned preserved cut-flowers eggs herbs fresh-fruits fresh-vegetables grains flour honey nuts soap body-care"},{"type":"farm","street":"2115 Miller Ave","city":"Escondido","state":"ca","zip":"92025","x":"-117.080070","y":"33.092108","name":"Farm Stand West","website":"http://www.thefarmstandwest.com/","facebook":"http://www.facebook.com/FransOriginalFarmStand","twitter":"http://twitter.com/FarmstandWest","tags":"canned preserved cut-flowers eggs herbs fresh-fruits fresh-vegetables honey juices ciders nuts"},{"type":"farm","street":"738 Main Street","city":"Saint Helena","state":"ca","zip":"94574","x":"-122.463336","y":"38.501022","name":"Farmer's Market at Long Meadow Ranch","website":"www.longmeadowranch.com","facebook":"www.facebook.com/lmrwine","twitter":"https://www.twitter.com/LMRwine","tags":"canned preserved cut-flowers eggs herbs fresh-fruits fresh-vegetables honey red-meat non-poultry-meat soap body-care wine spirits beer hard-cider"},{"type":"farm","street":"9742 Dillwood Rd.","city":"Oakdale ","state":"ca","zip":"95361","x":"-120.793110","y":"37.779937","name":"Faust Family Farm","website":"http://www.localharvest.org/faust-family-farm-M49252","facebook":"https://www.facebook.com/pages/Faust-Family-Farm/207071019443543?ref=hi","twitter":"","tags":"bedding plants eggs herbs fresh-fruits fresh-vegetables nursery-stock wild-harvested forest-products"},{"type":"farm","street":"2235 Riverview Road","city":"De Luz","state":"ca","zip":"92028","x":"-117.315445","y":"33.418937","name":"Fenton Family Farm","website":"https://www.facebook.com/fentonfamilyfarm","facebook":"https://www.facebook.com/fentonfamilyfarm","twitter":"","tags":"eggs herbs fresh-fruits nuts"},{"type":"farm","street":"1700 Orr Springs Rd","city":"Ukiah","state":"ca","zip":"95482","x":"-123.2405790","y":"39.1837980","name":"Finley's Mountain Ranch","website":"www.finleysmountainranch.com","facebook":"","twitter":"","tags":""},{"type":"farm","street":"1230 Delta Rd","city":"Knightsen","state":"ca","zip":"94548","x":"-121.671045","y":"37.969019","name":"First Generation Farmers","website":"https://www.firstgenerationfarmers.org/","facebook":"https://www.facebook.com/1stgenerationfarmers/","twitter":"@1stGenFarmers","tags":"canned preserved eggs fresh-vegetables honey"},{"type":"farm","street":"1980 Summit Dr","city":"Escondido","state":"ca","zip":"92027","x":"-117.045013","y":"33.107489","name":"Fran's Original Farm Stand","website":"http://www.thefarmstandwest.com/","facebook":"http://www.facebook.com/FransOriginalFarmStand","twitter":"http://twitter.com/FarmstandWest","tags":"baked-goods eggs herbs fresh-fruits fresh-vegetables honey juices ciders nuts"},{"type":"farm","street":"PO Box 314","city":"Valley Ford","state":"ca","zip":"94972","x":"-122.908515","y":"38.349227","name":"Freestone Ranch","website":"freestoneranch.com","facebook":"","twitter":"","tags":"red-meat non-poultry-meat"},{"type":"farm","street":"3740 Orcutt Road ","city":"San Luis Obispo","state":"ca","zip":"","x":"-120.6343392","y":"35.2609340","name":"Growing Grounds Farm","website":"http://www.growinggroundsfarm.org/","facebook":"https://www.facebook.com/pages/Growing-Grounds-Farm-San-Luis-Obispo/136646096366619","twitter":"","tags":""},{"type":"farm","street":"3325 Houghton Ave","city":"Corning","state":"ca","zip":"96021","x":"-122.188305","y":"39.894708","name":"Hansens Blueberry Farm","website":"","facebook":"","twitter":"","tags":""},{"type":"farm","street":"7045 Sycamore Rd.","city":"Atascadero","state":"ca","zip":"93422","x":"-120.6494030","y":"35.4973160","name":"Harmony Lavender","website":"","facebook":"https://www.facebook.com/harmonylavender","twitter":"https://www.twitter.com/harmonylavender","tags":"baked-goods canned preserved coffee tea crafts woodworking cut-flowers fresh-fruits fresh-vegetables nursery-stock soap body-care"},{"type":"farm","street":"2640 Blair Road","city":"Pollock Pines","state":"ca","zip":"95726","x":"-120.601655","y":"38.762282","name":"Harris Family Farm","website":"www.harristreefarm.com","facebook":"https://www.facebook.com/harristreefarm","twitter":"","tags":"baked-goods canned preserved coffee tea eggs herbs fresh-fruits fresh-vegetables"},{"type":"farm","street":"18600 N Ripon Rd","city":"Ripon","state":"ca","zip":"95366","x":"-121.124761","y":"37.791711","name":"Harris Orchards","website":"","facebook":"","twitter":"","tags":"canned preserved nuts"},{"type":"farm","street":"14582 Indiana School Road","city":"Oregon House","state":"ca","zip":"95962","x":"-121.237850","y":"39.381273","name":"High Sierra Beef, Inc.","website":"http://www.highsierrabeef.com","facebook":"www.facebook.com/jennycavaliere3","twitter":"","tags":"baked-goods bedding plants canned preserved coffee tea crafts woodworking dairy products dry beans eggs herbs fresh-fruits fresh-vegetables grains flour honey pet-food poultry fowl red-meat non-poultry-meat wild-harvested forest-products"},{"type":"farm","street":"West 16th ST & Normal Ave.","city":"Chico","state":"ca","zip":"95928","x":"-121.830397","y":"39.717817","name":"Jesus Center Community Farm","website":"","facebook":"","twitter":"","tags":"cut-flowers fresh-vegetables"},{"type":"farm","street":"4230 White Lilac Rd","city":"Fallbrook","state":"ca","zip":"92028","x":"-117.1646235","y":"33.3923559","name":"Kendall Farms","website":"www.kendall-farms.com","facebook":"https://www.facebook.com/Kendall.Farms","twitter":"","tags":"cut-flowers"},{"type":"farm","street":"7000 Westhill Rd.","city":"Valley Springs","state":"ca","zip":"95252","x":"-120.8591580","y":"38.1180620","name":"KG Farms","website":"","facebook":"https://www.facebook.com/KGFarms323","twitter":"","tags":"eggs fresh-fruits fresh-vegetables poultry fowl red-meat non-poultry-meat"},{"type":"farm","street":"19042 Cherry Lane (corner Tucker Rd & Cherry Ln)","city":"Tehachapi","state":"ca","zip":"93561","x":"-118.467945","y":"35.120309","name":"Knaus Apple Ranch","website":"www.knausappleranch.com/","facebook":"","twitter":"","tags":"baked-goods canned preserved crafts woodworking fresh-fruits honey"},{"type":"farm","street":"3600 Holly Hill Lane","city":"Loomis","state":"ca","zip":"95650","x":"","y":"","name":"Loomis Alpacas","website":"","facebook":"","twitter":"","tags":""},{"type":"farm","street":"3280 Bixler Road","city":"Brentwood ","state":"ca","zip":"94513","x":"-121.623640","y":"37.893067","name":"Loose Rooster Ranch","website":"www.looseroosterranch.com","facebook":"@looseroost","twitter":"","tags":"crafts woodworking cut-flowers eggs herbs fresh-vegetables honey"},{"type":"farm","street":"38883 Z Line Road","city":"Clarksburg","state":"ca","zip":"95612","x":"-121.621742","y":"38.373191","name":"Loving Nature Farm, Inc.","website":"LovingNatureFarm.com","facebook":"","twitter":"","tags":"canned preserved cut-flowers dry beans eggs herbs fresh-fruits fresh-vegetables grains flour honey juices ciders"},{"type":"farm","street":"3476 Smith Avenue","city":"Biggs","state":"ca","zip":"95917","x":"-121.6906700","y":"39.4320010","name":"Maxs Miracle Ranch","website":"www.maxsmiracles.org","facebook":"","twitter":"","tags":""},{"type":"farm","street":"3635 Mt. Shasta Ave.","city":"Corning","state":"ca","zip":"96021","x":"-122.2279000","y":"39.9050950","name":"Maywood Farms","website":"www.maywoodfarms.com","facebook":"https://www.facebook.com/pages/Maywood-Farms/461257050564079","twitter":"","tags":""},{"type":"farm","street":"PO Box 94","city":"Pebble Beach","state":"ca","zip":"93953","x":"-121.951716","y":"36.568737","name":"Monterey Gold Honey","website":"http://montereygoldhoney.com/","facebook":"https://www.facebook.com/montereygoldhoney","twitter":"","tags":"honey"},{"type":"farm","street":"8 Feathervale Drive","city":"Oroville","state":"ca","zip":"95966","x":"-121.4533060","y":"39.4918480","name":"Morse Mandarin Farm","website":"www.morsemandarinfarms.com","facebook":"Morse Farms","twitter":"","tags":"baked-goods canned preserved coffee tea dry beans fresh-fruits honey nuts"},{"type":"farm","street":"5981 Mountain Ranch Road","city":"San Andreas","state":"ca","zip":"95249","x":"0.045662","y":"0.049438","name":"Nakagawa Ranches","website":"www.nakagawaranches.com","facebook":"","twitter":"","tags":""},{"type":"farm","street":"38918 Road 64","city":"Dinuba","state":"ca","zip":"93618","x":"-119.429008","y":"36.497327","name":"Naylor Organics","website":"www.kyf2/me/ca/0012","facebook":"www.facebook.com/naylor.organics","twitter":"www.twitter.com/NaylorOrganics","tags":"fresh-fruits"},{"type":"farm","street":"6900 Andressen Rd","city":"Sheridan","state":"ca","zip":"95681","x":"-121.3562440","y":"38.9979600","name":"Neilson Family Farm","website":"","facebook":"","twitter":"","tags":"eggs"},{"type":"farm","street":"4625 La Panza Road","city":"Creston","state":"ca","zip":"93432","x":"-120.5026790","y":"35.5162160","name":"Olivas de Oro Olive Company","website":"www.olivasdeoro.com","facebook":"https://www.facebook.com/OlivasDeOroOliveCompany","twitter":"","tags":"canned preserved herbs nursery-stock red-meat non-poultry-meat soap body-care"},{"type":"farm","street":"1215 S Street","city":"Newman","state":"ca","zip":"95360","x":"-121.0288790","y":"37.3154139","name":"Open Space Meats LLC","website":"http://www.openspacemeats.com/","facebook":"https://www.facebook.com/pages/Open-Space-Meats-Grass-Fed-Beef/57371751078","twitter":"https://www.twitter.com/openspacemeats","tags":""},{"type":"farm","street":"20872 County Road 99","city":"Woodland","state":"ca","zip":"95695","x":"-121.7881330","y":"38.6351800","name":"Pacific Star Gardens","website":"","facebook":"","twitter":"","tags":"eggs fresh-fruits fresh-vegetables"},{"type":"farm","street":"60-499 Harrison St.","city":"Thermal","state":"ca","zip":"92274","x":"-116.102877","y":"33.468212","name":"Pato's Dream Date Gardens","website":"","facebook":"","twitter":"","tags":""},{"type":"farm","street":"14909 Pauma Valley Drive","city":"Pauma Valley","state":"ca","zip":"92061","x":"-117.006081","y":"33.311364","name":"Pauma Tribal Farms","website":"solidarityfarmsd.com","facebook":"https://www.facebook.com/solidarity.farm","twitter":"","tags":"baked-goods canned preserved coffee tea crafts woodworking eggs fresh-fruits fresh-vegetables honey nursery-stock soap body-care"},{"type":"farm","street":"4550 Soda Bay Road","city":"Kelseyville","state":"ca","zip":"95451","x":"-122.826277","y":"39.011529","name":"Peace and Plenty Farm","website":"https://www.peaceplentyfarm.com","facebook":"@peaceplentyfarm","twitter":"","tags":"baked-goods canned preserved cut-flowers eggs herbs fresh-fruits fresh-vegetables honey nuts soap body-care"},{"type":"farm","street":"18601 Highway 128","city":"Yorkville","state":"ca","zip":"","x":"-123.3403495","y":"38.9624588","name":"Petit Teton Farm ","website":"http://www.petitteton.com/","facebook":"https://www.facebook.com/pages/Petit-Teton-Farm/229690830390080?sk=wall#","twitter":"","tags":""},{"type":"farm","street":"716 N. Daubenberger Rd","city":"Turlock","state":"ca","zip":"95380","x":"-120.8144500","y":"37.4992530","name":"R.A.M. Farms Inc. Pumpkin Patch & Corn Maze","website":"ramfarms.com","facebook":"https://www.facebook.com/pumpkinpatchandcornmaze","twitter":"","tags":"cut-flowers fresh-fruits fresh-vegetables"},{"type":"farm","street":"11961 Excelsior Avenue","city":"Hanford","state":"ca","zip":"93230","x":"-119.661391","y":"36.401610","name":"Rancho Notso Grande","website":"https://www.ranchonotso.com","facebook":"https://www.facebook.com/RanchoNotso/","twitter":"","tags":"baked-goods canned preserved crafts woodworking cut-flowers eggs herbs fresh-fruits fresh-vegetables honey nuts red-meat non-poultry-meat soap body-care wine spirits beer hard-cider"},{"type":"farm","street":"15062 ADAMS DRIVE","city":"PAUMA VALLEY","state":"ca","zip":"92061","x":"-117.0045570","y":"33.3462710","name":"RANCHO YOBO ORGANICS","website":"","facebook":"","twitter":"","tags":""},{"type":"farm","street":"PO Box 21294","city":"San Jose","state":"ca","zip":"95151","x":"-121.756253","y":"37.225748","name":"Red Barn Farm Pasture-Raised Poultry","website":"www.redbarnfarmpoultry.webs.com","facebook":"","twitter":"","tags":"fresh-vegetables poultry fowl"},{"type":"farm","street":"11124 Monte Vista Road","city":"Phelan","state":"ca","zip":"92371","x":"-117.5606370","y":"34.4522580","name":"Roaring L Ranch","website":"","facebook":"","twitter":"","tags":""},{"type":"farm","street":"3380 Highway 33","city":"Ventucopa","state":"ca","zip":"93252","x":"-119.478893","y":"34.843676","name":"Santa Barbara Pistachio Company","website":"www.sbpistachios.com","facebook":"https://www.facebook.com/pages/Santa-Barbara-Pistachio-Company/159650100721699","twitter":"https://www.twitter.com/sbpistachios1","tags":"eggs honey nuts soap body-care"},{"type":"farm","street":"295 Pleasant Ave","city":"Santa Rosa ","state":"ca","zip":"95403","x":"-122.783994","y":"38.543404","name":"SAYRE FARMS","website":"","facebook":"","twitter":"","tags":"cut-flowers herbs fresh-fruits fresh-vegetables"},{"type":"farm","street":"5990 Guerneville rd","city":"Sebastopol","state":"ca","zip":"95472","x":"-122.854583","y":"38.450938","name":"Schmidt Road Ranch","website":"","facebook":"","twitter":"","tags":"bedding plants canned preserved crafts woodworking herbs fresh-fruits fresh-vegetables"},{"type":"farm","street":"1138 East Callahan Road","city":"Etna","state":"ca","zip":"96027","x":"-122.842152","y":"41.441142","name":"Scott River Ranch, LLC","website":"","facebook":"","twitter":"","tags":""},{"type":"farm","street":"7209 Church Street","city":"Penryn","state":"ca","zip":"95663","x":"-121.169171","y":"38.852928","name":"Sinclair Family Farm","website":"www.sinclairfamilyfarm.net","facebook":"karinsinclair","twitter":"https://www.twitter.com/karinsinclair","tags":"eggs fresh-fruits fresh-vegetables honey nuts poultry fowl red-meat non-poultry-meat"},{"type":"farm","street":"3729 Catlett Road","city":"Pleasant Grove","state":"ca","zip":"95668","x":"-121.470994","y":"38.852006","name":"Six Bar Ranch","website":"www.sixbarranch.net","facebook":"https://www.facebook.com/sixbarranch/","twitter":"","tags":"eggs soap body-care"},{"type":"farm","street":"2160 Carson Road","city":"Placerville","state":"ca","zip":"95667","x":"-120.7532713","y":"38.7440177","name":"Smokey Ridge Farmstand","website":"www.smokeyridgeranch.com","facebook":"","twitter":"","tags":"baked-goods canned preserved fresh-fruits fresh-vegetables prepared-foods wine spirits beer hard-cider"},{"type":"farm","street":"County Road 56","city":"Guinda","state":"ca","zip":"95637","x":"-122.202299","y":"38.819076","name":"Star.Rose Ranch","website":"www.starroseranch.com","facebook":"https://www.facebook.com/StarRoseRanch","twitter":"","tags":"eggs poultry fowl red-meat non-poultry-meat"},{"type":"farm","street":" 3450 Baseline Ave","city":"Santa Ynez","state":"ca","zip":"93460","x":"-120.081073","y":"34.633692","name":"Summerset & Farm Dale's Nursery","website":"www.facebook.com/SummersetFarm?ref=hl","facebook":"www.facebook.com/SummersetFarm?ref=hl","twitter":"","tags":"baked-goods bedding plants canned preserved cut-flowers eggs herbs fresh-fruits fresh-vegetables nursery-stock"},{"type":"farm","street":"3000 North Canyon Road","city":"Camino","state":"ca","zip":"95709","x":"-120.7221950","y":"38.7496880","name":"Sun Mountain Farm","website":"sunmountainfarm.com","facebook":"","twitter":"","tags":"fresh-fruits"},{"type":"farm","street":"880 Climbing Tree Lane","city":"Templeton","state":"ca","zip":"93465","x":"-120.6410740","y":"35.5744920","name":"Templeton Valley Farms","website":"http://www.templetonvalleyfarms.com/","facebook":"https://www.facebook.com/TempletonValleyFarms","twitter":"","tags":"cut-flowers fresh-fruits fresh-vegetables honey"},{"type":"farm","street":"38802 Ave 12","city":"Bonadelle Ranchos-Madera Ranchos ","state":"ca","zip":"93636","x":"-119.844638","y":"36.921673","name":"The Branch & Vine","website":"Thebranchandvine.com","facebook":"https://www.facebook.com/branchandvine","twitter":"","tags":"canned preserved coffee tea crafts woodworking cut-flowers herbs fresh-fruits fresh-vegetables honey nursery-stock nuts"},{"type":"farm","street":"2195 Base Line Roaf","city":"Roseville","state":"ca","zip":"95747","x":"-121.3219253","y":"38.7514201","name":"Top Hill Farm","website":"Tophillfarm.com","facebook":"","twitter":"","tags":"baked-goods bedding plants cut-flowers eggs herbs fresh-fruits fresh-vegetables honey nursery-stock poultry fowl soap body-care"},{"type":"farm","street":"2195 Base Line Roaf","city":"Roseville","state":"ca","zip":"95747","x":"-121.3219253","y":"38.7514201","name":"Top Hill Farm","website":"Tophillfarm.com","facebook":"","twitter":"","tags":"baked-goods bedding plants cut-flowers eggs herbs fresh-fruits fresh-vegetables honey nursery-stock poultry fowl soap body-care"},{"type":"farm","street":"6335 Oakdale Road","city":"Winton","state":"ca","zip":"95388","x":"-120.586567","y":"37.442705","name":"Top Line Milk","website":"www.toplinemilk.com","facebook":"https://www.facebook.com/toplinemilk/","twitter":"https://twitter.com/TopLineMilk","tags":"dairy products"},{"type":"farm","street":"21986 Lyons Valley Rd","city":"Alpine ","state":"ca","zip":"","x":"-116.6764160","y":"32.7515670","name":"Tzaddik Farm","website":"http://www.tzaddikfarm.com/","facebook":"https://www.facebook.com/tzaddikfarm","twitter":"","tags":"poultry fowl"},{"type":"farm","street":"12099 S. Oak Glen Road","city":"Oak Glen","state":"ca","zip":"92399","x":"-116.9402140","y":"34.0350800","name":"Willowbrook Apple Farm","website":"willowbrookapple.tripod.com","facebook":"","twitter":"","tags":"baked-goods canned preserved fresh-fruits honey juices ciders soap body-care"},{"type":"farm","street":"6613 Harrington Avenue","city":"Arbuckle","state":"ca","zip":"95912","x":"-122.0660820","y":"38.9530130","name":"Wise Acre Farm","website":"","facebook":"https://www.facebook.com/pages/Wise-Acre-Farm/167689377472?ref=hl","twitter":"","tags":"baked-goods canned preserved crafts woodworking cut-flowers eggs herbs fresh-fruits fresh-vegetables"},{"type":"farm","street":"8711 Bradshaw Road","city":"Elk Grove","state":"ca","zip":"95624","x":"-121.333509","y":"38.443863","name":"Xiong Fresh Basket","website":"","facebook":"","twitter":"","tags":"fresh-fruits fresh-vegetables"},{"type":"farm","street":"37874 County Road 28","city":"Woodland","state":"ca","zip":"95695","x":"-121.8049887","y":"38.6050989","name":"Yolo Land & Cattle 100% Grass Fed Beef","website":"www.yololandandcattle.com","facebook":"","twitter":"","tags":""},{"type":"market","name":"29 Palms Farmers' Market","website":"","facebook":"https://www.facebook.com/29palmsfarmersmarket/","twitter":"","street":"73484 Twentynine Palms Hwy","city":"Twentynine Palms","state":"ca","zip":"92277","x":"-116.058946","y":"34.135760","tags":"organic baked goods crafts eggs vegetables honey maple nuts prepared-foods soap fruits juices mushrooms"},{"type":"market","name":"Alturas Farmers Market","website":"http://svsaturdaymarket.org/","facebook":"https://www.facebook.com/ModocCFM/","twitter":"","street":"108 S Main St","city":"Alturas","state":"ca","zip":"96101","x":"-120.542201","y":"41.483907","tags":"baked goods crafts flowers eggs herbs vegetables honey jams meat soap trees fruits pet food"},{"type":"market","name":"Benica Certified Farmers Market","website":"http://www.beniciamainstreet.org","facebook":"","twitter":"","street":"First Street between B & D Streets","city":"Benicia","state":"ca","zip":"94510","x":"-122.161188","y":"38.046215","tags":"organic baked goods cheese crafts flowers eggs seafood herbs vegetables honey jams nuts prepared-foods soap coffee fruits mushrooms"},{"type":"market","name":"Beverly Hills Farmers Market","website":"http://beverlyhills.org/departments/communityservices/farmersmarket/","facebook":"https://www.facebook.com/BHFarmersMarket/","twitter":"","street":"9300 Civic Center Dr","city":"Beverly Hills ","state":"ca","zip":"90210","x":"-118.398746","y":"34.073685","tags":"organic baked goods cheese flowers eggs seafood herbs vegetables honey jams nuts poultry prepared-foods soap trees beans fruits grains juices mushrooms"},{"type":"market","name":"Big Bear Farmers Market","website":"http://www.highdesertfarmersmarket.com","facebook":"https://www.facebook.com/BigBearFarmersMarket","twitter":"","street":"42900 Big Bear Blvd","city":"City of Big Bear Lake","state":"ca","zip":"92315","x":"-116.866714","y":"34.260803","tags":"baked goods cheese crafts flowers eggs herbs vegetables honey jams meat nuts plants poultry prepared-foods soap trees coffee fruits grains pet food"},{"type":"market","name":"Burbank Certified Farmers' Market","website":"http://www.burbankfarmersmarket.org","facebook":"https://www.facebook.com/burbankfarmersmarket","twitter":"@BurbFarmMkt","street":"150 N. Third Street Burbank, CA 91502","city":"Burbank","state":"ca","zip":"91502","x":"-118.3079771","y":"34.1828004","tags":"organic baked goods cheese flowers eggs seafood herbs vegetables honey jams meat nuts plants poultry prepared-foods soap trees beans fruits juices mushrooms"},{"type":"market","name":"CalaverasGROWN Certified Farmers' Market San Andreas","website":"https://www.calaverasgrown.org/","facebook":"https://www.facebook.com/CalaverasGROWN","twitter":"","street":"891 Mountain Ranch Road","city":"San Andreas","state":"ca","zip":"95249","x":"-120.667822","y":"38.191243","tags":"baked goods crafts flowers eggs herbs vegetables honey jams plants soap trees wine coffee fruits"},{"type":"market","name":"CalaverasGROWN Murphys Certified Farmers' Market ","website":"","facebook":"Murphys Farmers' Market ","twitter":"","street":"505 S. Algiers St. ","city":"Murphys","state":"ca","zip":"95247","x":"-120.463811","y":"38.136860","tags":"organic baked goods flowers eggs herbs vegetables honey meat poultry trees fruits"},{"type":"market","name":"California Avenue Farmers' Market","website":"https://uvfm.org/palo-alto-sundays","facebook":"https://www.facebook.com/UrbanVillageOnFB","twitter":"","street":"California Avenue, at El Camino","city":"Palo Alto","state":"ca","zip":"94306","x":"-122.13255","y":"37.46778","tags":"organic baked goods cheese crafts flowers eggs seafood herbs vegetables honey jams meat nuts poultry prepared-foods soap trees wine coffee beans fruits juices mushrooms tofu wild"},{"type":"market","name":"Camarillo Hospice Certified Farmers Market","website":"http://www.camarillofarmersmarket.com","facebook":"","twitter":"","street":"2220 Ventura Blvd.","city":"Camarillo ","state":"ca","zip":"93010","x":"-119.041574","y":"34.216518","tags":"organic baked goods crafts flowers eggs seafood herbs vegetables honey jams meat nuts plants prepared-foods soap trees coffee fruits pet food"},{"type":"market","name":"Cambria Farmers Market","website":"https://www.cambriafarmersmarket.com","facebook":"https://www.facebook.com/cambriafarmersmarket/","twitter":"","street":"1000 Main Street","city":"Cambria","state":"ca","zip":"93428","x":"-121.096629","y":"35.564323","tags":"organic baked goods cheese flowers eggs seafood herbs vegetables honey jams meat nuts poultry prepared-foods coffee beans fruits grains juices mushrooms"},{"type":"market","name":"Cambrian Park Farmers' Market","website":"http://www.uvfm.org","facebook":"https://www.facebook.com/UrbanVillageOnFB","twitter":"","street":"Camden Avenue and Union Avenue","city":"San Jose","state":"ca","zip":"95124","x":"-121.819306","y":"37.296867","tags":"organic baked goods cheese flowers eggs seafood herbs vegetables honey jams meat nuts poultry prepared-foods soap trees coffee fruits juices mushrooms"},{"type":"market","name":"Campbell Farmers' Market","website":"https://uvfm.org/campbell-sundays","facebook":"https://www.facebook.com/UrbanVillageOnFB","twitter":"","street":"Campbell Avenue & Central Avenue","city":"Campbell","state":"ca","zip":"95008","x":"-121.954352","y":"37.280232","tags":"organic baked goods cheese crafts flowers eggs seafood herbs vegetables honey jams meat nuts poultry prepared-foods soap trees wine coffee beans fruits juices mushrooms pet food tofu wild"},{"type":"market","name":"Canoga Park Certified Farmers Market","website":"http://coastalpacificinfo.us","facebook":"https://www.facebook.com/canogafarmersmarket/","twitter":"","street":"7248 Owensmouth st","city":"canoga park","state":"ca","zip":"91303","x":"-118.601612","y":"34.203746","tags":"organic baked goods cheese crafts flowers eggs seafood herbs vegetables honey meat nuts poultry prepared-foods soap trees coffee beans fruits grains juices"},{"type":"market","name":"Carmel Farmers Markets at the Barnyard Shopping Village","website":"http://www.montereybayfarmers.org","facebook":"https://www.facebook.com/pages/Monterey-Bay-Certified-Farmers-Markets/112446802152723","twitter":"https://twitter.com/MBFarmersMarket","street":"3690 The Barnyard","city":"Carmel","state":"ca","zip":"93923","x":"-121.9270394","y":"36.9872756","tags":"organic baked goods cheese flowers eggs herbs vegetables honey jams nuts plants poultry trees fruits"},{"type":"market","name":"Certified Farmers' Market Palm Springs - Indoor","website":"http://www.certifiedfarmersmarkets.org","facebook":"@CertifiedFarmersMarket","twitter":"","street":"401 S. Pavilion Way","city":"Palm Springs","state":"ca","zip":"92262","x":"-116.525258","y":"33.817078","tags":"baked goods cheese flowers eggs seafood herbs vegetables honey jams meat plants poultry prepared-foods soap trees coffee fruits juices mushrooms"},{"type":"market","name":"Certified Farmers' Market Palm Springs - Outdoor","website":"http://www.certifiedfarmersmarkets.org","facebook":"@CertifiedFarmersMarket","twitter":"","street":"2300 E. Baristo Rd","city":"Palm Springs","state":"ca","zip":"92262","x":"-116.521181","y":"33.820251","tags":"baked goods cheese flowers eggs seafood herbs vegetables honey jams meat plants poultry prepared-foods soap trees coffee fruits juices mushrooms"},{"type":"market","name":"CFFMA - Ft Washington Farmers Market - Sunday","website":"http://www.cffma.com","facebook":"fort washington farmers market","twitter":"","street":"NE Corner Friant and Ft Washington","city":"Fresno ","state":"ca","zip":"93730","x":"-119.776881","y":"36.874654","tags":"organic baked goods cheese crafts flowers seafood herbs vegetables honey jams nuts plants prepared-foods soap trees coffee fruits juices mushrooms"},{"type":"market","name":"CFFMA - River Park Farmers Market - Saturday","website":"http://www.cffma.com","facebook":"river park farmer's market","twitter":"","street":"SE Corner Blackstone and Nees","city":"Fresno","state":"ca","zip":"93720","x":"-119.789099","y":"36.849327","tags":"organic baked goods crafts flowers seafood herbs vegetables honey jams nuts prepared-foods soap coffee fruits juices mushrooms"},{"type":"market","name":"CFFMA - River Park Farmers Market - Tuesday","website":"http://www.cffma.com","facebook":"river park farmer's market","twitter":"","street":"SE Corner Blackstone and Nees","city":"Fresno ","state":"ca","zip":"93720","x":"-119.789095","y":"36.849308","tags":"organic baked goods crafts flowers seafood herbs vegetables honey jams nuts plants prepared-foods soap trees coffee fruits juices mushrooms"},{"type":"market","name":"Chico Certified Farmers Market - Chico Saturday","website":"http://chicofarmersmarket.com","facebook":"Chico Certified Farmers Market","twitter":"Chico Certified Farmers Market","street":"2nd and Wall Streets","city":"Chico","state":"ca","zip":"95927","x":"-121.838323","y":"39.730823","tags":"organic baked goods cheese crafts flowers eggs seafood herbs vegetables honey jams meat plants poultry prepared-foods soap trees wine coffee beans fruits grains juices mushrooms tofu"},{"type":"market","name":"Chico Certified Farmers Market - Chico Wednesday","website":"http://chicofarmersmarket.com","facebook":"Chico Certified Farmers Market","twitter":"Chico Certified Farmers Market","street":"North Valley Plaza Mall","city":"Chico","state":"ca","zip":"95926","x":"-121.848452","y":"39.758425","tags":"organic baked goods cheese flowers eggs herbs vegetables honey jams meat nuts plants poultry prepared-foods coffee beans fruits grains juices mushrooms"},{"type":"market","name":"Chico Certified Farmers Market - Paradise Tuesday","website":"http://chicofarmersmarket.com","facebook":"Chico Certified Farmers Market","twitter":"Chico Certified Farmers Market","street":"6491 Clark Road","city":"Paradise","state":"ca","zip":"95969","x":"-121.595446","y":"39.773680","tags":"organic baked goods crafts flowers eggs vegetables honey jams prepared-foods coffee fruits juices"},{"type":"market","name":"City Heights Certified Farmers Market","website":"http://sdfarmbureau.org","facebook":"facebook.com/cityheightsfm","twitter":"","street":"4325 Wightman St.","city":"San Diego","state":"ca","zip":"92104","x":"-117.101527","y":"32.747817","tags":"crafts eggs herbs vegetables honey jams nuts plants prepared-foods soap trees coffee fruits juices"},{"type":"market","name":"Coastside Farmers' Market - Half Moon Bay ","website":"http://www.coastsidefarmersmarkets.org","facebook":"https://www.facebook.com/Coastside-Farmers-Market-in-Half-Moon-Bay-135241926498880","twitter":"","street":"225 Cabrillo Highway","city":"Half Moon Bay ","state":"ca","zip":"94019","x":"-122.437378","y":"37.46677","tags":"organic baked goods cheese flowers eggs seafood herbs vegetables honey jams meat nuts plants poultry prepared-foods trees beans fruits grains juices mushrooms tofu"},{"type":"market","name":"Coastside Farmers' Market - Rockaway Beach, Pacifica","website":"http://www.coastsidefarmersmarkets.org","facebook":"https://www.facebook.com/Coastside-Farmers-Market-in-Half-Moon-Bay-135241926498880","twitter":"","street":"450 Old County Road","city":"Pacifica ","state":"ca","zip":"94044","x":"-122.495081","y":"37.609415","tags":"organic baked goods cheese flowers eggs seafood herbs vegetables honey jams meat nuts plants poultry prepared-foods trees coffee beans fruits grains juices mushrooms tofu wild"},{"type":"market","name":"Columbia Farmory and Mountain People Organics","website":"http://MountainPeopleOrganics.com","facebook":"https://www.facebook.com/ColumbiaFarmory","twitter":"","street":"10800 Airport Road","city":"Columbia ","state":"ca","zip":"95310","x":"-120.4100110","y":"38.0293950","tags":"organic baked goods cheese crafts flowers eggs seafood herbs vegetables honey jams maple meat nuts plants poultry prepared-foods soap trees coffee beans fruits grains juices mushrooms"},{"type":"market","name":"Colusa Certified Farmers Market","website":"https://www.colusacertifiedfarmersmarket.com","facebook":"https://www.facebook@colusacertifiedfarmersmarket","twitter":"","street":"10th Street Memorial Park","city":"Colusa","state":"ca","zip":"95932","x":"-122.014038","y":"39.214999","tags":"baked goods crafts flowers eggs herbs vegetables honey jams meat nuts plants poultry soap trees fruits mushrooms"},{"type":"market","name":"Cotati Community Farmers Market ","website":"http://www.ilovefarmersmarkets.org","facebook":"https://www.facebook.com/CotatiFarmersMarket/","twitter":"","street":"Old Redwood Hwy and W Sierra","city":"cotati ","state":"ca","zip":"94931","x":"-122.707298","y":"38.326544","tags":"organic cheese crafts flowers vegetables meat prepared-foods soap trees wine fruits juices tofu"},{"type":"market","name":"Del Monte Farmers Markets at Del Monte Shopping Center","website":"http://www.montereybayfarmers.org","facebook":"https://www.facebook.com/pages/Monterey-Bay-Certified-Farmers-Markets/112446802152723","twitter":"https://twitter.com/MBFarmersMarket","street":"1410 Del Monte Center","city":"Monterey","state":"ca","zip":"93940","x":"-121.9270394","y":"36.9872756","tags":"organic flowers eggs herbs vegetables jams nuts plants poultry trees fruits"},{"type":"market","name":"Downtown Berkeley","website":"https://ecologycenter.org/fm/","facebook":"https://www.facebook.com/ecologycenter.org","twitter":"https://twitter.com/EcologyCenter","street":"1947 Center St.","city":"Berkeley","state":"ca","zip":"94704","x":"-122.271600","y":"37.869819","tags":"organic baked goods cheese flowers eggs seafood herbs vegetables honey jams meat nuts poultry prepared-foods trees wine coffee beans fruits grains juices mushrooms pet food wild"},{"type":"market","name":"Downtown Chico Thursday Night Market","website":"https://www.downtownchico.com/event-thursday-night-market_16.htm","facebook":"https://www.facebook.com/thursdaynightmarket","twitter":"","street":"","city":"Chico","state":"ca","zip":"95928","x":"-121.840469","y":"39.728991","tags":"baked goods crafts flowers eggs herbs vegetables honey jams meat nuts plants prepared-foods soap trees wine coffee fruits mushrooms wild"},{"type":"market","name":"Downtown Novato Community Farmers Market","website":"http://www.ilovefarmersmarkets.org","facebook":"https://www.facebook.com/DowntownNovatoCommunityFarmersMarket/","twitter":"","street":"7th Street behind the CVS between Grant Ave & Novato Blvd ","city":"Novato ","state":"ca","zip":"94947","x":"-122.578749","y":"38.107536","tags":"organic baked goods cheese crafts flowers eggs seafood herbs vegetables honey jams nuts plants prepared-foods soap trees wine coffee beans fruits grains juices mushrooms tofu"},{"type":"market","name":"Downtown Palo Alto Farmers' Market","website":"","facebook":"http://www.facebook.com/paloaltofarmersmarket","twitter":"@paloaltofarmers","street":"Gilman St, between Hamilton and Forest","city":"Palo Alto","state":"ca","zip":"94301","x":"-122.159029","y":"37.445330","tags":"organic baked goods cheese flowers eggs seafood herbs vegetables honey jams meat nuts plants poultry prepared-foods soap trees wine coffee beans fruits grains juices mushrooms"},{"type":"market","name":"Downtown Santa Cruz Farmers' Market","website":"http://www.santacruzfarmersmarket.org","facebook":"www.facebook.com/santacruzfarmersmarket/","twitter":"","street":"Cedar St & Lincoln St.","city":"Santa Cruz","state":"ca","zip":"","x":"-122.0270374","y":"36.9724758","tags":"organic baked goods cheese flowers eggs seafood herbs vegetables honey jams meat nuts plants poultry prepared-foods soap wine coffee beans fruits juices mushrooms"},{"type":"market","name":"Dublin","website":"http://www.pcfma.org","facebook":"","twitter":"","street":"4201 Central Parkway","city":"Dublin","state":"ca","zip":"94568","x":"-121.878639","y":"37.710402","tags":"organic baked goods cheese flowers eggs vegetables honey jams nuts prepared-foods soap fruits mushrooms tofu"},{"type":"market","name":"East Hollywood Certified Farmers' Market","website":"http://www.ehfarmersmkt.com/","facebook":"https://www.facebook.com/EHFarmersMkt/","twitter":"https://twitter.com/EHFarmersMkt","street":"Hollywood Blvd. and Western Ave.","city":"Los Angeles","state":"ca","zip":"90028","x":"-118.308877","y":"34.101510","tags":"eggs vegetables honey plants prepared-foods fruits"},{"type":"market","name":"East Palo Alto Community Farmers Market","website":"https://www.freshapproach.org/epa-farmers-market/","facebook":"https://www.facebook.com/freshapproach/","twitter":"https://twitter.com/FreshApproachSF","street":"2555 Pulgas Avenue ","city":"East Palo Alto","state":"ca","zip":"94303","x":"-122.132550","y":"37.469415","tags":"organic vegetables honey fruits"},{"type":"market","name":"El Monte Farmers' Market","website":"https://monte.campaignrep.org/","facebook":"https://www.facebook.com/CityofElMonte/","twitter":"","street":"10700 Main Street","city":"El Monte","state":"ca","zip":"91731","x":"-118.039950","y":"34.075484","tags":"baked goods cheese crafts flowers eggs herbs vegetables honey jams nuts prepared-foods soap coffee fruits grains juices mushrooms"},{"type":"market","name":"Encino Farmers Market","website":"http://www.encniofarmersmarket.org","facebook":"Encino Farmers Market ","twitter":"","street":"17400 Victory Blvd","city":"Van Nuys","state":"ca","zip":"91406","x":"-118.5128542","y":"34.1862306","tags":"organic baked goods cheese crafts flowers eggs seafood herbs vegetables honey jams meat nuts poultry prepared-foods soap trees coffee fruits juices tofu"},{"type":"market","name":"Etna Farmers Market","website":"https://www.etnafarmersmarket.com/","facebook":"https://www.facebook.com/EtnaFarmersMarket/","twitter":"","street":"514 N Hwy 3","city":"Etna","state":"ca","zip":"96027","x":"-122.895854","y":"41.458263","tags":"organic baked goods crafts flowers eggs herbs vegetables jams meat plants soap fruits grains"},{"type":"market","name":"Fairfax Community Farmers' Market","website":"http://www.ilovefarmersmarkets.org","facebook":"https://www.facebook.com/FairfaxCommunityFarmersMarket/","twitter":"","street":"124 Bolinas Avenue","city":"Fairfax ","state":"ca","zip":"94930","x":"-122.589980","y":"37.985729","tags":"organic baked goods cheese crafts flowers eggs herbs vegetables honey jams meat nuts plants poultry prepared-foods soap trees wine coffee beans fruits grains juices mushrooms pet food tofu"},{"type":"market","name":"Felton Farmers' Market","website":"http://www.feltonfarmersmarket.org","facebook":"www.facebook.com/santacruzfarmersmarket/","twitter":"","street":"St. John's Church, Hwy. 9","city":"Felton","state":"ca","zip":"95018","x":"-122.073815","y":"37.048109","tags":"organic baked goods flowers eggs seafood herbs vegetables honey jams meat nuts plants poultry prepared-foods soap trees wine coffee fruits juices"},{"type":"market","name":"Ferry Plaza Farmers Market","website":"","facebook":"facebook.com/cuesa","twitter":"twitter.com/cuesa","street":"1 Ferry Building","city":"San Francisco","state":"ca","zip":"94111","x":"-122.393520","y":"37.795162","tags":"organic baked goods cheese flowers eggs seafood herbs vegetables honey jams meat nuts poultry prepared-foods wine coffee beans fruits grains juices mushrooms tofu"},{"type":"market","name":"Fresh Approach Mobile Farmers' Market","website":"","facebook":"https://facebook.com/freshapproach","twitter":"https://twitter.com/FreshApproachSF","street":"213 F Street, Antioch","city":"Antioch ","state":"ca","zip":"94509","x":"-121.812514","y":"38.016546","tags":"herbs vegetables beans fruits"},{"type":"market","name":"Galleria @ Tyler Riverside Farmers Market","website":"http://coastalpacificinfo.us","facebook":"https://www.facebook.com/Galleria-at-Tyler-Riverside-Farmers-Market-329529333808763/","twitter":"","street":"1370 Galleria @ Tyler","city":"Riverside","state":"ca","zip":"92503","x":"-117.4578357","y":"33.9097475","tags":"organic baked goods cheese crafts flowers eggs seafood herbs vegetables honey jams maple meat nuts plants prepared-foods soap trees coffee beans fruits grains juices wild"},{"type":"market","name":"Helen Albert Certified Farmers' Market","website":"https://www.weho.org/community/recreation-services/helen-albert-certified-farmers-market","facebook":"facebook.com/westhollywoodrec","twitter":"","street":"1200 N. Vista St.","city":"West Hollywood","state":"ca","zip":"90046","x":"-118.351209","y":"34.094060","tags":"organic baked goods cheese flowers eggs seafood vegetables honey jams nuts prepared-foods coffee fruits juices"},{"type":"market","name":"Heritage Harvest Certified Farmers Market @Victoria ","website":"http://www.heritagefarmersmarket.blogspot.com","facebook":"","twitter":"","street":"12505 N Main St   91739","city":"Rancho Cucamonga","state":"ca","zip":"91739","x":"-117.532318","y":"34.110872","tags":"organic baked goods cheese crafts flowers eggs seafood herbs honey jams maple meat nuts plants poultry prepared-foods soap coffee beans fruits grains"},{"type":"market","name":"Hermosa Beach Farmers' Market","website":"http://www.farmermark.com/hermosabeach/","facebook":"","twitter":"https://www.facebook.com/farmermarkHB/","street":"1 Pier Avenue","city":"Hermosa Beach","state":"ca","zip":"","x":"-118.401347","y":"33.861972","tags":"organic baked goods crafts flowers eggs vegetables honey jams nuts prepared-foods soap coffee fruits juices"},{"type":"market","name":"High Desert Farmers Market","website":"http://www.highdesertfarmersmarket.com","facebook":"High Desert Farmers Market","twitter":"","street":"18422 Bear Valley RD","city":"Victorville","state":"ca","zip":"92395","x":"-117.257633","y":"34.473755","tags":"organic baked goods cheese crafts flowers eggs seafood herbs vegetables honey jams meat nuts poultry prepared-foods soap coffee fruits pet food"},{"type":"market","name":"Hollywood Farmers' Market","website":"https://seela.org/markets-hollywood/","facebook":"https://www.facebook.com/HFMLA/","twitter":"@thehfm","street":"1600 No. Ivar ","city":"Los Angeles","state":"ca","zip":"90028","x":"-118.328191","y":"34.099995","tags":"baked goods cheese flowers eggs seafood herbs vegetables honey jams meat nuts poultry soap trees coffee beans fruits grains juices mushrooms tofu"},{"type":"market","name":"Joshua Tree Certified Farmers Market","website":"http://www.joshuatreefarmersmarket.com","facebook":"https://www.facebook.com/pages/Joshua-Tree-Farmers-Market/164059226980487","twitter":"","street":"61651 Twentynine Palms Highway","city":"Joshua Tree","state":"ca","zip":"92252","x":"-116.3182535","y":"34.1349431","tags":"organic baked goods cheese crafts flowers eggs seafood herbs vegetables honey jams meat nuts poultry soap coffee fruits juices mushrooms pet food"},{"type":"market","name":"Kaiser Permanente Fresno Farmers Market","website":"http://www.kp.org/fresno","facebook":"","twitter":"https://twitter.com/kpfresno","street":"7300 N. Fresno Street","city":"Fresno","state":"ca","zip":"93720","x":"-119.781524","y":"36.843017","tags":"organic baked goods cheese flowers eggs herbs vegetables honey jams nuts prepared-foods soap trees fruits juices"},{"type":"market","name":"Lincoln Heights Certified Farmers Market","website":"http://LHBA.org","facebook":"Lincoln Heights Certified Farmers Market","twitter":"","street":"N. Broadway & Sichel","city":"Los Angeles","state":"ca","zip":"90031","x":"-118.213092","y":"34.073480","tags":"organic baked goods crafts eggs herbs vegetables honey nuts prepared-foods soap trees coffee fruits juices tofu"},{"type":"market","name":"Lincoln Heights Certified Farmers Market","website":"http://www.lhbala.org","facebook":"Lincoln Heights Certified Farmers Market","twitter":"","street":"N. Broadway & Sichel","city":"Los Angeles ","state":"ca","zip":"90031","x":"-118.213102","y":"34.073591","tags":"organic baked goods crafts eggs vegetables honey jams prepared-foods soap coffee fruits juices"},{"type":"market","name":"Linda Vista Certified Farmers Market","website":"http://sdfarmbureau.org","facebook":"facebook.com/lindavistafm","twitter":"","street":"6939 Linda Vista Rd.","city":"San Diego","state":"ca","zip":"92111","x":"-117.170563","y":"32.785209","tags":"cheese crafts eggs herbs vegetables honey jams meat plants poultry prepared-foods trees coffee fruits juices"},{"type":"market","name":"Little Italy Mercato CFM","website":"http://www.LittleItalyMercato.com","facebook":"https://www.facebook.com/LittleItalyMercato/","twitter":"","street":"555 W Date Street","city":"San Diego ","state":"ca","zip":"92101","x":"-117.167574","y":"32.723123","tags":"organic baked goods cheese crafts flowers eggs seafood herbs vegetables honey jams meat nuts plants poultry prepared-foods soap coffee beans fruits grains juices mushrooms pet food tofu"},{"type":"market","name":"Main Street Farmers Market","website":"https://edc-farmtrails.org/our-trails/farmers-market/","facebook":"https://www.facebook.com/edcfarmersmarket/","twitter":"","street":"401 Main Street","city":"Placerville","state":"ca","zip":"95667","x":"-120.796965","y":"38.730544","tags":"organic baked goods crafts flowers eggs seafood herbs vegetables honey jams meat nuts plants poultry prepared-foods soap wine beans fruits juices"},{"type":"market","name":"McKinleyville CFM","website":"http://www.northcoastgrowersassociaton.org","facebook":"https://www.facebook.com/McKinleyvilleFarmersMartket/","twitter":"","street":"2165 Central Ave","city":"McKinleyville","state":"ca","zip":"95519","x":"-124.100568","y":"40.944643","tags":"organic flowers eggs seafood herbs vegetables honey jams meat plants poultry prepared-foods soap trees beans fruits"},{"type":"market","name":"Menlo Park Farmers' Market","website":"http://www.localharvest.org","facebook":"Menlo Park Farmers Market","twitter":"","street":"Chestnut & Menlo Avenues","city":"Menlo Park","state":"ca","zip":"94025","x":"-122.184100","y":"37.450822","tags":"organic baked goods cheese flowers eggs seafood herbs vegetables honey jams meat nuts plants poultry soap beans fruits grains juices mushrooms"},{"type":"market","name":"Mission Community Market","website":"http://cuesa.org/mcm","facebook":"facebook.com/mission.community.market","twitter":"twitter.com/missionmercado","street":"84 Bartlett Street","city":"San Francisco","state":"ca","zip":"94111","x":"-122.419881","y":"37.755373","tags":"organic baked goods cheese crafts flowers eggs seafood herbs vegetables honey jams meat nuts poultry prepared-foods soap trees beans fruits juices mushrooms pet food"},{"type":"market","name":"MLK Campus Farmers' Market","website":"http://www.seela.org/","facebook":"https://www.facebook.com/MLKCampusFarmersMarket/","twitter":"","street":"1670 E 120th St","city":"Los Angeles","state":"ca","zip":"90059","x":"-118.243583","y":"33.923533","tags":"organic eggs vegetables honey nuts prepared-foods fruits"},{"type":"market","name":"Montclair Village Farmers' Market","website":"","facebook":"https://www.facebook.com/UrbanVillageOnFB","twitter":"","street":"6131 La Salle Ave, Oakland, CA 94611","city":"Oakland","state":"ca","zip":"94611","x":"-122.209928","y":"37.826522","tags":"organic baked goods cheese crafts flowers eggs seafood herbs vegetables honey jams maple meat nuts plants poultry prepared-foods soap trees wine coffee beans fruits grains juices mushrooms pet food tofu wild"},{"type":"market","name":"Morro Bay Main Street Farmers Market","website":"https://www.morrobayfarmers.com","facebook":"https://www.facebook.com/MorroBayMainStreetFarmersMarket/","twitter":"","street":"Main St. and Morro Bay Blvd.","city":"Morro Bay","state":"ca","zip":"93442","x":"-120.849956","y":"35.365976","tags":"organic baked goods cheese crafts flowers eggs seafood herbs vegetables honey jams meat nuts poultry prepared-foods soap wine coffee beans fruits grains juices mushrooms pet food"},{"type":"market","name":"Napa Downtown Farmers Market","website":"http://www.napafarmersmarket.org","facebook":"www.facebook.com/NapaFarmersMarket","twitter":"www.twitter.com/napafarmersmkt","street":"1100 West Street","city":"Napa","state":"ca","zip":"94559","x":"-122.285131","y":"38.301189","tags":"organic baked goods cheese crafts flowers eggs seafood herbs vegetables honey jams meat nuts plants poultry prepared-foods soap trees coffee fruits juices mushrooms pet food"},{"type":"market","name":"Newport Beach Certified Farmers' Market by Farmer Mark ","website":"http://www.farmermark.com/newportbeach","facebook":"https://www.facebook.com/newportbeachFM","twitter":"","street":"1 McFadden Place","city":"Newport Beach ","state":"ca","zip":"92663","x":"-117.928792","y":"33.607886","tags":"organic baked goods crafts flowers eggs vegetables honey jams nuts plants prepared-foods soap trees coffee fruits juices"},{"type":"market","name":"North Berkeley Farmers' Market","website":"http://www.ecologycenter.org/fm","facebook":"","twitter":"","street":"Shattuck and Vine","city":"Berkeley","state":"ca","zip":"94702","x":"-122.269078","y":"37.880337","tags":"organic baked goods flowers eggs seafood herbs vegetables honey meat nuts poultry prepared-foods fruits juices mushrooms"},{"type":"market","name":"Northridge Farmers Market and family festival","website":"http://northridgefarmersmarket.org","facebook":"https://www.facebook.com/northridgefarmersmarket/","twitter":"","street":"9301 tampa ave","city":"northridge","state":"ca","zip":"91324","x":"-118.5562362","y":"34.2385732","tags":"organic baked goods cheese crafts flowers eggs herbs vegetables honey maple meat nuts poultry prepared-foods soap trees fruits juices"},{"type":"market","name":"Ocean Beach Certified Farmers Market","website":"http://www.OceanBeachSanDiego.com","facebook":"https://www.facebook.com/OBFM","twitter":"https://twitter.com/OceanBeachCA","street":"4900 Newport Avenue","city":"San Diego","state":"ca","zip":"92107","x":"-117.250160","y":"32.746190","tags":"organic baked goods cheese crafts flowers eggs seafood herbs vegetables honey jams maple meat nuts plants poultry prepared-foods soap fruits"},{"type":"market","name":"Old L.A. Certified Farmers Market","website":"http://www.oldla.org","facebook":"Highland Park Old LA Certified Farmers Market","twitter":"","street":"North Figueroa & Ave. 58","city":"Los Angeles ","state":"ca","zip":"90042","x":"-118.191900","y":"34.110124","tags":"organic baked goods cheese crafts eggs herbs vegetables honey jams nuts plants prepared-foods soap trees coffee fruits juices"},{"type":"market","name":"Old L.A. Certified Farmers Market","website":"http://www.oldla.org","facebook":"Highland Park Old LA Certified Farmers Market","twitter":"","street":"N Figueroa & Ave. 58","city":"Los Angeles ","state":"ca","zip":"90042","x":"-118.191934","y":"34.110171","tags":"organic baked goods cheese crafts eggs vegetables honey jams nuts plants prepared-foods soap trees coffee fruits juices"},{"type":"market","name":"Old Oakland Farmers' Market","website":"https://uvfm.org/old-oakland-fridays","facebook":"https://www.facebook.com/UrbanVillageOnFB","twitter":"","street":"492 9th street","city":"Oakland","state":"ca","zip":"94609","x":"-122.274596","y":"37.801382","tags":"organic baked goods cheese crafts flowers eggs seafood herbs vegetables honey jams meat nuts plants poultry prepared-foods soap trees wine beans fruits grains juices mushrooms pet food tofu wild"},{"type":"market","name":"Orange Home Grown Farmers & Artisans Market","website":"https://orangehomegrown.org/","facebook":"Orange Home Grown Farmers & Artisans Market ","twitter":"","street":"303 W. Palm Ave.","city":"Orange ","state":"ca","zip":"92866","x":"-117.855866","y":"33.791554","tags":"organic baked goods cheese flowers eggs seafood herbs vegetables honey jams nuts plants poultry prepared-foods coffee beans fruits juices mushrooms"},{"type":"market","name":"Original Merced County Certified Farmers Market - Downtown Merced","website":"http://mercedcfm.com/","facebook":"https://www.facebook.com/mercedcfm/","twitter":"","street":"16th St. and Canal St.","city":"Merced","state":"ca","zip":"95340","x":"-120.484427","y":"37.300930","tags":"baked goods crafts eggs herbs vegetables honey jams meat nuts prepared-foods soap fruits"},{"type":"market","name":"Orinda Famers Market","website":"http://www.cccfm.org/","facebook":"https://www.facebook.com/OrindaFarmersMarket","twitter":"","street":"28 Orinda Way ","city":"Orinda ","state":"ca","zip":"94563","x":"-122.174543","y":"37.882764","tags":"organic baked goods flowers eggs seafood herbs vegetables honey jams nuts fruits mushrooms"},{"type":"market","name":"Oxnard Farmers Market","website":"http://www.OxnardFarmersMarket.com","facebook":"www.facebook.com/OxnardFarmersMarket/","twitter":"https://twitter.com/oxnfarmersmkt","street":"500 South C Street","city":"Oxnard","state":"ca","zip":"93030","x":"-119.180270","y":"34.197980","tags":"organic baked goods flowers eggs herbs vegetables honey nuts plants prepared-foods trees fruits"},{"type":"market","name":"Pajaro Valley CFM","website":"http://Pajarovalleyfarmersmarket.com","facebook":"","twitter":"","street":"Peck and Union st.","city":"Watsonville","state":"ca","zip":"95076","x":"-121.755366","y":"36.910275","tags":"organic baked goods crafts flowers eggs vegetables nuts plants prepared-foods trees fruits mushrooms"},{"type":"market","name":"Palos Verdes Farmers Market","website":"","facebook":"https://www.facebook.com/palosverdesfarmersmarket/","twitter":"@farmersmarketpv","street":"27118 Silver Spur Road","city":"Rolling Hills Estates ","state":"ca","zip":"90274","x":"-118.373725","y":"33.779336","tags":"organic baked goods cheese crafts flowers eggs seafood herbs vegetables honey jams meat nuts plants poultry prepared-foods soap trees coffee fruits juices"},{"type":"market","name":"Peaceful Valley Farmers Market ","website":"http://www.peacefulvalleyfarmersmarket.com","facebook":"@CertifiedPVFM","twitter":"","street":"14888 Peaceful Valley Road","city":"Sonora","state":"ca","zip":"95370","x":"-120.338076","y":"37.974304","tags":"baked goods cheese crafts flowers eggs herbs vegetables honey jams meat nuts plants poultry prepared-foods soap coffee beans fruits juices mushrooms"},{"type":"market","name":"Petaluma Evening Farmers' Market ","website":"http://www.ilovefarmersmarkets.org","facebook":"https://www.facebook.com/PetalumaFarmersMarket/","twitter":"","street":"2nd Street between D St and B St ","city":"Petaluma ","state":"ca","zip":"94952","x":"-122.637103","y":"38.233365","tags":"organic baked goods flowers herbs vegetables jams prepared-foods soap wine coffee fruits pet food tofu"},{"type":"market","name":"Petaluma Farmers Market","website":"http://www.ilovefarmersmarkets.org","facebook":"https://www.facebook.com/PetalumaFarmersMarket/","twitter":"","street":"Petaluma Blvd S and D St","city":"Petaluma ","state":"ca","zip":"94952","x":"-122.636797","y":"38.231796","tags":"organic baked goods cheese crafts flowers eggs seafood herbs vegetables honey jams meat nuts poultry prepared-foods soap coffee beans fruits grains juices mushrooms pet food tofu"},{"type":"market","name":"Phelan Certified Farmers Market","website":"https://www.phelancertifiedfarmersmarket.org","facebook":"https://www.facebook.com/PhelanCertifiedFarmersMarket/","twitter":"phelanfarmers","street":"4128 Warbler Road","city":"Phelan","state":"ca","zip":"92371","x":"-117.524831","y":"34.439822","tags":"baked goods crafts flowers eggs seafood herbs vegetables honey jams nuts plants prepared-foods soap trees coffee fruits"},{"type":"market","name":"Playa Vista Farmers' Market","website":"http://www.farmermark.com/playavista","facebook":"https://www.facebook.com/playavistaFM","twitter":"","street":"12775 W. Millennium","city":"Playa Vista","state":"ca","zip":"90094","x":"-118.416626","y":"33.975922","tags":"organic baked goods cheese crafts flowers eggs seafood vegetables honey jams meat nuts plants soap trees coffee fruits juices mushrooms wild"},{"type":"market","name":"Quincy Certified Farmers' Market","website":"http://www.quincyfarmersmarket.org","facebook":"","twitter":"","street":"530 W. Main St.","city":"Quincy","state":"ca","zip":"95971","x":"-120.950176","y":"39.937091","tags":"baked goods crafts flowers seafood vegetables prepared-foods soap fruits"},{"type":"market","name":"Redlands Certified Farmers Market","website":"http://www.cityofredlands.org/redlandsmarketnight","facebook":"","twitter":"","street":"100 E. State Street","city":"Redlands","state":"ca","zip":"92373","x":"-117.181441","y":"34.056448","tags":"baked goods cheese crafts flowers eggs herbs vegetables honey nuts plants prepared-foods soap trees coffee fruits"},{"type":"market","name":"Redlands Saturday Morning Certified Farmers Market","website":"https://www.cityofredlands.org/cms/One.aspx?portalId=6255746&pageId=7211257","facebook":"","twitter":"","street":"100 E. Redlands Boulevard","city":"Redlands","state":"ca","zip":"92373","x":"-117.180913","y":"34.057080","tags":"organic baked goods cheese flowers eggs herbs vegetables honey jams nuts plants prepared-foods trees fruits"},{"type":"market","name":"Rohnert Park Farmers' Market ","website":"http://www.ilovefarmersmarkets.org","facebook":"https://www.facebook.com/rohnertparkfarmersmarket/","twitter":"","street":"500 City Center Dr ","city":"Rohnert Park ","state":"ca","zip":"94928","x":"-122.703949","y":"38.349284","tags":"organic baked goods cheese crafts flowers eggs herbs vegetables jams nuts prepared-foods soap wine coffee fruits juices"},{"type":"market","name":"San Francisco Certified Alemany Farmers Market","website":"","facebook":"","twitter":"","street":"100 Alemany Boulevard","city":"San Francisco","state":"ca","zip":"94110","x":"-122.4085979","y":"37.7373447","tags":"organic baked goods cheese flowers eggs herbs vegetables honey nuts prepared-foods coffee fruits juices mushrooms"},{"type":"market","name":"Santa Clara Farmers' Market","website":"http://www.uvfm.org","facebook":"https://www.facebook.com/UrbanVillageOnFB","twitter":"","street":"Jackson Street at Homestead Road","city":"Santa Clara","state":"ca","zip":"95050","x":"-121.967934","y":"37.364613","tags":"organic baked goods cheese crafts flowers eggs seafood herbs vegetables honey jams meat nuts poultry prepared-foods soap trees wine coffee beans fruits juices mushrooms tofu wild"},{"type":"market","name":"Santa Rosa Community Farmers Market at the Veterans Building","website":"http://www.ilovefarmersmarkets.org","facebook":"https://www.facebook.com/santarosacommunityfarmersmarket/","twitter":"","street":"1501 Farmers Lane ","city":"Santa Rosa ","state":"ca","zip":"95404","x":"-122.689399","y":"38.434379","tags":"organic baked goods cheese crafts flowers eggs seafood herbs vegetables honey jams meat nuts plants poultry prepared-foods soap trees coffee beans fruits grains juices mushrooms pet food tofu"},{"type":"market","name":"Santa Rosa Downtown Market (Wednesday Night Market)","website":"http://www.wednesdaynightmarket.org","facebook":"https://www.facebook.com/Santa-Rosa-Downtown-Market-Wednesday-Night-Market-293742913694/","twitter":"","street":"Courthouse Square & 4th St","city":"Santa Rosa","state":"ca","zip":"95404","x":"-122.7135900","y":"38.4406777","tags":"organic baked goods cheese crafts flowers eggs herbs vegetables honey jams meat plants prepared-foods soap wine coffee fruits juices mushrooms wild"},{"type":"market","name":"Saturday Morning Market at Steele Wines","website":"http://www.lakecountyfarmersfinest.org","facebook":"https://www.facebook.com/Lake-County-Farmers-Finest-124667697570982/","twitter":"","street":"Thomas Dr./ Highway 29","city":"Finley","state":"ca","zip":"95435","x":"-122.875340","y":"38.992593","tags":"organic baked goods cheese crafts flowers eggs seafood herbs vegetables honey jams nuts plants prepared-foods soap trees coffee fruits"},{"type":"market","name":"Silver Lake CFM","website":"","facebook":"wwww.facebook.com/silverlake.cfm","twitter":"","street":"1500 Griffith Park Blvd","city":"Los Angeles","state":"ca","zip":"90026","x":"-118.277386","y":"34.090541","tags":"organic baked goods cheese crafts flowers eggs seafood herbs vegetables honey jams maple nuts plants prepared-foods soap coffee fruits juices tofu wild"},{"type":"market","name":"Simi Valley City Hall Certified Farmers' Market","website":"","facebook":"https://www.facebook.com/simivalleycertifiedfarmersmarket/","twitter":"","street":"2757 Tapo Canyon rd","city":"Simi Valley","state":"ca","zip":"93093","x":"-118.718091","y":"34.285295","tags":"organic baked goods cheese crafts flowers eggs herbs vegetables honey jams nuts prepared-foods soap coffee fruits"},{"type":"market","name":"SLO Farm Supply Farmers Market","website":"","facebook":"https://www.facebook.com/farmsupplyfarmersmarket/","twitter":"","street":"224 Tank Farm Rd","city":"San Luis Obispo","state":"ca","zip":"93401","x":"-120.667181","y":"35.247189","tags":"baked goods flowers eggs herbs vegetables honey jams meat poultry prepared-foods soap fruits juices"},{"type":"market","name":"SOCO Farmers' Market","website":"http://www.farmermark.com/soco","facebook":"https://www.facebook.com/socofm","twitter":"","street":"3315 Hyland ","city":"Costa Mesa","state":"ca","zip":"92626","x":"-117.927099","y":"33.694867","tags":"organic baked goods cheese flowers eggs vegetables honey jams meat nuts plants poultry prepared-foods soap trees fruits juices pet food"},{"type":"market","name":"Solana Beach Farmers Market","website":"http://www.solanabeachfarmersmarket.com","facebook":"https://www.facebook.com/SolanaBeachFarmersMarket","twitter":"","street":"444 South Cedros Avenue","city":"Solana Beach","state":"ca","zip":"92075","x":"-117.269204","y":"32.987194","tags":"organic baked goods cheese crafts flowers eggs seafood herbs vegetables honey jams meat nuts plants poultry prepared-foods soap coffee fruits juices mushrooms pet food"},{"type":"market","name":"South Berkeley Farmers' Market","website":"http://www.ecologycenter.org/fm","facebook":"","twitter":"","street":"Adeline at 63rd Street","city":"Berkeley ","state":"ca","zip":"94703","x":"-122.271931","y":"37.847765","tags":"organic baked goods flowers eggs seafood herbs vegetables honey jams meat nuts poultry prepared-foods beans fruits grains juices mushrooms"},{"type":"market","name":"Sunnyvale Farmers' Market","website":"https://uvfm.org/sunnyvale-saturday","facebook":"https://www.facebook.com/UrbanVillageOnFB","twitter":"","street":"Murphy Avenue at Washington Avenue","city":"Sunnyvale","state":"ca","zip":"94086","x":"-122.026323","y":"37.385784","tags":"organic baked goods cheese crafts flowers eggs seafood herbs vegetables honey jams meat nuts poultry prepared-foods soap trees wine coffee beans fruits juices mushrooms tofu wild"},{"type":"market","name":"Surprise Valley Farmers Market","website":"http://svsaturdaymarket.org/","facebook":"https://www.facebook.com/ModocCFM/","twitter":"","street":"501 Main ","city":"Cedarville","state":"ca","zip":"96104","x":"-120.171665","y":"41.527832","tags":"baked goods crafts flowers eggs herbs vegetables honey jams meat soap trees fruits pet food"},{"type":"market","name":"Tahoe City Farmers Market Thursday CFM","website":"http://www.tahoecityfarmersmarket.com","facebook":"https://www.facebook.com/tahoecityfarmersmarket/","twitter":"","street":"400 N Lake Blvd","city":"Tahoe City","state":"ca","zip":"96145","x":"-120.141130","y":"39.169938","tags":"organic baked goods cheese crafts flowers seafood herbs vegetables honey jams meat nuts poultry prepared-foods soap wine coffee fruits juices mushrooms wild"},{"type":"market","name":"Temescal Urban Village Farmers' Market ","website":"https://uvfm.org","facebook":"https://www.facebook.com/UrbanVillageOnFB","twitter":"","street":"5300 Claremont Ave.","city":"Oakland","state":"ca","zip":"94618","x":"-122.259736","y":"37.839774","tags":"organic baked goods cheese crafts flowers eggs seafood herbs vegetables honey jams maple meat nuts plants poultry prepared-foods soap trees wine coffee beans fruits grains juices mushrooms pet food tofu wild"},{"type":"market","name":"The BLVD Market","website":"","facebook":"https://www.facebook.com/TheBlvdFarmersMarket","twitter":"","street":"Lancaster BLVD","city":"LANCASTER","state":"ca","zip":"93534","x":"-118.142518","y":"34.697730","tags":"baked goods crafts eggs vegetables honey jams nuts prepared-foods coffee fruits"},{"type":"market","name":"The Petaluma East Side Farmers' Market","website":"http://www.ilovefarmersmarkets.org","facebook":"https://www.facebook.com/petalumaeastsidefarmersmarket/","twitter":"","street":"320 N McDowell Blvd","city":"Petaluma ","state":"ca","zip":"94954","x":"-122.630899","y":"38.252337","tags":"organic baked goods cheese crafts flowers eggs seafood herbs vegetables honey jams meat nuts plants poultry prepared-foods soap trees coffee beans fruits grains juices mushrooms pet food tofu"},{"type":"market","name":"The Springs Community Farmers' Market ","website":"http://www.ilovefarmersmarkets.org","facebook":"https://www.facebook.com/TheSpringsCommunityFarmersMarket/","twitter":"","street":"Parking lot at Boyes Blvd & Hwy 12","city":"Boyes Hot Springs ","state":"ca","zip":"95476","x":"-122.482053","y":"38.314330","tags":"organic baked goods herbs vegetables meat prepared-foods soap coffee fruits tofu"},{"type":"market","name":"The Woodland Farmers Market","website":"http://www.thewoodlandfarmersmarket.org","facebook":"https://www.facebook.com/pages/The-Woodland-Farmers-Market/128409933892000","twitter":"","street":"250 First Street ","city":"Woodland ","state":"ca","zip":"95695","x":"-121.7737712","y":"38.6792311","tags":"organic baked goods crafts flowers eggs seafood herbs vegetables honey jams meat prepared-foods soap fruits grains"},{"type":"market","name":"The Woodland Farmers Market at Woodland Healthcare","website":"http://www.thewoodlandfarmersmarket.org","facebook":"https://www.facebook.com/pages/The-Woodland-Farmers-Market/128409933892000","twitter":"","street":"Corner of Cottonwood and Gibson Rd","city":"Woodland","state":"ca","zip":"95695","x":"-121.793045","y":"38.663686","tags":"organic baked goods flowers eggs herbs vegetables honey jams plants prepared-foods fruits"},{"type":"market","name":"Thursday Marin Farmers Market","website":"http://agriculturalinstitue.org","facebook":"https://www.facebook.com/MarinFarmersMarkets/","twitter":"","street":"Avenue of the Flags, San Rafael , California 94903","city":"San Rafael ","state":"ca","zip":"94903","x":"-122.534505","y":"38.001229","tags":"organic baked goods cheese flowers eggs seafood herbs vegetables honey jams maple meat nuts poultry prepared-foods trees coffee beans fruits grains juices mushrooms wild"},{"type":"market","name":"Tuesday Morning Market at Library Park","website":"http://www.lakecountyfarmersfinest.org","facebook":"https://www.facebook.com/Tuesday-Farmers-Market-at-Library-Park-238157099542658/","twitter":"","street":"www.lakecountyfarmersfinest.org","city":"Lakeport","state":"ca","zip":"95453","x":"-122.913740","y":"39.043566","tags":"organic cheese crafts flowers herbs vegetables honey jams nuts plants prepared-foods soap fruits"},{"type":"market","name":"Vineyard Farmers Market","website":"http://www.vineyardfarmersmarket.com","facebook":"https://www.facebook.com/VineyardFarmersMarket/","twitter":"","street":"100 W. Shaw","city":"Fresno ","state":"ca","zip":"93704","x":"-119.7910413","y":"36.8097606","tags":"organic baked goods cheese flowers eggs herbs vegetables honey jams meat nuts plants prepared-foods coffee fruits grains juices mushrooms"},{"type":"market","name":"Walnut Creek Certified Farmers' Market","website":"http://www.cccfm.org/","facebook":"https://www.facebook.com/WalnutCreekFarmersMarket","twitter":"","street":"1799 Locust Street","city":"Walnut Creek","state":"ca","zip":"94596","x":"-122.040479","y":"37.902666","tags":"organic baked goods cheese crafts flowers eggs seafood vegetables honey jams meat nuts poultry prepared-foods trees wine coffee fruits juices mushrooms"},{"type":"market","name":"Wellington Square Certified Farmers Market","website":"http://www.wellingtonsquarefarmersmarket.com","facebook":"https://www.facebook.com/wellingtonsquarefarmersmarket","twitter":"https://twitter.com/wsfarmersmarket","street":"4394 W Washington Blvd.","city":"Los Angeles","state":"ca","zip":"90016","x":"-118.334753","y":"34.039790","tags":"organic baked goods crafts flowers eggs herbs vegetables honey jams nuts prepared-foods soap coffee fruits juices"},{"type":"market","name":"West LA Farmers Market","website":"http://www.wlafarmersmarket.com","facebook":"https://www.facebook.com/WestLaFarmersMarket/","twitter":"","street":"1600 Purdue Ave.","city":"Los Angeles","state":"ca","zip":"90025","x":"-118.450674","y":"34.045724","tags":"organic baked goods cheese crafts flowers eggs herbs vegetables honey nuts prepared-foods soap trees coffee fruits juices wild"},{"type":"market","name":"Westside Santa Cruz Farmers' Market","website":"http://www.santacruzfarmersmarket.org","facebook":"www.facebook.com/santacruzfarmersmarket/","twitter":"","street":"Corner of Western Drive and Mission St.","city":"Santa Cruz","state":"ca","zip":"95060","x":"-122.057","y":"36.9598","tags":"organic baked goods cheese flowers eggs seafood herbs vegetables honey jams meat nuts plants poultry prepared-foods soap wine coffee beans fruits juices"},{"type":"market","name":"Westwood Village Farmers Market","website":"http://www.farmermark.com/westwood","facebook":"https://www.facebook.com/farmermarkwv","twitter":"","street":"1030 Broxton St","city":"Los Angeles","state":"ca","zip":"90024","x":"-118.446530","y":"34.061784","tags":"organic baked goods crafts eggs vegetables honey jams nuts prepared-foods coffee beans fruits juices"},{"type":"market","name":"Westwood Village Farmers Market by Farmer Mark","website":"http://www.farmermark.com/westwood/","facebook":"https://www.facebook.com/farmermarkwv/","twitter":"","street":"1030 Broxton Avenue","city":"Los Angeles","state":"ca","zip":"90024","x":"-118.446688","y":"34.061997","tags":"organic baked goods crafts flowers eggs seafood herbs vegetables honey jams nuts prepared-foods soap coffee fruits grains juices tofu"},{"type":"market","name":"Willow Glen Farmers' Market","website":"https://uvfm.org/willow-glen-saturday","facebook":"https://www.facebook.com/UrbanVillageOnFB","twitter":"","street":"1425 Lincoln Avenue","city":"San Jose","state":"ca","zip":"95125","x":"-121.819306","y":"37.296867","tags":"organic baked goods cheese crafts flowers eggs seafood herbs vegetables honey jams meat nuts poultry prepared-foods soap trees wine coffee beans fruits juices mushrooms pet food tofu wild"},{"type":"market","name":"Yreka Community Certified Farmers Market","website":"","facebook":"","twitter":"","street":"1712 Fairlane Road","city":"Yreka ","state":"ca","zip":"96097","x":"-122.6401341","y":"41.7070195","tags":"baked goods crafts flowers eggs herbs vegetables honey jams plants prepared-foods fruits"}]
