"city","facebook","name","state","street","tags","twitter","type","website","x","y","zip"
"Cherry Valley","https://www.facebook.com/hsresort","123 Farm at Highland Springs Resort","ca","10600 Highland Springs Ave.","baked-goods cut-flowers herbs soap body-care wild-harvested forest-products","","farm","www.123farm.com","-116.944304","33.969105","92223"
"Plymouth","https://www.facebook.com/pages/Amador-Flower-Farm-Nursery/129585181590","Amador Flower Farm","ca","22001 Shenandoah School Road","bedding plants nursery-stock","","farm","AmadorFlowerFarm.com","-120.804192","38.528671","95669"
"Hilmar","","Anderson Almonds ","ca","6401 Hultberg Rd","","","farm","ANDERSONALMONDS.COM","-120.896124","37.381382","95324"
"Fallbrook","","Ballou's Farm","ca","550 Golden Road","","","farm","","-117.2443950","33.3725040","92028"
"Murrieta ","Belcielovilla ","Bel Cielo Villa LLC ","ca","40650 Sierra maria rd ","canned preserved coffee tea cut-flowers eggs herbs fresh-fruits fresh-vegetables","","farm","www.belcielovilla.com","-117.309869","33.540500","92562"
"Morgan Hill ","","Bernal Properties","ca","2500 Dahlberg Drive","red-meat non-poultry-meat","","farm","","-121.6830930","37.1146863","95037"
"Garden Valley","https://www.facebook.com/pages/Berry-Heaven-USA/184265071641852?ref=hl","Berry Heaven","ca","5170 Marshall Road","baked-goods canned preserved fresh-fruits fresh-vegetables honey","","farm","www.BerryHeavenUSA.com","-120.867010","38.847827","95633"
"Newcastle","","Burgeson Family Farm","ca","9911 Quail Hill Drive","","","farm","www.burgesonfamilyfarm.com","-121.1149200","38.8688000","95658"
"Gaviota","www.facebook.com/pages/Classic-Organic-Farm-Market/101770889289?ref=mf","Classic Organic Farm & Market","ca","2323 Old Coast Hwy","herbs fresh-fruits fresh-vegetables honey","","farm","www.classicorganic.org","-120.192036","34.543206","93117"
"El Sobrante","https://www.facebook.com/cloverfieldorganic","Cloverfield","ca","501 La Paloma Rd.","cut-flowers dry beans herbs fresh-fruits fresh-vegetables grains flour nursery-stock wild-harvested forest-products","","farm","","-122.3086680","37.9724040","94803"
"Fiddletown","","DAMAS Vinyeards","ca","","","","farm","www.damasvineyards.com","-120.7565689","38.5039105","95629"
"Rio Oso","https://www.facebook.com/derbywalnuts/","Derby Walnuts","ca","3620 Gallagher Road","nuts","","farm","https://www.derbywalnuts.com","-121.483186","38.969894","95674"
"Ripon","https://www.facebook.com/pages/Pom-Girl/158669604180922?fref=nf","Double Dutch Farms","ca","345 Rose Court corner of Doak and Highland","canned preserved cut-flowers eggs herbs fresh-fruits fresh-vegetables grains flour honey nuts soap body-care","","farm","","-121.148429","37.727654","95366"
"Escondido","http://www.facebook.com/FransOriginalFarmStand","Farm Stand West","ca","2115 Miller Ave","canned preserved cut-flowers eggs herbs fresh-fruits fresh-vegetables honey juices ciders nuts","http://twitter.com/FarmstandWest","farm","http://www.thefarmstandwest.com/","-117.080070","33.092108","92025"
"Saint Helena","www.facebook.com/lmrwine","Farmer's Market at Long Meadow Ranch","ca","738 Main Street","canned preserved cut-flowers eggs herbs fresh-fruits fresh-vegetables honey red-meat non-poultry-meat soap body-care wine spirits beer hard-cider","https://www.twitter.com/LMRwine","farm","www.longmeadowranch.com","-122.463336","38.501022","94574"
"Oakdale ","https://www.facebook.com/pages/Faust-Family-Farm/207071019443543?ref=hi","Faust Family Farm","ca","9742 Dillwood Rd.","bedding plants eggs herbs fresh-fruits fresh-vegetables nursery-stock wild-harvested forest-products","","farm","http://www.localharvest.org/faust-family-farm-M49252","-120.793110","37.779937","95361"
"De Luz","https://www.facebook.com/fentonfamilyfarm","Fenton Family Farm","ca","2235 Riverview Road","eggs herbs fresh-fruits nuts","","farm","https://www.facebook.com/fentonfamilyfarm","-117.315445","33.418937","92028"
"Ukiah","","Finley's Mountain Ranch","ca","1700 Orr Springs Rd","","","farm","www.finleysmountainranch.com","-123.2405790","39.1837980","95482"
"Knightsen","https://www.facebook.com/1stgenerationfarmers/","First Generation Farmers","ca","1230 Delta Rd","canned preserved eggs fresh-vegetables honey","@1stGenFarmers","farm","https://www.firstgenerationfarmers.org/","-121.671045","37.969019","94548"
"Escondido","http://www.facebook.com/FransOriginalFarmStand","Fran's Original Farm Stand","ca","1980 Summit Dr","baked-goods eggs herbs fresh-fruits fresh-vegetables honey juices ciders nuts","http://twitter.com/FarmstandWest","farm","http://www.thefarmstandwest.com/","-117.045013","33.107489","92027"
"Valley Ford","","Freestone Ranch","ca","PO Box 314","red-meat non-poultry-meat","","farm","freestoneranch.com","-122.908515","38.349227","94972"
"San Luis Obispo","https://www.facebook.com/pages/Growing-Grounds-Farm-San-Luis-Obispo/136646096366619","Growing Grounds Farm","ca","3740 Orcutt Road ","","","farm","http://www.growinggroundsfarm.org/","-120.6343392","35.2609340",""
"Corning","","Hansens Blueberry Farm","ca","3325 Houghton Ave","","","farm","","-122.188305","39.894708","96021"
"Atascadero","https://www.facebook.com/harmonylavender","Harmony Lavender","ca","7045 Sycamore Rd.","baked-goods canned preserved coffee tea crafts woodworking cut-flowers fresh-fruits fresh-vegetables nursery-stock soap body-care","https://www.twitter.com/harmonylavender","farm","","-120.6494030","35.4973160","93422"
"Pollock Pines","https://www.facebook.com/harristreefarm","Harris Family Farm","ca","2640 Blair Road","baked-goods canned preserved coffee tea eggs herbs fresh-fruits fresh-vegetables","","farm","www.harristreefarm.com","-120.601655","38.762282","95726"
"Ripon","","Harris Orchards","ca","18600 N Ripon Rd","canned preserved nuts","","farm","","-121.124761","37.791711","95366"
"Oregon House","www.facebook.com/jennycavaliere3","High Sierra Beef, Inc.","ca","14582 Indiana School Road","baked-goods bedding plants canned preserved coffee tea crafts woodworking dairy products dry beans eggs herbs fresh-fruits fresh-vegetables grains flour honey pet-food poultry fowl red-meat non-poultry-meat wild-harvested forest-products","","farm","http://www.highsierrabeef.com","-121.237850","39.381273","95962"
"Chico","","Jesus Center Community Farm","ca","West 16th ST & Normal Ave.","cut-flowers fresh-vegetables","","farm","","-121.830397","39.717817","95928"
"Fallbrook","https://www.facebook.com/Kendall.Farms","Kendall Farms","ca","4230 White Lilac Rd","cut-flowers","","farm","www.kendall-farms.com","-117.1646235","33.3923559","92028"
"Valley Springs","https://www.facebook.com/KGFarms323","KG Farms","ca","7000 Westhill Rd.","eggs fresh-fruits fresh-vegetables poultry fowl red-meat non-poultry-meat","","farm","","-120.8591580","38.1180620","95252"
"Tehachapi","","Knaus Apple Ranch","ca","19042 Cherry Lane (corner Tucker Rd & Cherry Ln)","baked-goods canned preserved crafts woodworking fresh-fruits honey","","farm","www.knausappleranch.com/","-118.467945","35.120309","93561"
"Loomis","","Loomis Alpacas","ca","3600 Holly Hill Lane","","","farm","","","","95650"
"Clarksburg","","Loving Nature Farm, Inc.","ca","38883 Z Line Road","canned preserved cut-flowers dry beans eggs herbs fresh-fruits fresh-vegetables grains flour honey juices ciders","","farm","LovingNatureFarm.com","-121.621742","38.373191","95612"
"Biggs","","Maxs Miracle Ranch","ca","3476 Smith Avenue","","","farm","www.maxsmiracles.org","-121.6906700","39.4320010","95917"
"Corning","https://www.facebook.com/pages/Maywood-Farms/461257050564079","Maywood Farms","ca","3635 Mt. Shasta Ave.","","","farm","www.maywoodfarms.com","-122.2279000","39.9050950","96021"
"Pebble Beach","https://www.facebook.com/montereygoldhoney","Monterey Gold Honey","ca","PO Box 94","honey","","farm","http://montereygoldhoney.com/","-121.951716","36.568737","93953"
"Oroville","Morse Farms","Morse Mandarin Farm","ca","8 Feathervale Drive","baked-goods canned preserved coffee tea dry beans fresh-fruits honey nuts","","farm","www.morsemandarinfarms.com","-121.4533060","39.4918480","95966"
"San Andreas","","Nakagawa Ranches","ca","5981 Mountain Ranch Road","","","farm","www.nakagawaranches.com","0.045662","0.049438","95249"
"Dinuba","www.facebook.com/naylor.organics","Naylor Organics","ca","38918 Road 64","fresh-fruits","www.twitter.com/NaylorOrganics","farm","www.kyf2/me/ca/0012","-119.429008","36.497327","93618"
"Sheridan","","Neilson Family Farm","ca","6900 Andressen Rd","eggs","","farm","","-121.3562440","38.9979600","95681"
"Creston","https://www.facebook.com/OlivasDeOroOliveCompany","Olivas de Oro Olive Company","ca","4625 La Panza Road","canned preserved herbs nursery-stock red-meat non-poultry-meat soap body-care","","farm","www.olivasdeoro.com","-120.5026790","35.5162160","93432"
"Newman","https://www.facebook.com/pages/Open-Space-Meats-Grass-Fed-Beef/57371751078","Open Space Meats LLC","ca","1215 S Street","","https://www.twitter.com/openspacemeats","farm","http://www.openspacemeats.com/","-121.0288790","37.3154139","95360"
"Woodland","","Pacific Star Gardens","ca","20872 County Road 99","eggs fresh-fruits fresh-vegetables","","farm","","-121.7881330","38.6351800","95695"
"Thermal","","Pato's Dream Date Gardens","ca","60-499 Harrison St.","","","farm","","-116.102877","33.468212","92274"
"Pauma Valley","https://www.facebook.com/solidarity.farm","Pauma Tribal Farms","ca","14909 Pauma Valley Drive","baked-goods canned preserved coffee tea crafts woodworking eggs fresh-fruits fresh-vegetables honey nursery-stock soap body-care","","farm","solidarityfarmsd.com","-117.006081","33.311364","92061"
"Kelseyville","@peaceplentyfarm","Peace and Plenty Farm","ca","4550 Soda Bay Road","baked-goods canned preserved cut-flowers eggs herbs fresh-fruits fresh-vegetables honey nuts soap body-care","","farm","https://www.peaceplentyfarm.com","-122.826277","39.011529","95451"
"Yorkville","https://www.facebook.com/pages/Petit-Teton-Farm/229690830390080?sk=wall#","Petit Teton Farm ","ca","18601 Highway 128","","","farm","http://www.petitteton.com/","-123.3403495","38.9624588",""
"Turlock","https://www.facebook.com/pumpkinpatchandcornmaze","R.A.M. Farms Inc. Pumpkin Patch & Corn Maze","ca","716 N. Daubenberger Rd","cut-flowers fresh-fruits fresh-vegetables","","farm","ramfarms.com","-120.8144500","37.4992530","95380"
"Hanford","https://www.facebook.com/pages/Rancho-Notso-Grande-U-Pick-BerriesFamily-Fun/146710962051530","Rancho Notso Grande","ca","5051 12th. Avenue","baked-goods canned preserved fresh-fruits nuts wine spirits beer hard-cider","","farm","","-119.671892","36.401061","93230"
"PAUMA VALLEY","","RANCHO YOBO ORGANICS","ca","15062 ADAMS DRIVE","","","farm","","-117.0045570","33.3462710","92061"
"San Jose","","Red Barn Farm Pasture-Raised Poultry","ca","PO Box 21294","fresh-vegetables poultry fowl","","farm","www.redbarnfarmpoultry.webs.com","-121.756253","37.225748","95151"
"Phelan","","Roaring L Ranch","ca","11124 Monte Vista Road","","","farm","","-117.5606370","34.4522580","92371"
"Ventucopa","https://www.facebook.com/pages/Santa-Barbara-Pistachio-Company/159650100721699","Santa Barbara Pistachio Company","ca","3380 Highway 33","eggs honey nuts soap body-care","https://www.twitter.com/sbpistachios1","farm","www.sbpistachios.com","-119.478893","34.843676","93252"
"Santa Rosa ","","SAYRE FARMS","ca","295 Pleasant Ave","cut-flowers herbs fresh-fruits fresh-vegetables","","farm","","-122.783994","38.543404","95403"
"Sebastopol","","Schmidt Road Ranch","ca","5990 Guerneville rd","bedding plants canned preserved crafts woodworking herbs fresh-fruits fresh-vegetables","","farm","","-122.854583","38.450938","95472"
"Etna","","Scott River Ranch, LLC","ca","1138 East Callahan Road","","","farm","","-122.842152","41.441142","96027"
"Penryn","karinsinclair","Sinclair Family Farm","ca","7209 Church Street","eggs fresh-fruits fresh-vegetables honey nuts poultry fowl red-meat non-poultry-meat","https://www.twitter.com/karinsinclair","farm","www.sinclairfamilyfarm.net","-121.169171","38.852928","95663"
"Placerville","","Smokey Ridge Farmstand","ca","2160 Carson Road","baked-goods canned preserved fresh-fruits fresh-vegetables prepared-foods wine spirits beer hard-cider","","farm","www.smokeyridgeranch.com","-120.7532713","38.7440177","95667"
"Guinda","https://www.facebook.com/StarRoseRanch","Star.Rose Ranch","ca","County Road 56","eggs poultry fowl red-meat non-poultry-meat","","farm","www.starroseranch.com","-122.202299","38.819076","95637"
"Santa Ynez","www.facebook.com/SummersetFarm?ref=hl","Summerset & Farm Dale's Nursery","ca"," 3450 Baseline Ave","baked-goods bedding plants canned preserved cut-flowers eggs herbs fresh-fruits fresh-vegetables nursery-stock","","farm","www.facebook.com/SummersetFarm?ref=hl","-120.081073","34.633692","93460"
"Camino","","Sun Mountain Farm","ca","3000 North Canyon Road","fresh-fruits","","farm","sunmountainfarm.com","-120.7221950","38.7496880","95709"
"Templeton","https://www.facebook.com/TempletonValleyFarms","Templeton Valley Farms","ca","880 Climbing Tree Lane","cut-flowers fresh-fruits fresh-vegetables honey","","farm","http://www.templetonvalleyfarms.com/","-120.6410740","35.5744920","93465"
"Bonadelle Ranchos-Madera Ranchos ","https://www.facebook.com/branchandvine","The Branch & Vine","ca","38802 Ave 12","canned preserved coffee tea crafts woodworking cut-flowers herbs fresh-fruits fresh-vegetables honey nursery-stock nuts","","farm","Thebranchandvine.com","-119.844638","36.921673","93636"
"Roseville","","Top Hill Farm","ca","2195 Base Line Roaf","baked-goods bedding plants cut-flowers eggs herbs fresh-fruits fresh-vegetables honey nursery-stock poultry fowl soap body-care","","farm","Tophillfarm.com","-121.3219253","38.7514201","95747"
"Roseville","","Top Hill Farm","ca","2195 Base Line Roaf","baked-goods bedding plants cut-flowers eggs herbs fresh-fruits fresh-vegetables honey nursery-stock poultry fowl soap body-care","","farm","Tophillfarm.com","-121.3219253","38.7514201","95747"
"Winton","https://www.facebook.com/toplinemilk/","Top Line Milk","ca","6335 Oakdale Road","dairy products","https://twitter.com/TopLineMilk","farm","www.toplinemilk.com","-120.586567","37.442705","95388"
"Alpine ","https://www.facebook.com/tzaddikfarm","Tzaddik Farm","ca","21986 Lyons Valley Rd","poultry fowl","","farm","http://www.tzaddikfarm.com/","-116.6764160","32.7515670",""
"Oak Glen","","Willowbrook Apple Farm","ca","12099 S. Oak Glen Road","baked-goods canned preserved fresh-fruits honey juices ciders soap body-care","","farm","willowbrookapple.tripod.com","-116.9402140","34.0350800","92399"
"Arbuckle","https://www.facebook.com/pages/Wise-Acre-Farm/167689377472?ref=hl","Wise Acre Farm","ca","6613 Harrington Avenue","baked-goods canned preserved crafts woodworking cut-flowers eggs herbs fresh-fruits fresh-vegetables","","farm","","-122.0660820","38.9530130","95912"
"Elk Grove","","Xiong Fresh Basket","ca","8711 Bradshaw Road","fresh-fruits fresh-vegetables","","farm","","-121.333509","38.443863","95624"
"Woodland","","Yolo Land & Cattle 100% Grass Fed Beef","ca","37874 County Road 28","","","farm","www.yololandandcattle.com","-121.8049887","38.6050989","95695"
"Victorville","","Adelanto Stadium Farmers Market","ca","Hwy 395 & Rancho Drive","","","market","","-117.405","34.5593","92392"
"Alameda","https://www.facebook.com/AlamedaFarmersMarket","Alameda Farmers' Market","ca","Haight and Webster St.","organic baked goods flowers eggs seafood herbs vegetables honey nuts poultry prepared-foods fruits","","market","http://www.pcfma.com","-122.276762","37.774248",""
"Salinas","https://www.facebook.com/EveryonesHarvest","Alisal Certified Farmers' Market","ca","632 East Alisal Street","organic herbs vegetables honey prepared-foods fruits","","market","http://www.everyonesharvest.org","-121.634178","36.673319","93905"
"Altadena","https://www.facebook.com/AltadenaFarmersMarket","Altadena Farmers' Market","ca","600 W. Palm Street","organic baked goods cheese crafts flowers eggs seafood herbs vegetables honey jams meat nuts poultry prepared-foods soap trees coffee fruits grains juices mushrooms","https://twitter.com/AltadenaFM","market","http://www.altadenafarmersmarket.com","-118.1581301","34.2003788","91001"
"San Jose","www.facebook.com/AlumRockVillageFarmersMarket","Alum Rock Village Farmers' Market","ca","57 North White Road","organic flowers seafood vegetables honey meat nuts poultry prepared-foods trees coffee fruits","www.twitter.com/PacCoastFarmers","market","http://www.pcfma.org","-121.833288","37.367770",""
"Jackson","","Amador Farmers' Market-- Jackson","ca","Jackson Library/ True Value","flowers eggs herbs vegetables jams nuts soap beans fruits pet food","","market","http://www.amadorfarmersmarket.com","-120.7741018","38.3488023","95642"
"Pine Grove","","Amador Farmers' Market-- Pine Grove","ca","Hwy 88 at Irishtown Rd.","baked goods crafts eggs vegetables honey jams beans fruits pet food","","market","http://www.amadorfarmersmarket.com","-120.7741018","38.3488023","95665"
"Sutter Creek","","Amador Farmers' Market-- Sutter Creek","ca","Eureka St. & Highway 49","baked goods flowers eggs vegetables honey jams plants beans fruits","","market","http://www.amadorfarmersmarket.com","-120.7741018","38.3488023","95685"
"Anderson","","Anderson Happy Valley Farmers Market","ca","Happy Valley Rd.","","","market","","-122.408","40.4487","96007"
"Angels Camp","","Angels Camp Farmers Market-Fresh Fridays","ca","Utica Park, Utica Lane","organic baked goods cheese crafts flowers eggs herbs vegetables jams meat nuts poultry prepared-foods soap wine","","market","http://www.angelscampbusiness.com/events/fresh-fridays/","-120.542700","38.072158","95222"
"Lancaster","","Antelope Valley Winery Farmer's Market ","ca","42041 20th St. West","organic baked goods cheese eggs herbs vegetables honey jams nuts wine coffee fruits grains","","market","http://www.avwinery.com","-118.1662288","34.6470421","93534"
"Aptos","https://www.facebook.com/pages/Monterey-Bay-Certified-Farmers-Markets/112446802152723","Aptos Farmers Market at Cabrillo College","ca","6500 Soquel Drive","organic baked goods cheese flowers eggs seafood herbs vegetables honey jams meat nuts plants poultry prepared-foods trees coffee beans fruits juices mushrooms","https://twitter.com/MBFarmersMarket","market","http://www.montereybayfarmers.org","-121.9270394","36.9872756","95003"
"Arbuckle ","","Arbuckle Certified Farmers Market","ca","6613 Harrington Avenue","","","market","http://arbucklerevitalization.org/farmersmarket.html","-122.066082","38.953013",""
"Arcata","https://www.facebook.com/North.Coast.Growers.Association","Arcata Plaza Farmers' Market","ca","9th and H Streets","organic baked goods flowers eggs seafood herbs honey jams meat nuts plants poultry prepared-foods soap trees coffee beans fruits grains juices mushrooms","","market","http://www.humfarm.org","-124.086882","40.868397","95521"
"Murphys","","Arnold-Mountain Growers Farmers Market","ca","Cedar Center, Hwy. 4 & Oak Circle","","","market","","-120.362","38.239","95247"
"Arroyo Grande","","Arroyo Grande Oak Park Plaza Farmers Market","ca","East Branch, K-Mart Parking lot","","","market","","-120.552","35.1271","93420"
"Arroyo Grande","","Arroyo Grande Spencers CFM","ca","1464 E. Grand Avenue","","","market","","-120.606","35.1221",""
"Atascadero","https://www.facebook.com/NorthCountyFarmersMarkets","Atascadero  Farmers Market","ca","Albertson's parking lot on El Camino Real","","","market","http://www.northcountyfarmersmarkets.com/","-120.664","35.4858","93422"
"Paso Robles","","Atascadero Farmers Market","ca","Morro Road & El Camino Real","","","market","","-120.667","35.4882","93447"
"Atascadero","","Atascadero Main Street CFM","ca","Palma & Entrada","","","market","","-120.669","35.4901","93422"
"Los Angeles ","https://www.facebook.com/pages/Atwater-Village-Farmers-Market/336210064056","Atwater Village Farmers' Market","ca","3250 Glendale Blvd","organic baked goods cheese flowers eggs seafood herbs vegetables honey jams meat nuts poultry prepared-foods soap trees coffee beans fruits grains juices mushrooms tofu wild","https://twitter.com/AtwaterFM","market","http://www.seela.org/atwater-village-farmers-market/","-118.259830","34.118435","90039"
"Auburn","","Auburn Dewitt Center Farmers Market","ca","DeWitt Center, B Avenue at First Street","","","market","http://www.foothillfarmersmarket.com","-121.098","38.9218","95602"
"Auburn","","Auburn Marketplace Farmers Market","ca","Lincoln Way & Cherry Ave.","","","market","","-121.068","38.9007","95603"
"Auburn","","Auburn Old Town Farmers Market","ca","Auburn-Folsom Rd. & Lincoln Way","","","market","http://www.foothillfarmersmarket.com","-121.076","38.8961","95603"
"Bakersfield","","Bakersfield Health Dept CFM","ca","1800 Mt. Vernon Ave.","","","market","","-118.968","35.383",""
"Lindsay","","Bakersfield Mt. Vernon Farmers Market","ca","Mt. Vernon & BC Football Field","","","market","","-119.088","36.203","93247"
"Bakerfield","","Bakersfield Wall St. Alley Farmers Market","ca","30th & F Street","","","market","","-119.023","35.3867","93309"
"Big Bear City","","Baldwin Lake Vegetable Market","ca","45437 Lucky Baldwin Ranch Rd.","","","market","http://www.baldwinlakenews.com/","-116.811","34.2891","92314"
"Baldwin Park","","Baldwin Park Farmers Market","ca","Baldwin Park - Cesar Chavez & Ramond","","","market","http://www.farmernet.com","-117.965","34.0856","91706"
"banning","facebook.com/banningmarketnight","banning market night","ca","1170 W Ramsey Street","baked goods crafts eggs herbs vegetables honey jams soap coffee fruits","","market","","-116.8895240","33.9248970","92220"
"Barstow","","Barstow Market Festival Farmers Market","ca","East Main St.,From Barstow to 2nd","","","market","","-117.023","34.8988","92312"
"Baywood","https://www.facebook.com/NorthCountyFarmersMarkets","Baywood Los Osos Farmers Market","ca","2nd & Santa Maria Streets by the bay","","","market","http://www.northcountyfarmersmarkets.com/","-120.841","35.3282","93402"
"Baywood ","","Baywood/Los Osos Certified Farmers Market","ca","2nd Street & Santa Maria","organic baked goods cheese crafts flowers eggs seafood herbs vegetables honey jams meat plants poultry prepared-foods soap trees fruits","","market","http://www.northcountyfarmersmarkets.com","-120.840899","35.328154","93412"
"Bella Vista","","Bella Vista CFM","ca","22509 Old Alturas Rd.","","","market","","-122.235","40.6378",""
"Bellflower","","Bellflower Farmers Market","ca","Oak & Clark Street","","","market","http://www.farmernet.com","-118.134","33.8847","90706"
"Belmont","facebook.com/BelmontMarket","Belmont Certified Farmers' Market","ca","El Camino Real and O'Neill St.","organic baked goods flowers eggs seafood herbs vegetables honey meat plants fruits juices","twitter.com/PacCoastFarmers","market","http://pcfma.org","-122.273595","37.518818","94002"
"Benicia","","Benica Certified Farmers Market","ca","First Street between B & D Streets","organic baked goods cheese crafts flowers eggs seafood herbs vegetables honey jams nuts prepared-foods soap coffee fruits mushrooms","","market","http://www.beniciamainstreet.org","-122.161188","38.046215","94510"
"San Jose ","www.facebook.com/BerryessaFarmersMarket","Berryessa Farmers' Market","ca","1376 Piedmont Road","organic baked goods flowers seafood vegetables honey plants poultry prepared-foods trees fruits mushrooms","www.twitter.com/PacCoastFarmers","market","http://www.pcfma.org","-121.847368","37.402040","95132"
"Beverly Hills","https://www.facebook.com/BHFarmersMarket","Beverly Hills Farmers Market","ca","9300 Civic Center Drive","organic baked goods cheese flowers eggs seafood herbs vegetables honey jams meat nuts plants poultry prepared-foods soap trees coffee fruits juices mushrooms","","market","http://www.beverlyhills.org/farmersmarket","-118.398907","34.074257","90210"
"City of Big Bear Lake","https://www.facebook.com/BigBearFarmersMarket","Big Bear Farmers Market","ca","42900 Big Bear Blvd","baked goods cheese crafts flowers eggs herbs vegetables honey jams meat nuts plants poultry prepared-foods soap trees coffee fruits grains pet food","","market","http://www.highdesertfarmersmarket.com","-116.866714","34.260803","92315"
"Bishop","Bishop Farmers' Market","Bishop Farmers' Market - Eastern Sierra Certified Farmers Market","ca","200 Church Street","organic flowers eggs herbs vegetables honey jams fruits mushrooms","","market","","-118.397430","37.362109","93514"
"Bishop","","Bishop Market","ca","377 W Line St","","","market","","-118.398","37.3615",""
"San Jose","https://www.Facebook.com/SanJoseFarmersMarket","Blossom Hill Certified Farmers' Market","ca","Santa Teresa Blvd and Highway 85 & 87 Interchange","organic baked goods cheese flowers eggs seafood herbs vegetables honey jams meat nuts plants poultry prepared-foods soap trees beans fruits grains juices mushrooms","https://twitter.com/cafarmersmkts","market","http://www.cafarmersmkts.com/markets/category/blossom","-121.860023","37.256325","95136"
"Boonville","","Boonville CFM","ca","14040 Hwy 128- Boonville Hotel","organic crafts flowers herbs vegetables honey jams nuts plants prepared-foods soap","","market","","-123.368","39.0091","95415"
"Borrego Springs","","Borrego Springs Chamber of Commerce Farmers Market","ca","Christmas Circle and Palm Canyon Drive","","","market","","-116.378","33.2566","92004"
"Brea","","Brea Farmers Market","ca","Brea Blvd. & Birch St.","","","market","","-118.236","34.0391","92821"
"Brentwood","https://www.facebook.com/BrentwoodFarmersMarket","Brentwood Farmers' Market","ca","First St. and Oak St.","organic baked goods cheese flowers eggs seafood herbs vegetables honey jams meat nuts poultry prepared-foods soap fruits juices mushrooms","","market","http://www.pcfma.org","-121.6948205","37.9326219",""
"Bakersfield","","Brimhall CFM","ca","9500 Brimhall Road","","","market","","-119.108","35.3696",""
"Stockton","","Brookside Farmers' Market","ca","3603 St. Andrews Dr.","baked goods vegetables prepared-foods","","market","http://www.pcfma.com/market_home.php?market_id=75","-121.3594640","37.9788110","95219"
"Brownsville","","Brownsville Farmers Market","ca","16822 Willow Glen Road","baked goods crafts flowers eggs herbs vegetables honey jams nuts plants soap trees coffee fruits","","market","http://www.brownsvillefarmersmarket.net","-121.283162","39.457104","95919"
"Burbank","https://www.facebook.com/burbankfarmersmarket","Burbank Certified Farmers' Market","ca","150 N. Third Street Burbank, CA 91502","organic baked goods cheese flowers eggs seafood herbs vegetables honey jams meat nuts plants poultry prepared-foods soap trees beans fruits juices mushrooms","@BurbFarmMkt","market","http://www.burbankfarmersmarket.org","-118.3079771","34.1828004","91502"
"Burlingame","","Burlingame Fresh Market Farmers Market","ca","Howard Ave. & Park","","","market","http://www.burlingamechamber.org","-122.346","37.5773","94010"
"Burney","","Burney Certfied Farmers Market","ca","37143 Main St","organic baked goods crafts flowers herbs vegetables honey jams meat nuts plants prepared-foods soap","","market","http://www.shastagrowersassociation.com","-121.664","40.8821","96013"
"Redding","","Burney Wednesday Farmers Market","ca","VFW Hall - Main Street","","","market","","-122.367","40.6783","96099"
"Calabasas","","Calabasas Old Town Farmers Market","ca","Calabasas & Mulholland Dr.","","","market","","-118.636","34.1587","91303"
"Calexico","https://www.facebook.com/clxfarmersmarket","Calexico Farmers Market","ca","850 Encinas Avenue","organic crafts flowers vegetables honey plants prepared-foods soap trees coffee fruits juices","","market","http://calexicorecreation.org/events/calexico-farmers-market","-115.487132","32.675850","92231"
"Palo Alto","","California Avenue Farmers' Market","ca","California Ave. and El Camino St.","organic baked goods cheese crafts flowers eggs seafood herbs vegetables honey jams meat nursery nuts plants poultry prepared-foods soap trees","","market","http://www.urbanvillageonline.com","-122.1253090","37.4141716","94304"
"Calistoga ","","Calistoga Farmers Market","ca","1235 Washington Street ","organic baked goods cheese crafts flowers eggs seafood herbs vegetables honey jams meat nuts plants poultry prepared-foods soap trees wine coffee fruits mushrooms","","market","http://www.calistogafarmersmarket.com","-122.580231","38.578829","94515"
"Camarillo ","","Camarillo Hospice Certified Farmers Market","ca","2220 Ventura Blvd.","organic baked goods crafts flowers eggs seafood herbs vegetables honey jams meat nuts plants prepared-foods soap trees coffee fruits juices pet food","","market","http://camarillofarmersmarket.com","-119.041311","34.216538","93010"
"Cambria","","Cambria Farmers Market","ca","Veterans Memorial Hall, Main & Cambria Streets","","","market","","-121.096","35.5644","93428"
"San Jose","","Cambrian Park Farmers' Makret","ca","Camden Ave. & Union Ave.","organic baked goods cheese crafts flowers eggs seafood herbs vegetables honey jams meat nursery nuts plants poultry prepared-foods soap trees","","market","http://www.urbanvillageonline.com","-121.9314131","37.261812","95124"
"Cameron Park","","Cameron Park Wednesday Farmers' Market","ca","Burke's Junction (Coach Lane)","organic baked goods flowers eggs seafood herbs vegetables nuts plants poultry soap fruits","","market","http://www.eldoradofarmersmarket.com","-120.972640","38.657728","95682"
"Campbell","","Campbell Farmers' Market","ca","Campbell Avenue at Central Ave.","organic baked goods cheese crafts flowers eggs seafood herbs vegetables honey jams meat nursery nuts plants poultry prepared-foods soap trees","","market","http://www.urbanvillageonline.com/","-121.944","37.2871","95008"
"canoga park","https://www.facebook.com/canogafarmersmarket/","Canoga Park Certified Farmers Market","ca","7248 Owensmouth st","organic baked goods cheese crafts flowers eggs seafood herbs vegetables honey meat nuts poultry prepared-foods soap trees coffee beans fruits grains juices","","market","http://coastalpacificinfo.us","-118.601612","34.203746","91303"
"Canyon Lake","","Canyon Lake CFM","ca","31528-31568 Railroad Canyon Road","","","market","","-117.253","33.6733",""
"Carmel","https://www.facebook.com/pages/Monterey-Bay-Certified-Farmers-Markets/112446802152723","Carmel Farmers Markets at the Barnyard Shopping Village","ca","3690 The Barnyard","organic baked goods cheese flowers eggs herbs vegetables honey jams nuts plants poultry trees fruits","https://twitter.com/MBFarmersMarket","market","http://www.montereybayfarmers.org","-121.9270394","36.9872756","93923"
"Carpenteria","","Carpenteria CFM","ca","800 Block Linden Ave.","","","market","","-119.52","34.3976",""
"Carson","","Carson Farmers Market","ca","Carson St. & Bonita St.","","","market","http://www.farmernet.com","-118.259","33.8316","90810"
"San Francisco ","facebook.com/CastroFarmersMarket","Castro Certified Farmers' Market","ca","Noe St. and Market St.","organic baked goods cheese flowers eggs seafood herbs vegetables honey jams meat nuts poultry prepared-foods soap beans fruits mushrooms","twitter.com/PacCoastFarmers","market","http://pcfma.org","-122.433102","37.764428","94114"
"Castro Valley","","Castro Valley Farmers' Market","ca"," Redwood Road And Norbridge Ave.","organic baked goods cheese crafts flowers eggs seafood herbs vegetables honey jams meat nursery nuts plants poultry prepared-foods soap trees","","market","http://www.urbanvillage@earthlink.net","-122.0739386","37.6925557","94546"
"Cayucos","","Cayucos Farmers Market","ca","Vets Hall  Parking Lot","","","market","","-120.912","35.4454","93430"
"Los angeles  California","","Central Ave Farmers Market","ca","4301 Central Ave  at 43rd st","organic herbs vegetables honey nuts prepared-foods","","market","http://www.farmernet.com","-118.256","34.0058","90011"
"Bakersfield","","Central Park FM","ca","19Th St. and Q St.","","","market","","-119.011","35.3761",""
"Merced","","Central Valley Farmers Market","ca","900 ""G"" Street","eggs seafood herbs vegetables honey nursery nuts plants poultry prepared-foods soap trees","","market","","-120.4804530","37.2906169",""
"Atwater","","Central Valley Farmers Market","ca","2877 Atwater Boulevard","seafood herbs vegetables nuts plants prepared-foods soap trees","","market","","-120.6299","37.35376","95301"
"Tarzana","","Century City Farmers Market","ca","Constellation Blvd & Avenue of Stars","","","market","http://www.ccfm.com","-118.416","34.0587","91356"
"Ceres","","Ceres Farmer's Market","ca","2921 Third Street","","","market","http://www.cerespartnership.org","-120.955","37.5913","95307"
"Cerritos ","https://www.facebook.com/harborareafarmersmarkets","Cerritos Farmers Market","ca","17870 Park plaza Drive","organic baked goods flowers eggs seafood herbs vegetables honey jams nuts plants poultry prepared-foods trees fruits juices mushrooms","","market","http://www.goodveg.org","-118.062538","33.869285","90703"
"Temecula","Promenade Mall Farmers' Market","CFM at the Promenade Mall","ca","40820 Winchester Road","organic baked goods cheese crafts flowers eggs herbs vegetables honey jams nuts plants prepared-foods soap trees beans fruits pet food","","market","http://www.myfarmersmarkets.com","-117.155106","33.523148","92591"
"Sacramento","","CFMS Certified Farmers' Market","ca","15th and Lst (East End State Capitol Park) ","","","market","http://www.localharvest.org/cfms-certified-farmers-markets-of-sacramento-M45555","-121.489","38.5729",""
"San Jose","champfarmermarkets@facebook.com","CHAMP Certified Farmer Markets - Almaden/Via Valiente Plaza","ca","Almaden Expressway @ Via Valiente","organic baked goods crafts flowers eggs herbs vegetables fruits","","market","","-121.846216","37.209328",""
"Chico","https://www.facebook.com/groups/325905940864004/?fref=ts","Chapman Food & Fitness Festival","ca","1010 Cleveland Avenue","organic baked goods crafts flowers eggs herbs vegetables honey jams plants poultry soap trees fruits","","market","http://www.cchaos.org","-121.815374","39.727376","95928"
"Chatsworth","","Chatsworth Farmers Market","ca","Devonshire St.","","","market","http://www.farmernet.com","-118.597","34.2572","91311"
"Menifee","https://www.facebook.com/pages/Cherry-Hills-Farmers-Market/271647742864400","Cherry Hills Farmers Market","ca","26834 Cherry Hills Blvd.","baked goods crafts eggs vegetables honey jams nuts plants prepared-foods soap trees fruits","","market","","-117.190937","33.710775","92586"
"PARADISE","","Chico CFM In Paradise","ca","6400 Clark Rd.","","","market","","-121.598","39.7704",""
"Chico","","Chico Wednesday Farmers Market","ca","North Valley Plaza, East Ave. & Pillsbury Rd.","","","market","","-121.848","39.7606","95973"
"Chino","","Chino CFM","ca","13220 Central Ave.","","","market","","-117.69","34.0126",""
"Chowchilla","","Chowchilla Farmers Market","ca","Robertson Blvd. & 6th St.","","","market","","-120.264","37.1201","93610"
"Chula Vista","","Chula Vista Farmers Market","ca","3rd Ave. & Center St.","","","market","","-117.08","32.6403","91915"
"Chula Vista","","Chula Vista Otay Ranch Certified Farmers Market","ca","2015 Birch Road and Eastlake Blvd","","","market","http://www.otayranchtowncenter.com","-116.968","32.6231","91915"
"San Diego","https://www.facebook.com/CityHeightsFarmersMarket","City Heights Certified Farmers Market","ca","4325 Wightman Street","crafts eggs herbs vegetables honey jams nuts plants prepared-foods soap trees coffee fruits juices wild","","market","http://www.sdfarmbureau.org","-117.101521","32.747831","92105"
"San Diego","Clairemont Farmers Market","Clairemont Certified Farmers Market at Madison High School","ca","4833 Doliva Dr","organic baked goods cheese crafts flowers eggs seafood herbs vegetables honey jams meat nuts poultry prepared-foods soap coffee beans fruits grains juices pet food tofu","@clairemontfm","market","http://www.ClairemontFarmersMarket.com","-117.175467","32.829628","92111"
"Claremont","https://www.facebook.com/pages/Claremont-Farmers-Artisans-Market/148040805240200?fref=ts","Claremont Farmers & Artisans Market","ca","Indian Hill Blvd. and 2nd Avenue","organic baked goods crafts flowers eggs seafood herbs vegetables honey nuts plants poultry prepared-foods soap fruits","","market","http://www.claremontforum.org","-117.718999","34.095636","91711"
"Clayton","https://www.facebook.com/ClaytonMarket","Clayton Farmers' Market","ca","Diablo St. between Main and Center","organic baked goods flowers herbs vegetables honey nuts prepared-foods soap fruits mushrooms","","market","http://www.pcfma.org","-121.9357925","37.9410341",""
"Clearlake","","Clearlake Friday Night FM","ca","Lakeshore and Ball Park Road.","baked goods cheese crafts flowers eggs herbs vegetables honey jams plants prepared-foods soap trees fruits","","market","","-122.636415","38.948893","95422"
"San Francisco","https://www.facebook.com/ClementStreetFarmersMarket/","Clement St. Farmers Market","ca","Clement St. between 2nd and 4th","organic baked goods cheese flowers eggs seafood herbs vegetables honey jams maple meat nuts poultry prepared-foods wine coffee beans fruits grains juices mushrooms","","market","http://www.agriculturalinstitute.org","-122.460989","37.783062",""
"Delano","","Clinica Sierra Vista (Delano)","ca","1508 Garces Hwy.","","","market","","-119.237","35.761",""
"Lamont","","Clinica Sierra Vista (Lamont)","ca","8787 Hall Road","","","market","","-118.908","35.259",""
"Cloverdale","https://www.facebook.com/pages/Cloverdale-Certified-Farmers-Market/120845221449110","Cloverdale Certified Farmers Market","ca","Cloverdale Blvd between 1st and 2nd Streets","organic baked goods cheese crafts flowers eggs herbs vegetables honey jams plants prepared-foods soap fruits juices mushrooms wild","","market","http://www.cloverdalefarmersmarket.com","-123.017263","38.805805","95425"
"Clovis","","Clovis Old Town Farmers Market","ca","Pollasky Ave. & 5th St.","","","market","http://www.OldTownClovis.com","-119.702","36.8239","93613"
"Coarsegold ","","Coarsegold Farmers Market","ca","35300 Hwy 41 ","organic baked goods eggs herbs vegetables honey jams prepared-foods soap trees fruits","","market","","-119.701521","37.261926","93614"
"Half Moon Bay ","https://www.facebook.com/Coastside-Farmers-Market-in-Half-Moon-Bay-135241926498880/","Coastside Farmers' Market - Half Moon Bay ","ca","225 Cabrillo Highway","organic baked goods cheese flowers eggs seafood herbs vegetables honey jams meat nuts plants poultry prepared-foods soap trees coffee beans fruits juices mushrooms tofu wild","","market","http://www.coastsidefarmersmarket.org","-122.432880","37.465552","94019"
"Pacifica ","https://www.facebook.com/Coastside-Farmers-Market-in-Pacifica-112386032145910/","Coastside Farmers' Market - Rockaway Beach, Pacifica","ca","450 Old County Road","organic baked goods cheese flowers eggs seafood herbs vegetables honey jams meat nuts plants poultry prepared-foods soap trees beans fruits juices mushrooms tofu","","market","http://www.coastsidefarmersmarket.org","-122.495184","37.609335","94044"
"Colfax","","Colfax Farmers Market","ca","Main Street at California Street","","","market","http://www.foothillfarmersmarket.com","-120.957","39.0884","95713"
"San Mateo ","facebook.com/CollegeofSanMateoFarmersMarket","College of San Mateo Certified Farmers' Market","ca","1700 W. Hillsdale Blvd.","organic baked goods cheese crafts flowers eggs seafood herbs vegetables honey jams meat nuts poultry prepared-foods soap trees wine coffee beans fruits juices mushrooms pet food tofu","twitter.com/PacCoastFarmers","market","http://pcfma.org","-122.337849","37.533092","94403"
"Columbia ","https://www.facebook.com/ColumbiaFarmory","Columbia Farmory and Mountain People Organics","ca","10800 Airport Road","organic baked goods cheese crafts flowers eggs seafood herbs vegetables honey jams maple meat nuts plants poultry prepared-foods soap trees coffee beans fruits grains juices mushrooms","","market","http://MountainPeopleOrganics.com","-120.4100110","38.0293950","95310"
"Colusa","","Colusa Farmers Market","ca","2963 Davison Ct.","","","market","","-121.997","39.187",""
"Compton ","","Compton Blue Line Farmers Market ","ca","101 E Palmer Street","organic baked goods seafood vegetables honey nuts prepared-foods soap coffee fruits juices","","market","","-118.2239734","33.8979171","90220"
"Concord","https://www.facebook.com/ConcordFarmersMarket","Concord Farmers' Market","ca","2100 Salvio St","organic baked goods flowers eggs herbs honey jams nuts poultry prepared-foods soap fruits","","market","http://www.pcfma.org","-122.0339936","37.9777842",""
"Corning ","https://www.facebook.com/Cornings-Thursday-Night-Farmers-Market-305516792872003/","Corning Certified Farmers' Market","ca","1424 Colusa St.","organic baked goods crafts flowers eggs vegetables honey jams prepared-foods soap fruits","","market","","-122.185434","39.931718","96021"
"San Clemente","","Corona Del Mar Farmers Market","ca","Margarite & Pacific Coast Highway","","","market","","-117.869","33.6004","92672"
"Corona","https://www.facebook.com/coronafarmersmarket","CoronaCFM","ca","488 N. Main Street","organic baked goods crafts flowers eggs herbs vegetables honey jams nuts plants poultry soap trees fruits","","market","http://www.myfarmersmarkets.com","-117.565260","33.886153","92878"
"Coronado","","Coronado Certified Farmers Market","ca","Ferry Landing, 1st & B","organic cheese flowers eggs herbs vegetables honey jams nuts plants fruits","","market","","-117.167736","32.697827","92118"
"Novato","","Corte Madera Farmers Market","ca","Town Center Central Courtyard","","","market","","-122.551","38.0703","94949"
"Costa Mesa","https://www.facebook.com/ocfarmbureaufarmersmarkets","Costa Mesa Certified Farmers' Market","ca","88 Fair Drive","organic baked goods cheese flowers eggs seafood herbs vegetables honey jams meat nuts plants poultry prepared-foods trees coffee fruits juices mushrooms","","market","http://www.orange.cfbf.com","-117.906013","33.665563","92626"
"cotati ","https://www.facebook.com/CotatiFarmersMarket/","Cotati Community Farmers Market ","ca","Old Redwood Hwy and W Sierra","organic baked goods crafts flowers eggs herbs vegetables honey jams meat nuts prepared-foods soap wine coffee fruits juices tofu","","market","http://www.communityfarmersmarkets.com","-122.707298","38.326544","94931"
"Coto de Caza","","Coto De Caza Farmers Market","ca","Antonio Pkwy. & Coto de Caza Dr.","","","market","","-117.603","33.4179","92672"
"Cottonwood Creek","","Cottonwood Creek Watershed CFM","ca","3308 Main Street, Cottonwood, Ca 96022","","","market","","-122.282","40.384",""
"Paso Robles","","Country Farm & Craft Market Paso Park","ca","Spring & 11th Street","organic baked goods crafts flowers herbs vegetables honey jams nuts plants prepared-foods soap","","market","http://www.countryfarmandcraftmarket.com","-120.691","35.6258","93446"
"Paso Robles","","Country Farm & Craft Market Paso Park","ca","Golden Hills Shopping Center (Lowe's)","organic crafts flowers herbs vegetables prepared-foods","","market","http://www.countryfarmandcraftmarket.com","-120.659","35.6447","93446"
"Paso Robles","","Country Farm & Craft Market Paso Park","ca","81 Wellsona Road","organic baked goods crafts flowers herbs vegetables plants prepared-foods soap","","market","http://www.countryfarmandcraftmarket.com","-120.697","35.6958","93446"
"Covina","","Covina CFM","ca","School St. and Citrus Ave.","","","market","","-117.89","34.0893",""
"Los Angeles","https://www.facebook.com/pages/Crenshaw-Farmers-Market/298496636834537","Crenshaw Farmers' Market","ca","3650 Crenshaw Blvd.","organic eggs","","market","http://www.seela.org","-118.335221","34.010835","90008"
"Crescent City","","Crescent City Farmers Market","ca","Parking lot of, Del Norte Fairgrounds parking lot","","","market","http://www.northerncalifornia.net","-124.147","41.8548","95531"
"Stockton","","Crosstown Freeway Farmers' Market","ca","203 E. Washington Street","organic baked goods eggs seafood herbs vegetables honey nuts prepared-foods","","market","http://www.stocktonfarmersmarket.org","-121.287228","37.950864","95202"
"Culver City","","Culver City Farmers Market","ca","Main & Culver","","","market","http://www.farmernet.com","-118.396","34.0247","90232"
"Encinitas","","Daily Harvest Market ","ca","155 Quail Gardens Dr.","","","market","http://www.dailyharvestmarket.com/","-117.279","33.0489","92024"
"Daly City","https://www.Facebook.com/DCFarmersMkt","Daly City Certified Farmers' Market at Serramonte Center","ca","Hwy 280 and Serramonte Blvd.","organic baked goods cheese flowers eggs seafood herbs vegetables honey jams meat nuts plants prepared-foods trees beans fruits grains juices mushrooms","https://twitter.com/cafarmersmkts","market","http://www.cafarmersmkts.com/markets/category/daly-city","-122.470410","37.674302","94015"
"Danville","https://www.facebook.com/DanvilleFarmersMarket","Danville Farmers' Market","ca","Railroad and Prospect","organic baked goods cheese flowers eggs seafood herbs vegetables honey jams meat nuts plants poultry prepared-foods soap trees coffee beans fruits juices","","market","http://www.pcfma.org","-122.0006143","37.8211141",""
"Davis ","","Davis Farmers Market","ca","C and 3rd Street","organic baked goods cheese crafts flowers eggs seafood herbs vegetables honey jams maple meat nuts plants prepared-foods soap trees wine coffee beans fruits grains juices mushrooms","","market","http://www.davisfarmersmarket.org","-121.7436228","38.5441501","95617"
"Del Mar","","Del Mar Farmers Market","ca","1050 Camino Del Mar","","","market","","-117.264","32.9548","92014"
"Monterey","https://www.facebook.com/pages/Monterey-Bay-Certified-Farmers-Markets/112446802152723","Del Monte Farmers Markets at Del Monte Shopping Center","ca","1410 Del Monte Center","organic flowers eggs herbs vegetables jams nuts plants poultry trees fruits","https://twitter.com/MBFarmersMarket","market","http://www.montereybayfarmers.org","-121.9270394","36.9872756","93940"
"Sacramento","","Del Paso Heights Community CFM","ca","3525 Norwood Ave.","organic flowers vegetables","","market","","-121.457687","38.630951","95838"
"Wasco","","Delano Farmers Market","ca","1508 Garces Hwy.","","","market","","-119.428","35.761","93280"
"Roseville","https://www.facebook.com/Denios","Denio's Farmers Market","ca","1551 Vineyard Road","baked goods crafts flowers seafood herbs vegetables honey jams meat nuts plants prepared-foods soap trees wine coffee beans fruits","","market","http://www.deniosmarket.com","-121.3031","38.74163","95678"
"Walnut Creek","https://www.Facebook.com/DVFarmersMkt","Diablo Valley Certified Farmers' Market","ca","Mitchell Dr. & N. Wiget Lane","organic baked goods cheese flowers eggs seafood herbs vegetables honey jams meat nuts plants poultry prepared-foods soap trees coffee beans fruits grains juices mushrooms","https://twitter.com/","market","http://www.cafarmersmkts.com/markets/category/diablo-valley","-122.027490","37.927966","94598"
"Diamond Bar","","Diamond Bar Farmers Market","ca","Calvary Chapel Church","","","market","http://www.farmernet.com","-119.781","36.8199","91765"
"Hayfork","","Dinsmore Farmers Market","ca","Hwy. 36 & Dinsmore Store","","","market","","-123.38","40.4157","96041"
"Dinuba","","Dinuba Farmers Market","ca","L & Tulare St.","","","market","","-119.389","36.5464","93618"
"Cool","","Divide Farm Exchange","ca","2968 Highway 49","","","market","","-121.017","38.8875",""
"San Francisco ","facebook.com/DivisaderoFarmersMarket","Divisadero Certified Farmers' Market","ca","Grove St. and Divisadero St.","organic baked goods cheese flowers eggs seafood herbs vegetables honey meat nuts poultry prepared-foods soap fruits juices mushrooms","twitter.com/PacCoastFarmers","market","http://pcfma.org","-122.4380130","37.7759351","94117"
"San Francisco","","Divisidero Certified Farmers' Market","ca","1326 Grove St.","organic baked goods cheese flowers eggs seafood herbs vegetables honey meat nuts poultry prepared-foods soap","","market","http://www.pcfma.com/market_home.php?market_id=63","-122.4384765","37.7759726","94117"
"DOWNEY","","Downey CFM","ca","Second St.  and La Reina St.","","","market","","-118.134","33.9419",""
"Anaheim","https://www.facebook.com/AnaheimFarmersMarket","Downtown Anaheim Certified Farmers Market","ca","Center Street Promenade and Lemon Street","organic baked goods cheese crafts flowers eggs seafood herbs honey jams nuts plants prepared-foods soap trees fruits","twitter.com/downtownanaheim","market","http://www.anaheimfarmersmarkets.com","-117.9154545","33.8339308","92805"
"Berkeley","","Downtown Berkeley Farmers' Market","ca","Center Street & Martin Luther King Jr. Way","organic baked goods cheese flowers eggs seafood herbs vegetables honey jams meat nuts plants poultry prepared-foods soap trees coffee beans fruits grains juices mushrooms tofu wild","https://twitter.com/ecbfm","market","http://ecologycenter.org/fm","-122.2727922","37.8696915","94704"
"Chico","https://www.facebook.com/thursdaynightmarket/","Downtown Chico Thursday Night Market","ca","Broadway between 2nd & 5th Street","organic baked goods cheese crafts flowers eggs herbs vegetables honey jams meat nuts plants prepared-foods soap trees wine coffee fruits grains juices mushrooms pet food","","market","https://www.downtownchico.com/event-thursday-night-market_16.htm","-121.840525","39.728974","95928"
"El Cajon","https://www.facebook.com/DowntownElCajonFarmersMarket/","Downtown El Cajon Farmers Market","ca","201 E. Main Street","organic baked goods crafts vegetables honey jams nuts prepared-foods soap coffee fruits juices","","market","","-116.960239","32.794701","92020"
"Riverside","https://www.facebook.com/DowntownFarmersMarketRiverside?fref=ts","Downtown Farmers Market at Riverside","ca","5th at Main St.","organic baked goods cheese flowers eggs seafood herbs vegetables honey meat plants poultry trees fruits","","market","http://www.riversideca.gov/arts/farmers-market.asp","-117.372487","33.984884","92522"
"LOS ANGELES","","Downtown La CFM","ca","650 W 5Th Street","","","market","","-118.254","34.0505",""
"Lincoln","salle orchards","Downtown Lincoln Farmers Market","ca","F Street, between 5th and 6th Streets","organic baked goods crafts flowers herbs vegetables honey jams nuts poultry prepared-foods soap coffee fruits","","market","http://www.Salleorchards.com","-121.291610","38.892264","95648"
"Novato ","https://www.facebook.com/DowntownNovatoCommunityFarmersMarket/","Downtown Novato Community Farmers Market","ca","7th Street behind the CVS between Grant Ave & Novato Blvd ","organic baked goods cheese crafts flowers eggs seafood herbs vegetables honey jams nuts plants prepared-foods soap trees wine coffee beans fruits grains juices mushrooms tofu","","market","http://www.communityfarmersmarkets.com","-122.578749","38.107536","94947"
"Palo Alto","http://www.facebook.com/paloaltofarmersmarket","Downtown Palo Alto Farmers' Market","ca","Gilman St, between Hamilton and Forest","organic baked goods cheese flowers eggs seafood herbs vegetables honey jams meat nuts plants poultry prepared-foods soap trees wine coffee beans fruits grains juices mushrooms","@paloaltofarmers","market","","-122.159029","37.445330","94301"
"San Jose ","www.facebook.com/DowntownSanJoseFarmersMarket","Downtown San Jose Farmers' Market","ca","San Pedro Square, San Pedro St. and Santa Clara St.","organic baked goods cheese flowers eggs seafood vegetables honey nuts poultry prepared-foods coffee fruits mushrooms","www.twitter.com/PacCoastFarmers","market","http://www.pcfma.org","-121.8928620","37.3350887",""
"San Leandro","https://www.facebook.com/CUFarmFresh","Downtown San Leandro Certified Farmers' Market","ca","Parrott Street  and E. 14th Street","organic baked goods cheese crafts flowers eggs herbs vegetables honey jams nursery nuts plants prepared-foods soap wine","","market","","-122.153614","37.722350","94577"
"Santa Ana","facebook.com/dtsafarmersmarket","Downtown Santa Ana Certified Farmers' Market","ca","2nd St. & Sycamore","baked goods crafts eggs herbs vegetables honey meat poultry prepared-foods soap coffee fruits grains juices pet food","","market","http://dtsafarmersmarket.com","-117.869170","33.746286","92701"
"Santa Cruz","www.facebook.com/santacruzfarmersmarket/","Downtown Santa Cruz Farmers' Market","ca","Cedar St & Lincoln St.","organic baked goods cheese flowers eggs seafood herbs vegetables honey jams meat nuts plants poultry prepared-foods soap wine coffee beans fruits juices mushrooms","","market","http://www.santacruzfarmersmarket.org","-122.0270374","36.9724758",""
"Tracy","","Downtown Tracy Certified Farmers Market","ca","10th Street","organic baked goods cheese crafts flowers herbs vegetables honey jams nuts plants prepared-foods trees fruits","","market","http://www.sjcfarmersmarket.com","-121.426885","37.738328","95376"
"DUARTE","","Duarte","ca","E. Huntington Dr. & Buena Vista St.","","","market","","-117.978","34.1397",""
"Dublin","","Dublin","ca","4201 Central Parkway","organic baked goods cheese flowers eggs vegetables honey jams nuts prepared-foods soap fruits mushrooms tofu","","market","http://www.pcfma.org","-121.878639","37.710402","94568"
"Villa Grande","","Duncan Mills-West Sonoma Farmers Market","ca","25300 Steelhead Blvd.","","","market","","-123.052","38.4517","95486"
"Dunsmuir","","Dunsmuir Farmers Market","ca","Dunsmuir Ave. & Spruce","","","market","","-122.272","41.2122","96025"
"San Jose","www.facebook.com/ESCSFarmersMarket","E. Santa Clara St. Farmers' Market","ca","N. 14th St. and E. Santa Clara St.","organic baked goods cheese vegetables honey meat nuts prepared-foods trees fruits mushrooms","www.twitter.com/PacCoastFarmers","market","http://www.pcfma.org","-121.877095","37.342978",""
"Eagle Rock","https://www.facebook.com/EagleRockFarmersMarket/","Eagle Rock Farmers Market","ca","2035 Colorado Blvd","baked goods crafts flowers eggs vegetables honey nuts plants prepared-foods fruits juices","","market","http://www.eaglerockchamberofcommerce.com/farmers-market","-118.211619","34.139454","90041"
"Earlimont","","Earlimart (Tuesday)","ca","North State Street and Washington Street","","","market","","-119.271","35.8844",""
"Bakersfield","","East Bakersfield Community Health Center CFM","ca","815 Dr. Martin Luther King Jr Blvd.","","","market","","-118.985","35.3659",""
"Los Angeles","https://www.facebook.com/EHFarmersMkt","East Hollywood Certified Farmers' Market","ca","5448 Hollywood Blvd.","crafts eggs vegetables honey nuts prepared-foods fruits","https://twitter.com/EHFarmersMkt","market","http://www.ehfarmersmkt.com","-118.308138","34.101398","90027"
"Los Angeles","https://www.facebook.com/pages/East-Los-Angeles-Farmers-Market/484691574934322","East Los Angeles Farmers Market","ca","4801 East 3rd Street","baked goods crafts flowers eggs herbs vegetables honey jams nuts plants poultry prepared-foods soap trees fruits","https://twitter.com/Vela_ELA?refsrc=email","market","http://www.velasfarmersmarkets.org","-118.1609","34.03349","90022"
"East Los Angeles ","","East Los Angeles WEDNESDAY Farmers Market","ca","4848 East Civic Center Way","baked goods flowers eggs herbs vegetables honey nuts prepared-foods fruits","","market","http://www.velasfarmersmarkets.org","-118.168567","34.031506","90022"
"Oakland","","East Oakland Farmers Market","ca","73rd Ave. & International Blvd.","","","market","","-122.187","37.7591","94621"
"Oakland","","East Oakland Senior Center","ca","9255 Edes Ave.","","","market","","-122.189","37.7379",""
"East Palo Alto","","East Palo Alto Community Farmers Market","ca","1798-A Bay Road","organic vegetables fruits","","market","http://www.collectiveroots.org","-122.1338564","37.4711160","94303"
"Sacramento","https://www.facebook.com/pages/East-Sacramento-Farmers-Market/589433817782498","East Sacramento Farmer's Market","ca","3331 Park Way","baked goods cheese crafts flowers eggs seafood vegetables honey jams meat poultry prepared-foods coffee fruits juices mushrooms pet food","","market","http://www.eastsacfarmersmarket.com","-121.457852","38.576126","95816"
"LONG BEACH","","East Village Long Beach CFM","ca","1St Street and Elm St.","","","market","","-118.188","33.7681",""
"Los Angeles ","https://www.facebook.com/pages/Echo-Park-Farmers-Market/313522200882","Echo Park Farmers' Market","ca","Logan St. and Sunset Blvd","organic baked goods crafts flowers eggs herbs vegetables honey jams nuts poultry prepared-foods soap coffee beans fruits grains juices mushrooms tofu","","market","http://seela.org","-118.258630","34.076886","90026"
"El Cerrito","","El Cerrito Farmers Market","ca","El Cerrito Plaza","","","market","http://www.elcerritoplaza.com","-122.3","37.8997","94596"
"El Dorado Hills","","El Dorado Hills, Thursday Farmers Market","ca","Community Center (CSD), ElDorado Hills Blvd. @  Harvard Blvd.","organic baked goods crafts flowers seafood herbs vegetables honey meat poultry prepared-foods soap coffee beans fruits pet food","","market","http://www.eldoradofarmersmarket.com","-121.075495","38.683538","95762"
"Los Angeles","","El Segundo Farmers Market","ca","Grand & Eucalyptus","","","market","http://www.farmernet.com","-118.405","33.9208","90045"
"Elk Grove","","Elk Grove Certified Farmers' Market","ca","8217 Laguna Blvd","organic flowers eggs herbs vegetables honey jams meat nursery nuts plants poultry","","market","http://www.marketlocations.com","-121.405","38.42373","95758"
"Indio","","Empire Polo Club","ca","81800 Avenue 51","","","market","","-116.237","33.68",""
"Encinitas","https://www.facebook.com/Encinitas-Station-Certified-Farmers-Market-180841945358756/?ref=bookmarks","Encinitas Station Certified Farmers Market","ca","600 S Vulcan Ave","organic baked goods cheese flowers eggs vegetables honey jams nuts prepared-foods fruits juices","","market","http://farmersmarketencinitas.com","-117.292563","33.043816",""
"Van Nuys","Encino Farmers Market ","Encino Farmers Market","ca","17400 Victory Blvd","organic baked goods cheese crafts flowers eggs seafood herbs vegetables honey jams meat nuts poultry prepared-foods soap trees coffee fruits juices tofu","","market","http://www.encniofarmersmarket.org","-118.5128542","34.1862306","91406"
"Escondido","","Escondido Certified Farmers' Market","ca","262 East Grand Ave","organic baked goods cheese crafts flowers eggs seafood herbs vegetables honey jams meat nursery nuts plants poultry prepared-foods soap trees","","market","http://www.downtownescondido.com","-117.0790109","33.1230643","92025"
"San Jose","www.facebook.com/EvergreenFarmersMarket","Evergreen Farmers' Market","ca","4055 Evergreen Village Square","organic baked goods flowers eggs vegetables honey nuts prepared-foods fruits","www.twitter.com/PacCoastFarmers","market","http://www.pcfma.org","-121.773943","37.313921",""
"Greenfield","https://www.facebook.com/EssentialEatingFarmersMarket","Everyone's Harvest - Greenfield","ca","Greenfield, Between El Camino Real & 9th Ave.","","","market","","-121.241","36.3186","93933"
"Salinas","https://www.facebook.com/EssentialEatingFarmersMarket","Everyone's Harvest - Salinas","ca","Natividad, Natividad Medical Center in Salinas,","","","market","","-121.633","36.696","93933"
"Fairfax ","https://www.facebook.com/FairfaxCommunityFarmersMarket/","Fairfax Community Farmers' Market","ca","124 Bolinas Avenue","organic baked goods cheese crafts flowers eggs seafood herbs vegetables honey jams meat nuts plants poultry prepared-foods soap trees wine coffee beans fruits grains juices mushrooms pet food tofu","","market","http://www.communityfarmersmarkets.com","-122.589980","37.985729","94930"
"Fairfield ","","Fairfield CFM","ca","Jefferson St. and Texas St.","organic vegetables fruits","","market","","-122.0419010","38.2492249",""
"Fallbrook","","Fallbrook Certified Farmers Market","ca","102 S. Main Street","organic baked goods cheese crafts herbs vegetables honey jams plants prepared-foods soap trees fruits","","market","","-117.251115","33.381644","92028"
"Grass Valley","https://www.facebook.com/gvthursday.farmersmarket","Farm 2 Family Brunswick Friday Farmers Market","ca","10600 Bubling Wells Rd","organic baked goods flowers eggs herbs vegetables honey jams maple meat nuts poultry soap trees fruits pet food","","market","http://www.farm2familydirect.com","-121.027893","39.232620","95945"
"","https://www.facebook.com/FarmersMarketXP","Farmers Market Express","ca","","","","market","http://mab63.wordpress.com/2012/05/23/the-biggest-food-truck-ever/","","",""
"St. Helena ","","Farmers Market at Long Meadow Ranch","ca","738 Main Street","organic flowers eggs herbs vegetables honey jams meat soap wine fruits","","market","http://www.longmeadowranch.com","-122.463258","38.501106","94574"
"Anaheim","https://www.facebook.com/FarmersParkMarket","Farmers Park Market","ca","400 S. Anaheim Blvd","baked goods cheese crafts flowers eggs herbs vegetables honey jams nuts soap fruits","twitter.com/downtownanaheim","market","http://www.anaheimfarmersmarkets.com","-117.912324","33.832310","92805"
"Farmersville","","Farmersville FM","ca","175 East Front Street","","","market","","-119.206","36.3046",""
"Felton","www.facebook.com/santacruzfarmersmarket/","Felton Farmers' Market","ca","St. John's Church, Hwy. 9","organic baked goods flowers eggs seafood herbs vegetables honey jams meat nuts plants poultry prepared-foods soap trees wine coffee fruits juices","","market","http://www.feltonfarmersmarket.org","-122.073815","37.048109","95018"
"San Francisco","https://www.facebook.com/CUESA/?ref=bookmarks","Ferry Plaza Farmers Market","ca","1 Ferry Building ","organic baked goods cheese flowers eggs seafood herbs vegetables honey jams meat nuts poultry prepared-foods wine coffee beans fruits grains juices mushrooms tofu","@cuesa","market","http://www.cuesa.org","-122.3933208","37.7955703","94111"
"Sacramento","https://www.facebook.com/CertifiedFarmersMarketsofSacramento/","Florin Sears Store Certified Farmers' Market","ca","5901 Florin Road","","","market","http://www.california-grown.com","-121.435856","38.496659",""
"Camino","","Folsom Sutter St. Farmers Market","ca","Sutter St. & Wool St.","","","market","","-121.178","38.677","95709"
"Fontana","","Fontana Farmers' Market - Location I","ca","Sierra Ave. and Arrow Blvd.","baked goods crafts eggs vegetables soap fruits juices","","market","http://www.fontana.org/index.aspx?NID=2149","-117.4358061","34.0993664","92335"
"Fontana ","","Fontana Farmers' Market - Location II","ca","Cherry Ave. and Live Oak Ave.","baked goods cheese crafts vegetables honey nuts prepared-foods fruits","","market","http://www.fontana.org/index.aspx?NID=2149","-117.4864968","34.0407156","92335"
"Foresthill","","Foresthill Farmers Market","ca","On Foresthill Road","","","market","http://www.foothillfarmersmarket.com","-120.852","39.0092","95631"
"Fort Bragg","https://www.facebook.com/pages/Fort-Bragg-Farmers-Market","Fort Bragg CFM","ca","400 N. Franklin St","organic baked goods cheese flowers eggs seafood herbs vegetables honey jams meat plants poultry prepared-foods trees fruits juices","","market","http://www.mcfarm.org","-123.804781","39.445920","95437"
"Fort Jones","","Fort Jones Scott Valley Farmers Market","ca","Hwy. 3 at Marbleview Ave.","","","market","","-122.837","41.6164","96032"
"San Francisco","https://www.Facebook.com/FMCFarmersMkt","Fort Mason Center Certified Farmers' Market","ca","Marina Blvd and Buchanan Street","organic baked goods cheese flowers eggs seafood herbs vegetables honey jams meat nuts plants poultry prepared-foods soap trees beans fruits grains juices mushrooms","https://twitter.com/cafarmersmkts","market","http://www.cafarmersmkts.com/markets/category/fort-mason-center","-122.431302","37.806214","94123"
"Scotia","","Fortuna Farmers Market","ca","10th Street & L","","","market","","-124.159","40.7988","95518"
"Oakland ","https://www.facebook.com/freedomfarmersmrkt","Freedom Farmers' Market","ca","5316 Telegraph Ave","organic baked goods crafts vegetables honey jams nuts prepared-foods coffee fruits","","market","http://www.freedomfarmersmarket.com","-122.2617897","37.8388566","94609"
"Fremont","","Fremont Centerville Farmers Market","ca","Bonde Way & Fremont Blvd.","","","market","","-122.008","37.559","94538"
"Antioch ","https://facebook.com/freshapproach","Fresh Approach Mobile Farmers' Market","ca","213 F Street, Antioch","herbs vegetables beans fruits","https://twitter.com/FreshApproachSF","market","","-121.812514","38.016546","94509"
"","https://www.facebook.com/FreshestCargo","Freshest Cargo: Mobile Farmers Market","ca","","","","market","http://freshapproach.org/mobile-farmers-market/","","",""
"Fresno ","","Fresno Grizzlies Farm Grown Friday Farmer's Market","ca","Chukchansi Park Concourse","cheese eggs vegetables honey jams nuts fruits juices tofu","https://twitter.com/GrizzCommFund","market","http://www.fresnogrizzlies.com","-119.790525","36.731951","93721"
"Fresno","","Fresno Pavilion Saturday Farmers Market","ca","Pavilion West Shopping Center, Bullard & West","","","market","","-119.826536","36.822838","93729"
"Fresno","","Fresno Riverpark Tuesday Farmers Market","ca","J.O. Eaton Park","","","market","","-119.826908","36.823095","93729"
"Red Bluff","","Frontier Village Farmer's Market ","ca","645 Antelope Blvd","","","market","http://www.frontiervillagefarmersmarket.org/","-122.202","40.1851","96080"
"Oakland","","Fruitvale CFM (Sunday)","ca","34Th Ave. And 12Th Street","","","market","http://www.fruitvalevillage.net","-122.2236394","37.7758714","94601"
"Sunnyvale","","Full Circle Farm Stand","ca","1055 Dunford Way","herbs vegetables honey nursery plants","","market","http://www.fullcirclesunnyvale.org","-122.0061","37.34488","94087"
"Fullerton","","Fullerton Thursday Market","ca","Witshire &  Pomona","","","market","","-117.922","33.8724","92635"
"Fullerton","","Fullerton Wednesday Farmers Market","ca","450 West Orangethorpe- Woodcrest Park","","","market","","-117.932","33.8864","92634"
"Riverside","https://www.facebook.com/Galleria-at-Tyler-Riverside-Farmers-Market-329529333808763/","Galleria @ Tyler Riverside Farmers Market","ca","1370 Galleria @ Tyler","organic baked goods cheese crafts flowers eggs seafood herbs vegetables honey jams maple meat nuts plants prepared-foods soap trees coffee beans fruits grains juices wild","","market","http://coastalpacificinfo.us","-117.4578357","33.9097475","92503"
"Garberville","https://www.facebook.com/Southernhumboldtfarmersmarket","Garberville Farmers Market","ca","Church Street","organic baked goods cheese crafts eggs seafood herbs vegetables honey jams meat plants poultry prepared-foods soap trees fruits grains juices mushrooms wild","","market","http://www.localharvest.org","-123.7942429","40.1005456","95542"
"Garden Grove","","Garden Grove CFM","ca","Main Street & Garden Grove Blvd.","","","market","","-117.941","33.774",""
"Los Angeles","","Gardena Saturday Farmers Market","ca","13000 Van Ness","","","market","http://www.cafarmersmarkets.org","-118.318","33.931","90047"
"Los Angeles","","Gardena Wednesday Farmers Market","ca","1670 West 162 at La Salle","","","market","http://www.cafarmersmarkets.org","-118.306","33.8841","90047"
"GLENDALE","","Gigis Farmers Market","ca","889 American Way","","","market","","-118.211","34.1251",""
"Gilroy","","Gilroy Downtown Farmers Market","ca","7341 Monterey Road","organic baked goods cheese flowers seafood herbs honey meat plants prepared-foods soap","","market","http://www.gilroyspiceoflife.com","-121.568","37.006","95020"
"San Francisco ","facebook.com/GlenParkVillageFarmersMarket","Glen Park Village Certified Farmers' Market","ca","Bosworth St. and Diamond St. ","organic seafood herbs vegetables jams prepared-foods fruits mushrooms","twitter.com/PacCoastFarmers","market","http://pcfma.org","-122.433073","37.733595","94131"
"Glendora","","Glendora Farmers Market","ca","Glendora Ave. & Foothill Blvd.","","","market","http://www.gfma.org","-117.865","34.1352","91741"
"Willows","https://www.facebook.com/pages/Glenn-County-Certified-Farmers-Market/118339624873160","Glenn County Certified Farmers' Market - Willows","ca","100 Block of North Tehama","baked goods cheese crafts flowers eggs herbs vegetables honey jams meat nuts plants prepared-foods soap trees fruits grains","","market","http://www.glenncountyrcd.org","-122.1939143","39.5206168","95988"
"Sacramento","","Goethe Loop Farmers' Market","ca","10060 Goethe Rd","baked goods cheese flowers seafood herbs vegetables prepared-foods coffee fruits juices","","market","","-121.333373","38.550760","95827"
"Newcastle","","Gold Country Farmer's Market ","ca","3185 Auburn-Folsom Rd.","","","market","http://www.localharvest.org/gold-country-farmers-market-M37627","-121.117","38.8338","95658"
"San Diego ","https://www.facebook.com/GoldenHillFarmersMarket","Golden Hill Certified Farmers Market","ca","B Street and 28th St. ","baked goods crafts eggs seafood herbs vegetables honey jams maple meat nuts plants prepared-foods soap coffee fruits juices wild","","market","http://www.sdmarketmanager.com","-117.134551","32.717923","92102"
"Goleta","","Goleta FM","ca","5748 Calle Real Shopping Center","","","market","","-119.825","34.4417",""
"North Fork","","Good Stuff Farmer's Market","ca","33103 Road 228","","","market","","-119.504","37.2287",""
"Placerville ","","Gov't Center Friday Farmers' Market","ca","Fair Lane at the County Library parking lot","organic baked goods flowers herbs vegetables honey nuts plants prepared-foods soap coffee fruits","","market","http://www.eldoradofarmersmarket.com","-120.827756","38.728287","95667"
"Oakland","https://www.facebook.com/GrandLakeFarmersMarket/","Grand Lake-Oakland Farmers Market","ca","Splash Pad Park","organic baked goods cheese crafts flowers eggs seafood herbs vegetables honey jams maple meat nuts poultry prepared-foods soap trees wine coffee beans fruits grains juices mushrooms tofu","","market","https://www.agriculturalinstitute.org/directory/listing-details/grand-lake-oakland","-122.2478409","37.8105444",""
"Dobbins","","Grange Farmers Market","ca","9765 Marysville Road","","","market","","-121.231","39.3762",""
"Granite Bay","","Granite Bay Farmers Market","ca","5550 Douglas Boulevard","","","market","http://www.foothillfarmersmarket.com","-121.198","38.7447","95746"
"Milipitas","","Great Mall CFM","ca","1100 Great Mall Drive","organic baked goods crafts flowers eggs seafood herbs vegetables honey nuts plants poultry prepared-foods","","market","","-121.896894","37.411960","95035"
"Camino","www.facebook.com/pages/Green-Acres-Farmers-Market/1510388939197610","Green Acres Farmers Market","ca","3400 Carson Ct","organic flowers vegetables honey maple nuts trees wine fruits","","market","http://www.GreenAcresFarmersMarket.com","-120.703812","38.737783","95709"
"Los Angeles","","Green Believers Pop Up Market","ca","3320 S. Central Avenue","organic baked goods vegetables plants soap fruits","","market","","-118.2564992","34.0130728",""
"Greenfield","","Greenfield Sunday's Market","ca","Park Avenue","organic baked goods crafts vegetables nuts prepared-foods soap","","market","","-121.239","36.3177","93927"
"Fort Jones","","Greenview Scott Valley Farmers Market","ca","Hwy. 3 at Greenview","","","market","","-122.804","41.622","96032"
"Gridley","https://www.facebook.com/pages/Gridley-BID-Chamber-of-Commerce/134106769959464","Gridley Farmers Market","ca","Daddow Park","baked goods cheese crafts flowers eggs herbs vegetables honey jams plants prepared-foods soap fruits","","market","","-121.6951404","39.3646199","95948"
"Gualala","","Gualala CFM","ca","47950 Center St","","","market","http://www.mcfarm.org","-123.521","38.762","95445"
"Villa Grande","","Guerneville Farmers Market","ca","16209 First Street","","","market","","-123.023","38.4746","95486"
"San Jose","","Hanchett Farmers' Market","ca","1119 Hanchett Ave.","organic baked goods flowers vegetables prepared-foods","","market","http://www.pcfma.com/hanchett","-121.9132794","37.3320449","95126"
"Santa Barbara","","Harding Elementary School CFM","ca","1625 Robbins Street","","","market","","-119.722","34.4166",""
"Hayfork","","Hayfork Farmers Market","ca","Highway 3 across from U.S. Post Office","","","market","","-122.372","40.6825","96041"
"Hayward","https://www.facebook.com/HaywardFM/","Hayward Farmers Market","ca","777 B Street","organic baked goods cheese crafts flowers eggs seafood herbs vegetables honey nuts prepared-foods wine coffee fruits juices mushrooms tofu","","market","http://www.agriculturalinstitute.org","-122.084962","37.671385",""
"Healdsburg","https://www.facebook.com/HealdsburgFarmMarket","Healdsburg Certified Farmers' Market","ca","North and Vine Streets","organic baked goods cheese crafts flowers eggs seafood herbs vegetables honey jams meat nuts plants poultry prepared-foods soap trees fruits","","market","http://www.healdsburgfarmersmarket.org","-122.872210","38.611120","95448"
"Healdsburg","https://www.facebook.com/HealdsburgFarmMarket","Healdsburg Certified Farmers' Market-Wednesday","ca","North Street","organic baked goods cheese flowers eggs herbs vegetables fruits","","market","http://www.healdsburgfarmersmarket.org","-122.872536","38.611981","95448"
"San Francisco","https://www.facebook.com/pages/Heart-of-the-City-Farmers-Market/164898116861011?ref=hl","Heart of the City Farmers' Market","ca","1 United Nations Plaza","organic baked goods cheese flowers eggs seafood herbs vegetables honey jams meat nuts prepared-foods soap trees wine beans fruits grains juices mushrooms wild","","market","http://www.hotcfarmersmarket.org","-122.413932","37.779968","94102"
"West Hollywood","facebook.com/westhollywoodrec","Helen Albert Certified Farmers' Market","ca","1200 N. Vista St.","organic baked goods cheese flowers eggs seafood vegetables honey jams nuts prepared-foods coffee fruits juices","","market","https://www.weho.org/community/recreation-services/helen-albert-certified-farmers-market","-118.351209","34.094060","90046"
"Hemet","https://www.facebook.com/pages/Hemet-Farmers-Market","Hemet Farmers Market","ca","Harvard Street & Latham Street","organic baked goods crafts flowers eggs vegetables honey plants prepared-foods soap trees fruits","","market","http://www.hemetfarmersmarket.com","-116.970574","33.7493741","92543"
"Eureka","https://www.facebook.com/North.Coast.Growers.Association","Henderson Center Eureka Farmers Market","ca","F Street between Henderson and Russ","organic baked goods flowers eggs herbs vegetables honey jams meat nuts plants poultry soap trees beans fruits grains mushrooms","","market","http://www.humfarm.org","-124.163489","40.782507","95501"
"Hercules ","","Hercules Certified Farmer Market","ca","1515 Refugio Valley","organic baked goods crafts flowers eggs seafood herbs vegetables honey jams nuts plants prepared-foods soap trees fruits mushrooms","","market","","-122.2632755","38.0051985",""
"Rancho Cucamonga","","Heritage Harvest Certified Farmers Market @Victoria ","ca","12505 N Main St   91739","organic baked goods cheese crafts flowers eggs seafood herbs honey jams maple meat nuts plants poultry prepared-foods soap coffee beans fruits grains","","market","http://www.heritagefarmersmarket.blogspot.com","-117.532318","34.110872","91739"
"Hermosa Beach","","Hermosa Beach Farmers' Market","ca","1 Pier Avenue","organic baked goods crafts flowers eggs vegetables honey jams nuts prepared-foods soap coffee fruits juices","https://www.facebook.com/farmermarkHB/","market","http://www.farmermark.com/hermosabeach/","-118.401347","33.861972",""
"Victorville","High Desert Farmers Market","High Desert Farmers Market","ca","18422 Bear Valley RD","organic baked goods cheese crafts flowers eggs seafood herbs vegetables honey jams meat nuts poultry prepared-foods soap coffee fruits pet food","","market","http://www.highdesertfarmersmarket.com","-117.257633","34.473755","92395"
"Highland ","https://www.facebook.com/Highland Saturday Morning Marketplace","Highland Saturday Morning Marketplace Certified Farmers Market","ca","27981 Highland Avenue","baked goods crafts flowers eggs herbs vegetables honey jams nuts plants prepared-foods soap coffee fruits","","market","http://www.highlandchamber.org","-117.193861","34.135518","92346"
"San Diego","https://www.facebook.com/hillcrestfarmersmarket/","Hillcrest Farmers Market and Open Air Bazaar","ca","3960 Normal Street","baked goods cheese crafts flowers eggs seafood herbs vegetables honey jams maple meat nuts plants poultry prepared-foods soap trees wine coffee beans fruits grains juices mushrooms pet food tofu","https://twitter.com/FreshFabublous","market","http://hillcrestfarmersmarket.com","-117.1492445","32.7506031","92103"
"Los Angeles","https://www.facebook.com/HistoricFarmersMarket","Historic Downtown Certified Farmers Market","ca","W 5th St. between Spring St. and Broadway","baked goods cheese crafts flowers eggs vegetables honey prepared-foods soap coffee fruits juices mushrooms","","market","http://hdlabid.com/farmers-market/","-118.250147","34.047712","90014"
"Hollister ","https://www.facebook.com/HollisterFarmersMarket","Hollister Certified Farmers' Market","ca","5th & San Benito Street ","organic baked goods cheese crafts flowers eggs seafood herbs vegetables honey jams nuts plants poultry prepared-foods soap trees coffee fruits mushrooms","","market","","-121.4020840","36.8514605","95023"
"Los Angeles","","Hollywood Farmers' Market","ca","1500 Ivar Ave. & Selma Ave","organic baked goods cheese crafts flowers eggs seafood herbs vegetables honey jams meat plants poultry prepared-foods soap trees fruits","","market","http://www.seela.org","-118.3283","34.09986","90028"
"Hollister","","Hollywood Media Farmers Market","ca","1100 Block of Cole Ave.","","","market","http://www.farmernet.com","-121.607","36.7105","95023"
"Homewood","","Homewood Farmers Market","ca","Homewood Ski Resort, Parking Lot of Hwy. 89","","","market","http://www.foothillfarmersmarket.com","-120.169","39.0978","96141"
"Hoopa","","Hoopa Farmers Market","ca","Hoopa Shopping Center","","","market","","-123.677","41.0492","95546"
"San Diego","","Horton Square Certified Farmers Market","ca","225 Broadway","organic cheese flowers eggs herbs vegetables honey nuts plants fruits","","market","","-117.162","32.715","92101"
"Huntington Beach","https://www.facebook.com/ocfarmbureaufarmersmarkets","Huntington Beach Certified Farmers Market","ca","Main St and Pacific Coast Highway","organic baked goods flowers eggs seafood herbs vegetables honey jams nuts fruits juices","","market","http://www.orange.cfbf.com","-118.0019859","33.6571811",""
"Huntington Park","https://www.facebook.com/harborareafarmersmarkets","Huntington Park Farmers Market","ca","3401 East Florence Avenue","organic baked goods eggs herbs vegetables honey jams nuts plants prepared-foods trees fruits juices mushrooms","","market","http://www.goodveg.org","-118.204828","33.972982","90255"
"Idyllwild","","Idyllwild Farmers Market","ca","26100 Highway 243","","","market","","-116.715","33.745","92549"
"Imperial Beach","https://www.facebook.com/pages/Imperial-Beach-Certified-Farmers-Market/198627016846608","Imperial Beach Certified Farmers Market","ca","10 Evergreen Avenue","organic baked goods crafts flowers herbs vegetables honey jams nuts plants prepared-foods soap fruits juices pet food","","market","http://www.imperialbeachfarmersmarket.org","-117.131973","32.579555","91932"
"Inglewood","https://www.facebook.com/inglewoodcertifiedfarmersmarket/","Inglewood Certified Farmers' Market","ca","Manchester Blvd and Market Street","organic baked goods crafts flowers eggs vegetables honey jams nuts prepared-foods soap coffee fruits juices","","market","http://www.sjli.org","-118.351925","33.961210","90301"
"San Francisco","facebook.com/InnerSunsetMarket","Inner Sunset Certified Farmers' Market","ca","1325 8th Avenue","organic baked goods cheese flowers eggs seafood herbs vegetables honey jams nuts prepared-foods soap beans fruits juices","twitter.com/PacCoastFarmers","market","http://pcfma.org","-122.465774","37.763636","94122"
"Irvine","OC Farm Bureau Farmers Markets","Irvine Certified Farmers' Market","ca","Bonita Canyon and Turtle Ridge Road","organic baked goods cheese crafts flowers eggs seafood herbs vegetables honey jams meat nuts plants poultry prepared-foods soap trees coffee beans fruits juices mushrooms pet food tofu wild","","market","http://www.ocfarmbureau.org","-117.831346","33.633188","92603"
"Orange","https://www.facebook.com/ocfarmbureaufarmersmarkets","Irvine Regional Park Certified Farmers' Market","ca","1 Irvine Park Road","organic baked goods cheese flowers eggs seafood herbs vegetables honey jams nuts plants prepared-foods coffee fruits juices","","market","http://www.orange.cfbf.com","-117.7587735","33.7987107","92862"
"Fremont","https://www.facebook.com/IrvingtonMarket","Irvington Farmers' Market","ca","40900 Chapel Way","organic baked goods cheese flowers eggs seafood vegetables honey meat nursery plants poultry prepared-foods soap","","market","http://www.pcfma.com/irvington","-121.9635867","37.5329426","94538"
"Oakland ","https://www.facebook.com/jacklondonsqfm/","Jack London Square Farmers Market","ca","Jack London Square","organic baked goods cheese crafts flowers eggs seafood herbs vegetables honey jams meat nuts poultry prepared-foods soap wine coffee beans fruits juices mushrooms pet food","@cuesa","market","http://www.cuesa.org","-122.274453","37.794394",""
"Walnut","","Jack Newe's FM","ca","1920 S Brea Canyon Cut Off","","","market","","-117.867","33.9835",""
"San Jose","https://www.facebook.com/pages/Japantown-Business-Association/79475252650","Japantown Certified Farmers Market","ca","on Jackson St between 6th & 7th Streets","organic baked goods crafts flowers eggs herbs vegetables jams nuts plants prepared-foods soap fruits","https://twitter.com/jtownsj","market","http://www.japantownsanjose.org/market.html","-121.893","37.3498","95112"
"Joshua Tree","https://www.facebook.com/pages/Joshua-Tree-Farmers-Market/164059226980487","Joshua Tree Certified Farmers Market","ca","61651 Twentynine Palms Highway","organic baked goods cheese crafts flowers eggs seafood herbs vegetables honey jams meat nuts poultry soap coffee fruits juices mushrooms pet food","","market","http://www.joshuatreefarmersmarket.com","-116.3182535","34.1349431","92252"
"San Jose","","Julian St. James Farmers' Market","ca","750 East St.  John Street","organic baked goods flowers vegetables prepared-foods","","market","http://www.pcfma.com/julianstjames","-121.8764148","37.3449000","95112"
"Antioch ","","Kaiser Antioch Farmers' Market","ca","4501 Sand Creek Rd.","organic baked goods flowers herbs vegetables jams nuts prepared-foods soap fruits","","market","http://www.pcfma.org","-121.7757953","37.9518978",""
"Fremont","","Kaiser Fremont CFM","ca","39400 Paseo Padre Parkway","baked goods flowers vegetables nursery prepared-foods","","market","http://www.pcfma.com/market_home.php?market_id=33","-121.9750428","37.5519778","94538"
"Hayward","","Kaiser Hayward Farmers' Market","ca","27400 Hesperian Blvd","baked goods vegetables nuts plants prepared-foods","","market","http://www.pcfma.com/market_home.php?market_id=31","-122.0949658","37.6306054","94545"
"Panorama City","","Kaiser Medical Center Panorama City FM","ca","13652 Cantara Street","organic baked goods flowers herbs vegetables honey jams nursery nuts plants prepared-foods","","market","http://www.sfma.net","-118.430064","34.220674","91402"
"Woodland Hills","","Kaiser Medical Center Woodland Hills","ca","5601 De Soto Avenue","organic baked goods cheese flowers eggs seafood herbs vegetables honey jams meat nuts plants prepared-foods trees beans fruits juices","","market","","-118.589720","34.170913","91367"
"Oakland","","Kaiser Oakland Farmers' Market","ca","3801 Howe Street","organic baked goods flowers vegetables honey plants prepared-foods","","market","http://www.pcfma.com/market_home.php?market_id=9","-122.2565166","37.8246226","94607"
"Anaheim","","Kaiser Permanente Farmers Market - Anaheim Medical Center","ca","3440 E. La Palma Ave","organic baked goods cheese vegetables honey jams nuts prepared-foods coffee fruits","","market","","-117.844815","33.852659","92806"
"Fresno","","Kaiser Permanente Fresno Farmers Market","ca","7300 N. Fresno Street","organic baked goods cheese flowers eggs herbs vegetables honey jams nuts prepared-foods soap trees fruits juices","https://twitter.com/kpfresno","market","http://www.kp.org/fresno","-119.781524","36.843017","93720"
"Sacramento","salle orchards","Kaiser Permanente Morse Ave (Sacramento)","ca","2025 Morse Avenue","organic baked goods flowers vegetables honey jams nuts fruits","","market","http://www.Salleorchards.com","-121.393355","38.601219",""
"Sacramento","salle orchards","Kaiser Permanente Pointe West","ca","1650 Response Rd","baked goods flowers eggs herbs vegetables honey nuts prepared-foods fruits","","market","http://www.Salleorchards.com","-121.429913","38.596807",""
"San Jose ","","Kaiser Permanente San Jose Farmers' Market","ca","250 Hospital Parkway, San Jose, California 95119","organic baked goods flowers vegetables nuts plants prepared-foods trees fruits mushrooms","www.twitter.com/PacCoastFarmers","market","http://www.pcfma.org","-121.800143","37.240455",""
"Santa Clara","","Kaiser Permanente Santa Clara Farmers' Market","ca","710 Lawrence Expressway","organic baked goods cheese flowers vegetables honey plants prepared-foods trees fruits mushrooms","www.twitter.com/PacCoastFarmers","market","http://www.pcfma.org","-121.9985712","37.3363589","95051"
"Union City","","Kaiser Permanente Union City Farmers' Market","ca","3553 Whipple Road","organic baked goods vegetables plants prepared-foods","","market","http://www.pcfma.com/market_home.php?market_id=32","-122.0832352","37.6056764","94587"
"Redwood City","","Kaiser Redwood City Certified Farmers' Market","ca","Veterans Blvd. and Maple St.","organic herbs vegetables prepared-foods fruits","twitter.com/PacCoastFarmers","market","http://pcfma.org","-122.222647","37.488990","94063"
"San Francisco","","Kaiser San Francisco Certified Farmers' Market","ca","Geary St. and St. Joseph Ave.","organic baked goods vegetables jams prepared-foods fruits juices","twitter.com/PacCoastFarmers","market","http://pcfma.org","-122.442934","37.782694","94115"
"Harbor City","https://www.facebook.com/kaisersouthbayfarmersmarket?ref=hl","Kaiser South Bay Farmers' Market","ca","25825 S. Vermont Avenue","organic baked goods cheese flowers eggs herbs vegetables honey jams nuts prepared-foods fruits juices","https://twitter.com/MNPFarmersMkt","market","http://www.lacienegafarmersmarket.com","-118.293738","33.790081","90710"
"South San Francisco ","","Kaiser South San Francisco Certified Farmers' Market","ca","1200 El Camino Real","organic flowers herbs vegetables prepared-foods fruits","twitter.com/PacCoastFarmers","market","http://pcfma.org","-122.439480","37.658875","94080"
"Vallejo ","","Kaiser Vallejo Farmers' Market","ca","975 Sereno Dr.","organic baked goods cheese flowers eggs herbs vegetables honey nuts prepared-foods fruits","","market","http://www.pcfma.org","-122.2484432","38.1276700",""
"Walnut Creek","","Kaiser Walnut Creek","ca","1425 Main St.","organic baked goods flowers vegetables prepared-foods fruits","","market","http://www.pcfma.org","-122.0608974","37.8994941",""
"Kelseyville","","Kelseyville Steele Winery Farmers Market","ca","Highway 29 & Thomas Dr.","","","market","","-122.876","38.9971","95451"
"GLENDALE","","Kenneth Village","ca","1435 W. Kenneth Rd.","","","market","","-118.281","34.173",""
"","","Kenny's Farms","ca","3443 S Market Street","","","market","","-122.443","37.7574",""
"Kenwood ","https://www.facebook.com/kenwoodcommunityfarmersmarket/","Kenwood Community Farmers Market","ca","9000 Sonoma Hwy","organic baked goods crafts flowers eggs seafood vegetables jams nuts prepared-foods soap coffee fruits","","market","http://www.communityfarmersmarkets.com","-122.550344","38.418994","95452"
"Scottsdale","","Kerr Cultural Center Farmers and Craft Market","ca","6110 N. Scottsdale Road","","","market","","-121.414","38.4876","85250"
"King City","","King City Certified Farmers Market","ca","100 & 200 Block of Broadway St.","organic crafts flowers vegetables nuts plants","","market","http://www.kingcitychamber.com","-121.123753","36.214155","93930"
"Kings Beach","","King's Beach Farmers Market","ca","Highway 28 & Coon St.","","","market","http://www.foothillfarmersmarket.com","-120.15","39.15","96143"
"Los Angeles","","L.A. Adams/Vermont Farmers Market","ca","1432 W. Adams, St. Agnes Catholic Church","","","market","http://www.farmernet.com","-118.292","34.0324","90007"
"Los Angeles","","L.A. Arts District Little Tokyo Farmers Market","ca","700 Block, Traction St. & 3rd St.","","","market","","-118.236","34.0459","90039"
"Hollywood","","L.A. Central Avenue Farmers Market","ca","43rd St. & Central Ave.","","","market","http://www.farmernet.com","-121.448","38.5706","90028"
"Los Angeles","","L.A. Chinatown Farmers Market","ca","727 North Hill & Alpine","","","market","http://www.farmernet.com","-118.24","34.0628","90012"
"Los Angeles","","L.A. Harambee Farmers Market","ca","Crenshaw & Slausan","","","market","http://www.farmernet.com","-118.331","33.989","90010"
"Los Angeles","","L.A. Larchmont Village Farmers Market","ca","Larchmont Bldg., Lot #694","","","market","","-118.324","34.0834","90042"
"Hollywood","","L.A. Leimert Park Farmers Market","ca","43rd St. & Degnan","","","market","http://www.farmernet.com","-118.34","34.0106","90028"
"Los Angeles","","L.A. Melrose Place Farmers Market","ca","Melrose Place & Croft","","","market","","-118.374","34.0841","90029"
"Los Angeles","","L.A. Seventh & Fig Farmers Market","ca","Figueroa St. & 7th","","","market","http://www.farmernet.com","-118.26","34.0494","90017"
"Los Angeles","","L.A. Silverlake Farmers Market","ca","9700 Sunset Blvd.","","","market","http://www.farmernet.com","-118.282","34.0943","90029"
"Tarzana","","L.A. Wilshire Center Farmers Market","ca","Mariposa & Wilshire","","","market","http://www.ccfm.com","-119.016","36.0678","91356"
"La Canada Flintridge","","La Canada Flintridge Farmers Market","ca","Beulah Dr. & Foothill Ave.","","","market","http://www.farmernet.com","-118.198","34.2035","91011"
"Mid-City Los Angeles","https://www.facebook.com/kaiserwestlafarmersmarket?ref=hl","La Cienega CFM at Kaiser WLA","ca","6041 Cadillac Avenue and La Cienega Blvd.","organic baked goods cheese flowers eggs vegetables honey nuts prepared-foods fruits juices","https://twitter.com/MNPFarmersMkt","market","http://www.lacienegafarmersmarket.com","-118.375266","34.038659","90034"
"Mid-City Los Angeles","https://www.facebook.com/lacienegafarmersmarket?ref=hl","La Cienega Farmers' Market","ca","1801 So. La Cienega Blvd. and 18th Street","organic baked goods cheese flowers eggs seafood herbs vegetables honey jams nuts poultry prepared-foods soap trees coffee beans fruits juices mushrooms tofu","https://twitter.com/LaCienegaCFM","market","http://www.lacienegafarmersmarket.com","-118.377144","34.044349","90035"
"La Jolla","https://www.facebook.com/pages/La-Jolla-Open-Aire-Market/106322796070734?ref=hl","La Jara Farmer's Market ","ca","Corner of Girard St. and Genter Ave. ","","","market","http://www.lajollamarket.com/","-117.272","32.8376","92037"
"La Mesa","https://www.facebook.com/pages/La-Mesa-Certified-Farmers-Market/143905265741109","La Mesa Certified Farmers Market","ca","Corner of University and Spring St.","organic baked goods cheese flowers eggs vegetables honey jams meat nuts plants prepared-foods trees coffee fruits juices mushrooms wild","n/a","market","","-117.022129","32.767141","91941"
"Lafayette","","Lafayette Farmers Market","ca","Lafayette Park Plaza at Moraga Road and Mt. Diablo Blvd","organic baked goods seafood vegetables honey jams meat prepared-foods","","market","http://www.cccfm.org","-122.118","37.8918","94549"
"Laguna Beach","https://www.facebook.com/ocfarmbureaufarmersmarkets","Laguna Beach Certified Farmers Market","ca","Forest Ave and 3rd","organic baked goods cheese flowers eggs seafood herbs vegetables honey jams meat nuts plants prepared-foods trees coffee fruits juices mushrooms","","market","http://www.orange.cfbf.com","-117.781678","33.544917",""
"Laguna Hills","https://www.facebook.com/ocfarmbureaufarmersmarkets","Laguna Hills Certified Farmers' Market","ca","I-5 & El Toro Road, Laguna Hills Mall","organic baked goods cheese flowers eggs seafood herbs vegetables honey jams meat nuts plants poultry prepared-foods trees coffee fruits juices mushrooms","","market","http://www.orange.cfbf.com/","-117.704869","33.608951","92653"
"Laguna Niguel","https://www.facebook.com/ocfarmbureaufarmersmarkets","laguna niguel CFM","ca","La Paz and Pacific Park","organic baked goods cheese flowers eggs seafood herbs vegetables honey jams meat nuts coffee fruits juices","","market","http://www.orange.cfbf.com","-117.708279","33.568865","92677"
"Lake Arrowhead","","Lake Arrowhead Farmers Market","ca","28200 Hwy. 189, Hwys. 189 & 173","","","market","","-117.19","34.2494","92352"
"Auburn ","https://www.facebook.com/LOPFarmersMarket/","Lake of the Pines Association Certified Farmers Market","ca","11665 Lakeshore North ","baked goods cheese crafts flowers eggs vegetables honey jams meat nuts prepared-foods soap wine coffee fruits grains wild","","market","http://www.lop.org/sub_category_list.asp?category=108&title=Farmers+Market","-121.0664289","39.0406051","95602"
"Grass Valley","","Lake of the Pines Farmers Market","ca","Highway 49 at Wolf Road","","","market","http://www.foothillfarmersmarket.com","-121.123","38.9853","95949"
"Wofford Heights","https://www.facebook.com/#!/pages/Lakeshore-Farmers-Market/172012482833807","Lakeshore Farmers Market","ca","7455 Wofford Heights Bvld","organic baked goods cheese crafts flowers eggs herbs vegetables honey jams meat nuts plants prepared-foods soap trees coffee beans fruits wild","","market","","-118.440444","35.710347","93285"
"Lakewood ","www.facebook.com/lakewoodcenterfarmersmarket","Lakewood Center Farmers' Market","ca","500 Lakewood Blvd","organic baked goods cheese flowers eggs seafood herbs vegetables honey jams nuts plants prepared-foods soap trees coffee beans fruits juices mushrooms pet food wild","","market","http://Socalfarmersmarkets.net","-118.142220","33.852829","90712"
"Tarzana","","Larchmont Village Farmers Market","ca","Larchmont Blvd., Lot #694","","","market","http://www.ccfm.com","-118.324","34.0748","91356"
"Novato","","Larkspur Farmers Market","ca","Larkspur Landing Circle","","","market","","-122.564","38.0983","94949"
"Susanville","Lassen Land Trust","Lassen County Farmers' Market","ca","44 South Gay St. (Pancera Plaza) Uptown Susanville","baked goods crafts flowers eggs seafood vegetables honey meat plants poultry prepared-foods soap fruits grains","","market","http://lassenlandandtrailstrust.org ","-120.660774","40.417787","96130"
"Lawndale","","Lawndale Certified Farmers Market","ca","14717 Burin Ave.","organic baked goods crafts vegetables honey nuts prepared-foods fruits juices","","market","http://www.lawndalechamber.org","-118.354","33.8982","90260"
"Laytonville","Fans of Laytonville Farmers' Market","Laytonville Certified Farmers' Market","ca","44400 Willis Ave.","organic baked goods crafts flowers eggs herbs vegetables jams meat nuts plants poultry soap trees wine coffee fruits juices mushrooms","","market","http://www.MCFARM.org","-123.483235","39.681448","95454"
"Lemoore","","Lemoore Farmers Market","ca","D St.& Fox St.","","","market","","-119.786","36.3016","93245"
"Encinitas","","Leucadia/Encinitas Farmers Market and Art Fair","ca","185 Union Street (cross street Vulcan)","","","market","","-119.601","37.2417","92024"
"Los Angeles","Lincoln Heights Certified Farmers Market","Lincoln Heights Certified Farmers Market","ca","N. Broadway between Daly St & Workman parking lot","organic baked goods crafts flowers eggs herbs vegetables honey jams plants prepared-foods soap coffee fruits tofu","","market","http://LHBA.org","-118.215184","34.072899","90031"
"Lincoln","salle orchards","Lincoln Hills Sun City Farmers Market","ca","965 Orchard Creek Lodge","baked goods crafts flowers eggs herbs vegetables honey jams nuts prepared-foods soap coffee fruits","","market","http://www.Salleorchards.com","-121.276992","38.868909",""
"San Diego","https://www.facebook.com/LindaVistaFarmersMarket","Linda Vista Certified Farmers Market","ca","6939 Linda Vista Road","crafts eggs herbs vegetables honey jams nuts plants prepared-foods soap trees coffee fruits juices wild","","market","http://www.sdfarmbureau.org","-117.170726","32.785138","92111"
"San Diego ","https://www.facebook.com/LittleItalyMercato/","Little Italy Mercato CFM","ca","555 W Date Street","organic baked goods cheese crafts flowers eggs seafood herbs vegetables honey jams meat nuts plants poultry prepared-foods soap trees coffee beans fruits juices mushrooms pet food","https://twitter.com/LIMercato","market","http://LittleItalyMercato.com","-117.168261","32.722979","92104"
"San Diego ","https://www.facebook.com/LittleItalyWednesdayMarket/","Little Italy Wednesday Market","ca","555 W Date Street","organic baked goods cheese flowers eggs seafood herbs vegetables honey jams meat nuts poultry prepared-foods soap coffee fruits juices mushrooms pet food","","market","http://sandiegomarkets.com/little-italy-wednesday-market/","-117.168347","32.722618","92104"
"Live Oak","https://www.facebook.com/santacruzfarmersmarket","Live Oak Farmers Market","ca","15th East Cliff Dr.","organic baked goods cheese flowers eggs seafood herbs vegetables honey jams meat nuts plants poultry prepared-foods soap trees wine coffee beans fruits juices","https://twitter.com/SCFarmersMkts","market","http://www.santacruzfarmersmarket.org","-121.990419","36.963641","95062"
"Livermore","https://www.facebook.com/LivermoreFarmersMarket","Livermore Certified Farmers Market ","ca","Carnegie Park at 3rd and J St. ","","","market","http://www.pcfma.com/market_home.php?market_id=6","-121.768","37.6802","94551"
"Livermore","","Livermore Farmers' Market","ca","2152 Second Street","organic baked goods cheese flowers eggs seafood vegetables honey nuts plants poultry prepared-foods soap","","market","http://www.pcfma.com/livermore","-121.768545","37.679541","94550"
"Livermore","","Livermore Farmers' Market","ca","Railroad Ave. & L Street","organic baked goods flowers vegetables honey plants prepared-foods","","market","http://www.pcfma.com/livermore","-121.7720489","37.6826009","94550"
"Los Angeles","","LMU Farmers Market","ca","","organic baked goods crafts vegetables nuts prepared-foods","","market","","-118.2436849","34.0522342",""
"Lodi","","Lodi Farmers Market","ca","School St., Between Oak & Locust","","","market","","-121.261","38.1233","95420"
"Lodi","","Lodi Heritage Farmers Market","ca","509 East Eden","","","market","","-121.263","38.1279","95420"
"Nipomo","","Lompoc Farmers Market","ca","Ocean St. & I St.","","","market","","-120.459","34.6389","93444"
"Long Beach ","https://www.facebook.com/harborareafarmersmarkets","Long Beach Downtown Farmers Market","ca","212 West Third Street","organic baked goods crafts flowers eggs herbs vegetables honey jams nuts prepared-foods soap coffee fruits juices","","market","http://www.goodveg.org","-118.194516","33.770351","90802"
"Long Beach","https://www.facebook.com/harborareafarmersmarkets","Long Beach Southeast CFM","ca","6530 Marina Drive","organic baked goods cheese crafts flowers eggs seafood herbs vegetables honey jams meat nuts plants poultry prepared-foods soap trees coffee fruits juices mushrooms","","market","http://www.goodveg.org","-118.1116","33.75553","90803"
"Long Beach","https://www.facebook.com/harborareafarmersmarkets","Long Beach Uptown Farmers Market","ca","4600 Atlantic Avenue","organic baked goods eggs herbs vegetables honey jams nuts prepared-foods fruits juices","","market","http://www.goodveg.org","-118.184678","33.842291","90807"
"Los Altos","https://www.Facebook.com/LosAltosFarmersMkt","Los Altos Certified Farmers Market","ca","State Street and Second Street","organic baked goods cheese flowers eggs seafood herbs vegetables honey jams maple meat nuts plants poultry prepared-foods trees wine beans fruits grains juices","https://twitter.com/cafarmersmks","market","http://www.cafarmersmkts.com/markets/category/los-altos-farmers-market","-122.1173552","37.3791761","94022"
"Los Banos","","Los Banos Certified Farmers Market","ca","Hwy 152 & Pacheco Park","crafts herbs vegetables honey nuts prepared-foods soap fruits","","market","","-120.846041","37.056793","93635"
"Le Grand","","Los Banos Farmers Market","ca","7th St. & J St.","","","market","","-120.847","37.0597","95333"
"Los Gatos ","Los Gatos Farmers Market","Los Gatos Certified Farmers Market","ca","Main St & N Santa Cruz Ave","organic baked goods cheese flowers eggs seafood herbs vegetables honey jams meat nuts prepared-foods fruits","@cafarmersmkts","market","http://cafarmersmkts.com","-121.983407","37.222242","95030"
"Los Gatos","","Los Gatos Farmers Market","ca","Montabello Way & Broadway","","","market","http://www.los-gatos.ca.us/los_gatos/businesses/","-121.984","37.2216","95030"
"Compton","","Lynwood Farmers Market","ca","Martin Luther King & Cesar Chavez Lane","","","market","http://www.farmernet.com","-121.972","37.248","90221"
"Sacramento ","Mack Road-Valley Hi Farmers Market ","Mack Road -Valley Hi Farmers Market ","ca","6100 Mack Road ","baked goods flowers herbs vegetables honey jams prepared-foods soap fruits juices","","market","","-121.429056","38.473816","95823"
"Madera ","","Madera County Farmers' Market ","ca","210 West Yosemite ","crafts herbs vegetables honey fruits","","market","","-120.060730","36.960554","93638"
"Roseville","","Mahaney Park","ca","1545 Pleasant Grove Blvd","","","market","","-121.335","38.768",""
"Placerville","","Main Street Farmers Market","ca","385 Main Street","organic baked goods crafts flowers eggs seafood herbs vegetables honey jams meat poultry prepared-foods wine fruits","","market","http://www.facebook.com/farmtrails","-120.8012","38.72897","95667"
"Hanford","www.facebook.com/thursdaynightmarketplace","Main Street Hanford Thursday Night Market Place","ca","219 W. Lacey Blvd.","organic baked goods cheese crafts flowers eggs herbs vegetables honey jams meat nuts prepared-foods soap wine coffee fruits juices","@MainStHanford","market","http://www.mainstreethanford.com","-119.647262","36.326377","93230"
"Malibu","","Malibu Farmer's Market","ca","23519 Civic Center Way","","","market","http://www.malibufarmersmarket.net","-118.69","34.036","90265"
"Mammoth Lake","","Mammoth CFM","ca","Old Mammoth Rd.","","","market","","-118.982","37.629",""
"Mammoth Lake","","Mammoth Market","ca","Main Street","","","market","","-118.976","37.6483",""
"Manhattan Beach","","Manhattan Beach Farmers Market","ca","13th Street, between Valley and Morningside Drives","organic baked goods cheese flowers seafood herbs vegetables honey jams meat nuts plants prepared-foods","","market","http://www.mbfarmersmarket.com","-118.409","33.8869","90266"
"Manteca","","Manteca Certified Farmers Market","ca","100 Manteca Avenue","organic baked goods crafts herbs vegetables honey jams maple nuts prepared-foods soap fruits wild","","market","http://www.visitmanteca.org","-121.2198502","37.7977403","95337"
"Los Angeles","","Mar Vista Farmers' Market","ca","3826 Grand View Blvd/ Grand View at Venice Blvd","organic baked goods cheese flowers eggs seafood herbs vegetables honey jams meat plants poultry prepared-foods soap fruits","","market","http://www.marvistafarmersmarket.org","-118.431172","34.003860","90066"
"Redding","","Marilyn Miller FM","ca","1700 Churn Creek Rd .","organic baked goods crafts flowers vegetables jams plants prepared-foods fruits","","market","","-122.354608","40.581383",""
"Larkspur","https://www.facebook.com/MarinCountryMartFarmersMarket?fref=ts","Marin Country Mart Farmers Market ","ca","Sir Francis Drake Blvd and Larkspur Landing Circle","","","market","http://www.marincountrymart.com/farmers-market","-122.508","37.9454","94939"
"Marina","https://www.facebook.com/EveryonesHarvest","Marina Certifed Farmers' Market","ca","215 Reservation Rd.","organic baked goods crafts flowers herbs vegetables honey jams nuts prepared-foods soap fruits","","market","http://www.everyonesharvest.org","-121.797645","36.687008","93933"
"San Rafael","https://www.facebook.com/marinwoodcommunityfarmersmarket","Marinwood Community Farmers Market","ca","Marinwood Avenue and Miller Creek ","baked goods crafts flowers eggs seafood herbs vegetables honey meat nuts plants poultry prepared-foods soap trees coffee fruits","","market","","-122.539671","38.033059","94903"
"Mariposa","Mariposa Certified Farmers Market","Mariposa Certified Farmer's Market","ca","6th St. parking lot on Stroming Rd.","baked goods flowers herbs vegetables honey plants prepared-foods soap fruits","","market","","-119.9664","37.48441","95338"
"Martinez","https://www.facebook.com/MartinezFarmersMarket","Martinez Farmers' Market","ca","Main St. and Estudillo","organic baked goods cheese eggs herbs vegetables honey jams meat nuts soap coffee fruits mushrooms","","market","http://www.pcfma.org","-122.1364638","38.0173644",""
"Yuba City","","Marysville Farmers Market","ca","E Sreet & 10th","","","market","","-121.592","39.1459","95992"
"San Jose","","Mayfair Farmers' Market","ca","2039 Kammerer Ave.","baked goods vegetables","","market","http://www.pcfma.com/mayfair","-121.8442756","37.3508110","95116"
"McKinleyville","https://www.facebook.com/North.Coast.Growers.Association","McKinleyville CFM","ca","1520 City Center Rd.","organic flowers eggs herbs honey jams meat nuts plants poultry soap trees beans fruits grains","","market","http://www.humfarm.org","-124.101962","40.943593","95519"
"San Jose ","","Mclaughlin Ave Farmers Market","ca","2887 Mclaughlin Ave ","organic baked goods herbs vegetables honey fruits","","market","","-121.826926","37.304950","95121"
"Tarzana","","Melrose Place Farmers Market","ca","Melrose Place & Craft","","","market","http://www.ccfm.com","-118.373","34.0835","91356"
"Mendocino","","Mendocino Farmers Market","ca","Howard St.","organic baked goods cheese flowers eggs seafood herbs vegetables honey jams meat nursery nuts plants poultry soap trees wine","","market","http://www.mcfarm.org","-123.7974","39.30546","95460"
"Menifee Valley","","Menifee Valley CFM","ca","26582 Scott Rd.","","","market","","-117.195","33.6414","92584"
"Menifee","","Menifee Valley Farmers Market","ca","Mt. San Jacinto College","","","market","","-117.167","33.6745","92584"
"Menlo Park","","Menlo Park Farmers' Market","ca","Chestnut & Menlo Avenues","organic baked goods cheese flowers eggs seafood herbs vegetables honey jams meat nuts plants poultry soap beans fruits grains juices mushrooms","","market","http://www.localharvest.org","-122.184100","37.450822","94025"
"","","Merced Countys mobile farmers market ","ca","","","","market","http://www.modbee.com/2013/11/18/3039692/mobile-grocerys-debut-a-big-success.html","","",""
"Kelseyville","","Middletown Farmers Market","ca","Hardester's Market Shopping Center, Off of Hwy. 29","","","market","","-122.56","38.7911","95451"
"Ventura","https://www.facebook.com/vccfm","Midtown Ventura Certified Farmers' Market","ca","3301 N. Main Street","organic baked goods cheese flowers eggs herbs vegetables honey jams meat nuts plants poultry prepared-foods soap trees fruits","","market","http://www.vccfarmersmarkets.com","-119.050682","34.236390","93001"
"Millbrae","","Millbrae Farmers Market","ca","200 Broadway","baked goods flowers seafood herbs vegetables honey nuts plants","","market","http://www.millbrae.com","-122.391","37.6002","94030"
"Milpitas","www.facebook.com/MilpitasFarmersMarket","Milpitas Farmers' Market","ca","525 Los Coches St.","organic baked goods flowers eggs seafood vegetables honey meat nuts poultry prepared-foods trees fruits mushrooms","www.twitter.com/PacCoastFarmers","market","http://www.pcfma.org","-121.8953510","37.4318270",""
"San Francisco","","Mint Plaza FM","ca","Mint St. And Jessie St.","","","market","","-122.408","37.7826",""
"Miranda","","Miranda Farmers Market","ca","6743 Ave.","","","market","","-123.824","40.237",""
"San Francisco ","facebook.com/MissionBayFarmersMarket","Mission Bay Certified Farmers' Market @ UCSF","ca","550 Gene Friend Way","organic baked goods cheese flowers eggs seafood herbs vegetables jams nuts prepared-foods fruits juices mushrooms","twitter.com/PacCoastFarmers","market","http://pcfma.org","-122.390470","37.768709","94158"
"San Francisco","","Mission Community Market","ca","Bartlett Street, between 21st and 22nd Streets","organic baked goods cheese crafts flowers eggs seafood herbs vegetables honey jams meat nuts plants poultry prepared-foods soap","","market","http://www.missioncommunitymarket.org","-122.4149417","37.7556683","94110"
"Los Angeles","https://www.facebook.com/MLKCampusFarmersMarket/","MLK Campus Farmers' Market","ca","1670 E 120th St","organic eggs vegetables honey nuts prepared-foods fruits","","market","http://www.seela.org/","-118.243583","33.923533","90059"
"Modesto ","Modesto  Certified Farmers' Market","Modesto Certified Farmers' Market","ca","16th and ""I""","organic baked goods cheese crafts flowers eggs seafood herbs vegetables honey jams meat nuts plants poultry prepared-foods soap trees wine coffee fruits grains mushrooms wild","","market","http://Modestocfm.com","-120.987802","37.610356","95354"
"Los Angeles","","Monrovia Farmers Market","ca","Olive & Myrtle Ave.","","","market","http://www.farmernet.com","-118.001","34.1448","90018"
"Montclair","","Montclair Farmers Market","ca","9840 Central Ave.","","","market","","-117.69","34.0751","91763"
"Oakland","","Montclair Farmers' Market","ca","La Salle Ave. at Moraga Ave.","organic baked goods cheese flowers eggs seafood herbs vegetables honey jams meat nursery nuts poultry prepared-foods","","market","http://www.urbanvillageonline.com","-122.2105349","37.8262314","94611"
"Montclair ","Facebook.com/heritagefarmersmarket ","Montclair's Community Certified Farmers Market ","ca","5201 Benito st.","organic baked goods vegetables honey nuts fruits","Twitter.com/heritagefarmersmarket ","market","http://Heritagefarmersmarket.blogspot.com","-117.6916381","34.0740428","91763"
"Montecito","","Montecito Coast Village Farmers Market","ca","1200 Coast Village Rd.","","","market","http://www.sbfarmersmarket.org","-119.645","34.4211","93108"
"Monterey","https://www.facebook.com/pages/Monterey-Bay-Certified-Farmers-Markets/112446802152723","Monterey Farmers Market at Monterey Peninsula College","ca","930 Fremont Street","organic baked goods cheese flowers eggs seafood herbs vegetables honey jams meat nuts plants poultry prepared-foods soap trees fruits","https://twitter.com/MBFarmersMarket","market","http://www.montereybayfarmers.org","-121.9270394","36.9872756","93940"
"Santa Barbara","","Montrose Harvest Market Farmers Market","ca","Honolulu & Ocean Avenue","","","market","http://www.farmernet.com","-119.713","34.4222","93101"
"Moraga","https://www.facebook.com/MHFarmersMkt","Moraga Certified Farmers Market","ca","Moraga Road and Moraga Way","organic baked goods cheese flowers eggs seafood herbs vegetables honey jams meat nuts plants poultry prepared-foods trees beans fruits grains juices mushrooms","https://twitter.com/","market","http://www.cafarmersmkts.com/markets/category/moraga","-122.127796","37.834983","94556"
"Hesperia","","Moreno Valley Farmers Market","ca","Moreno Valley Mall","","","market","","-117.272","33.9363","92345"
"Morgan Hill","https://www.facebook.com/MHFarmersMkt","Morgan Hill Certified Farmers Market","ca","Downtown Train Station, 3rd St. & Depot St.","organic baked goods cheese flowers eggs seafood herbs vegetables honey jams meat nuts plants poultry prepared-foods soap trees beans fruits grains juices mushrooms","https://twitter.com/cafarmersmkts","market","http://www.cafarmersmkts.com/markets/category/morgan-hill","-121.652208","37.129780","94518"
"Morro Bay","","Morro Bay Bay Fisherman's Wharf CFM","ca","880 Main Street","","","market","","-120.85","35.3665","93442"
"Morro Bay","","Morro Bay Thursday CFM","ca","2650 Main St., Spencers Market","","","market","http://www.morrobay.org","-120.859","35.3904","93442"
"Bakersfield","","Mount Elgon Farmers Market","ca","411 Martin Luther King Jr.","","","market","","-118.985","35.3615","93307"
"Shingletown","","Mountain Certified Market","ca","31292 Alpine Meadows","organic baked goods crafts flowers eggs herbs vegetables honey jams nursery nuts plants poultry prepared-foods soap trees","","market","http://www.mountaingrowersassociation.webs.com/","-121.883547","40.491022","96088"
"Mountain View","https://www.Facebook.com/MVFarmersMkt","Mountain View Certified Farmers' Market","ca","600 West Evelyn Avenue","organic baked goods cheese flowers eggs seafood herbs vegetables honey jams meat nuts plants poultry soap trees coffee beans fruits grains juices mushrooms tofu","https://twitter.com/cafarmersmkts","market","http://www.cafarmersmkts.com/markets/category/mountain-view","-122.074677","37.393579","94041"
"Mt. Shasta CA","","Mt. Shasta Farmers' Market","ca","Castle Street at N. Mt. Shasta Blvd.","organic baked goods crafts flowers eggs herbs vegetables honey jams meat plants prepared-foods soap coffee fruits juices mushrooms","","market","http://www.mtshastafarmersmarket.com","-122.313401","41.314307","96067"
"Murrieta","https://www.facebook.com/murrietafarmersmarket","Murrieta Certified Farmers' Market","ca","Village Walk Way and Kalmia","organic baked goods cheese crafts flowers eggs herbs vegetables honey jams meat nuts plants poultry prepared-foods soap trees wine fruits pet food","","market","http://www.myfarmersmarkets.com","-117.212105","33.566045","92562"
"Napa","","Napa Chef's Farmers Market","ca","1st St. & Main St.","","","market","","-122.285","38.2992","94581"
"Napa","www.facebook.com/NapaFarmersMarket?fref=ts&ref=br_tf","Napa Downtown Farmers Market","ca","195 Gasser Drive","organic baked goods cheese crafts flowers eggs seafood herbs vegetables honey jams meat nuts plants prepared-foods soap trees wine coffee fruits juices mushrooms pet food tofu","","market","http://www.napafarmersmarket.org","-122.279588","38.282916","94559"
"National City","","National City CFM","ca","A Street & 8th St.","","","market","","-117.106","32.6761",""
"Salinas","https://www.facebook.com/EveryonesHarvest","Natividad Medical Center Certified Farmers' Market","ca","1441 Constitution Blvd.","organic baked goods crafts flowers herbs vegetables nuts plants prepared-foods trees fruits","","market","http://www.everyonesharvest.org","-121.632055","36.696236","93906"
"Sacramento","","Natomas Certified Farmers' Market","ca","3637 North Freeway Blvd.","organic cheese flowers eggs vegetables honey jams meat nursery nuts plants poultry","","market","http://www.California-Grown.com","-121.4965054","38.6390819","95834"
"El Centro","www.facebook.com/nhfarmersmarket","Neighborhood House Farmers Market","ca","201 3rd Street ","organic baked goods crafts flowers vegetables honey jams plants soap trees fruits","","market","http://www.nhclx.org ","-115.548786","32.791762","92243"
"Grass Valley ","www.facebook.com/NevadaCountyGrowersMarket","Nevada Ccounty Certified Growers Market - Grass Valley - North Star House","ca","10275 Auburn Road","organic baked goods cheese crafts flowers eggs herbs vegetables honey jams meat nuts plants poultry prepared-foods soap trees coffee fruits juices mushrooms","","market","http://www.thegrowersmarket.com","-121.0775652","39.2042977","95949"
"Penn Valley","www.facebook.com/NevadaCountyGrowersMarket","Nevada Ccounty Certified Growers Market - Penn Valley","ca","17645 Penn Valley Dr","organic baked goods cheese crafts flowers eggs herbs vegetables honey jams meat nuts poultry prepared-foods soap fruits juices mushrooms","","market","http://www.thegrowersmarket.com","-121.180434","39.198070","95946"
"Nevada City","www.facebook.com/NevadaCountyGrowersMarket","Nevada Ccounty Certified Growers Market - Rood Center - Nevada City","ca","950 Maidu Avenue","organic baked goods crafts flowers eggs herbs vegetables honey jams meat nuts poultry prepared-foods soap fruits juices mushrooms","","market","http://www.thegrowersmarket.com","-121.026596","39.269505","95959"
"Nevada City","","Nevada City Farmers Market","ca","100 Union Street","organic baked goods cheese crafts flowers eggs seafood herbs vegetables jams meat nursery nuts plants poultry prepared-foods soap wine","","market","http://www.ncfarmersmarket.org","-121.017194","39.262480","95959"
"Grass Valley","","Nevada City Farmers Market II","ca","Argall Way & Zion","","","market","","-121.026","39.2529","95945"
"Newark","https://www.facebook.com/Newark-Farmers-Market-167753743427328/?fref=ts","Newark Farmers Market","ca","2086 Newpark Mall","organic baked goods cheese crafts flowers eggs seafood herbs vegetables honey jams nuts poultry prepared-foods coffee beans fruits grains juices mushrooms tofu","","market","https://www.agriculturalinstitute.org/directory/listing-details/newark-market","-121.998246","37.525397",""
"Newport Beach ","https://www.facebook.com/newportbeachFM","Newport Beach Certified Farmers' Market by Farmer Mark ","ca","1 McFadden Place","organic baked goods crafts flowers eggs vegetables honey jams nuts prepared-foods soap fruits grains juices tofu","","market","http://www.farmermark.com/newportbeach","-117.9286417","33.6082794","92663"
"Nipomo","","Nipomo Certified Farmers' Market","ca","1645 Trilogy Parkway","baked goods crafts eggs vegetables honey jams nuts prepared-foods soap fruits","","market","http://www.nipomofarmersmarket.com","-120.552313","35.030541","93444"
"San Francisco","","Noe Valley Farmers' Market ","ca","3861 24th Street, between Sanchez and Vicksburg Streets","","","market","http://www.noevalleyfarmersmarket.com/","-122.429","37.7514","94114"
"San Francisco","","North Beach Farmers' Market","ca","Powell St. between Union St. and Columbus Ave.","organic cheese eggs herbs vegetables honey meat nuts plants prepared-foods","","market","http://www.urbantable.org","-122.410913","37.800527","94133"
"Berkeley","","North Berkeley Farmers' Market","ca","Shattuck Ave. & Vine Street","organic baked goods cheese flowers eggs seafood herbs vegetables honey jams meat nuts plants poultry prepared-foods beans fruits juices tofu","https://twitter.com/ecbfm","market","http://www.ecologycenter.org/fm","-122.2692423","37.8802352","94709"
"Sherman Oakes","","North Hollywood Valley Farmers Market","ca","Bellingham & Victory Blvd.","","","market","","-118.399","34.1864","91423"
"Long Beach","https://www.facebook.com/GreenerGoodLB","North Long Beach Market","ca","E. Artesia Blvd.","","","market","","-118.194","33.8743",""
"Oakland","","North Oakland Farmer's Market - Phat Beets Produce","ca","942 Stanford Ave.","organic baked goods herbs vegetables honey nursery prepared-foods soap","","market","http://www.phatbeetsproduce.org","-122.2767591","37.8438207","94608"
"San Diego ","https://www.facebook.com/NorthParkMarket","North Park Thursday Certified Farmers' Market","ca","3001 North Park Way","organic baked goods cheese crafts flowers eggs seafood herbs vegetables honey jams meat nuts poultry prepared-foods soap wine coffee fruits juices mushrooms pet food","@northparkmarket","market","http://sandiegomarkets.com","-117.1300547","32.7473430","92104"
"Escondido","http://www.facebook.com/NSDCFM","North San Diego (Sikes Adobe) Certified Farmers Market, at the Sikes Adobe Historic Farmstead","ca","12655 Sunset Drive","organic flowers eggs seafood herbs vegetables honey meat prepared-foods trees fruits juices","http://twitter.com/NSDCFM","market","http://www.NSDCFM.com","-117.067097","33.067040","92025"
"northridge","https://www.facebook.com/northridgefarmersmarket/","Northridge Farmers Market and family festival","ca","9301 tampa ave","organic baked goods cheese crafts flowers eggs herbs vegetables honey maple meat nuts poultry prepared-foods soap trees fruits juices","","market","http://northridgefarmersmarket.org","-118.5562362","34.2385732","91324"
"Norwalk","","Norwalk Farmers Market","ca","Alondra & Pioneer","","","market","http://www.farmernet.com","-118.082","33.8877","90650"
"","","Nummi FM","ca","45500 Fremont Blvd.","","","market","","-121.942","37.4883",""
"Sacramento","https://www.facebook.com/oakparkfarmersmarket","Oak Park Farmers Market","ca","3500 5th Avenue","organic baked goods cheese crafts flowers eggs herbs vegetables honey jams nuts plants prepared-foods trees fruits juices mushrooms","","market","http://www.nwsac.org/oakparkfarmersmarket/","-121.4699","38.54865","95817"
"OAKDALE","","Oakdale Certified Farmers Market","ca","100 North 3Rd Avenue","","","market","","-120.848","37.7663",""
"Modesto","","Oakdale Farmers Market","ca","Hershey's Visitor Center","","","market","http://www.modestofarmersmarket.com","-120.815","37.7761","95353"
"Oakhurst","","Oakhurst Wild Wonderful Farmers Market","ca","Hwy. 41, 41 & Hogden Hill","","","market","","-119.649","37.328","93644"
"Oakland","","Oakland Community Food Market","ca","4173 Macarthur Blvd .","","","market","","-122.196","37.7887",""
"Oakmont","","Oakmont Farmers Market","ca","Oakmont Dr. & White Oak St.","","","market","","-122.604","38.441",""
"Occidental","https://www.facebook.com/occidentalfarmersmarket/","Occidental Bohemian Farmers Market","ca","Main St and 2nd St","organic baked goods cheese crafts flowers eggs seafood herbs vegetables jams meat plants poultry prepared-foods soap coffee fruits grains juices mushrooms","twitter.com/obfm","market","http://occidentalfarmersmarket.com/","-122.9475093","38.4068039","95465"
"San Diego","https://www.facebook.com/OBFM","Ocean Beach Certified Farmers Market","ca","4900 Newport Avenue","organic baked goods cheese crafts flowers eggs seafood herbs vegetables honey jams maple meat nuts plants poultry prepared-foods soap fruits","https://twitter.com/OceanBeachCA","market","http://www.OceanBeachSanDiego.com","-117.250160","32.746190","92107"
"Oceanside","https://www.facebook.com/OceansideMorningFarmersMarket","Oceanside Certified Farmer's Market","ca","Corner of Coast Hwy and Pier View.","organic baked goods cheese flowers eggs seafood herbs vegetables honey jams meat nuts plants soap trees coffee beans fruits juices mushrooms wild","n/a","market","","-117.3802623","33.1967616",""
"Oceanside","https://www.facebook.com/oceansidesunsetmarket","Oceanside Sunset Market","ca","Tremont and Pier View Way","organic baked goods crafts flowers vegetables honey nuts plants prepared-foods soap fruits","","market","http://www.sunsetmarket.com","-117.381063","33.196210","92054"
"Ojai","https://www.facebook.com/OjaiCertifiedFarmersMarket","Ojai Certified Farmers Market","ca","300 E Matilija St","organic baked goods cheese crafts flowers eggs herbs vegetables honey jams meat nuts plants poultry prepared-foods soap wine coffee beans fruits grains juices wild","","market","http://www.ojaicertifiedfarmersmarket.com","-119.244","34.4489","93023"
"San Juan Capistrano","htp://www.facebook.com/SJCFarmersMarket","Old Capistrano Certified Farmers Market","ca","Yorba St","baked goods cheese crafts flowers eggs seafood herbs vegetables honey jams nuts plants prepared-foods soap trees fruits pet food","@SJCFarmersMkt","market","http://www.FarmersMarketSJC.com","-117.6622076","33.5005744","92675"
"Los Angeles ","Highland Park Old L.A. Certified Farmers Market","Old L.A. Certified Farmers Market","ca","North Figueroa & Ave. 58","organic baked goods crafts eggs herbs vegetables honey jams nuts plants prepared-foods soap fruits","","market","http://oldla.org","-118.192843","34.110554","90042"
"Monterey","","Old Monterey Farmers Market","ca","Alvarado St. & Pearl St.","","","market","","-121.895","36.5977","93940"
"Oakland","","Old Oakland Farmers' Market","ca","9th St. & Broadway St.","organic baked goods cheese crafts flowers eggs seafood herbs vegetables honey jams meat nursery nuts plants poultry prepared-foods soap trees","","market","http://www.urbanvillageonline.com","-122.2732574","37.8008738","94607"
"Poway","https://www.facebook.com/pages/Poway-Farmers-Market/102397549879231","Old Poway Farmers Market","ca","Midland Rd. & Temple","organic baked goods cheese flowers eggs seafood herbs vegetables honey jams meat nuts plants poultry prepared-foods soap trees coffee beans fruits juices mushrooms pet food wild","n/a","market","","-117.0361398","32.9692891","92074"
"Eureka","https://www.facebook.com/North.Coast.Growers.Association","Old Town Certified Farmers' Market","ca","F Street between 2nd and 3rd","organic baked goods flowers eggs seafood herbs vegetables honey jams meat nuts plants poultry soap trees beans fruits grains mushrooms","","market","http://www.humfarm.org","-124.164283","40.804316","95501"
"La Quinta","https://www.facebook.com/CertifiedFarmersMarket/","Old Town La Quinta Certified Farmers Market","ca","78100 Main Street","organic cheese crafts flowers eggs herbs vegetables honey jams meat poultry prepared-foods soap wine fruits juices mushrooms pet food","@PSFARMERSMARKET","market","http://www.certifiedfarmersmarkets.org","-116.302435","33.677490","92253"
"Newhall","Old Town Newhall Farmers Market","Old Town Newhall Farmers Market","ca","24500 Main Street","organic baked goods cheese flowers eggs herbs vegetables honey jams meat nuts poultry prepared-foods fruits","Old Town Newhall FM","market","http://oldtownnewhall.com","-118.518215","34.359773","91321"
"Temecula","https://www.facebook.com/oldtownfarmersmarket","Old Town Temecula CFM","ca","6th & Front Streets","organic baked goods cheese crafts flowers eggs seafood herbs vegetables honey jams meat nuts plants poultry prepared-foods soap trees coffee fruits juices mushrooms pet food","","market","http://www.myfarmersmarkets.com","-117.151107","33.495965","92590"
"Orange","https://www.facebook.com/OrangeHomeGrownInc","Old Towne Orange Farmers & Artisans Market","ca","Corner of Palm Ave. & Cypress St.","organic baked goods cheese flowers eggs seafood herbs vegetables honey jams meat plants poultry prepared-foods soap trees fruits","https://twitter.com/orangehomegrown","market","http://www.orangehomegrown.org","-117.856350","33.791508","92866"
"Orange Cove","","Orange Cove Farmers Market","ca","J.O. Eaton Park","","","market","","-119.314","36.6244","93646"
"Riverside","","Orangecrest Certified Farmers Market ","ca","20010 Orange Terrace Parkway","","","market","http://www.orangecrestcfm.com/","-117.313","33.895","92508"
"Orangevale","https://www.facebook.com/OrangevaleFarmersMarket","Orangevale Farmers Market","ca","9295 Greenback Lane","organic baked goods crafts flowers vegetables jams meat plants poultry fruits","","market","http://www.orangevalegrange.org/orangevale-farmers-market","-121.207654","38.678449","95662"
"Nipomo","","Orcutt Farmers Market","ca","Bradley St. & Clark St.","","","market","","-120.419","34.865","93444"
"Merced","https://www.facebook.com/mercedcfm/","Original Merced County Certified Farmers Market - Downtown Merced","ca","16th St. and Canal St.","baked goods crafts eggs herbs vegetables honey jams meat nuts prepared-foods soap fruits","","market","http://mercedcfm.com/","-120.484427","37.300930","95340"
"Orinda","","Orinda Famers Market","ca","Orinda Way in Orinda Village","","","market","http://www.cccfm.org","-122.189","37.8836","94563"
"Oroville","","Oroville Hospital's Community Farmers' Market","ca","2809 Olive Hwy","baked goods herbs vegetables nuts plants","","market","","-121.541","39.5041",""
"Oxnard","www.facebook.com/OxnardFarmersMarket/","Oxnard Farmers Market","ca","Fifth and C Street","organic baked goods flowers herbs vegetables honey nuts plants prepared-foods soap trees fruits","https://twitter.com/oxnfarmersmkt","market","http://www.OxnardFarmersMarket.com","-119.180102","34.198012","93030"
"Pacific Beach","","Pacific Beach Certified Farmers Market","ca","4150 Mission Blvd","organic cheese flowers eggs herbs vegetables honey jams nuts plants fruits","","market","","-117.254513","32.791938","92109"
"San Diego ","https://www.facebook.com/PBTuesdayMarket","Pacific Beach Tuesday Certified Farmers' Market","ca","901 Garnet Avenue","organic baked goods cheese crafts flowers eggs seafood herbs vegetables honey jams meat nuts poultry prepared-foods soap wine coffee fruits juices mushrooms tofu","https://twitter.com/pbtuesmarket","market","http://www.SanDiegoMarkets.com","-117.2536469","32.7969521","92109"
"Pacific Grove","https://www.facebook.com/EveryonesHarvest/","Pacific Grove Certified Farmers' Market","ca","Central & Grand Ave.","organic baked goods crafts flowers eggs herbs vegetables honey jams nuts poultry prepared-foods soap coffee fruits juices","","market","http://everyonesharvest.org","-121.9166956","36.6220761","93950"
"Pacific Palisades","","Pacific Palisades Farmers Market","ca","Swarthmore & Sunset Streets","","","market","","-118.535","34.0533",""
"Palm Desert","https://www.facebook.com/CertifiedFarmersMarket/","Palm Desert Certified Farmers Market ","ca","72-559 Hwy 111","organic baked goods cheese flowers eggs herbs vegetables honey jams meat poultry prepared-foods soap wine coffee fruits juices mushrooms pet food","@PSFARMERSMARKET","market","http://www.certifiedfarmersmarkets.org","-116.400311","33.723677","92260"
"Palm Springs","https://www.facebook.com/CertifiedFarmersMarket/","Palm Springs Certified Farmers' Market","ca","2300 E. Baristo Rd","organic baked goods cheese flowers eggs herbs vegetables honey jams meat plants poultry prepared-foods soap wine coffee fruits juices mushrooms pet food","@PSFARMERSMARKET","market","http://www.certifiedfarmersmarkets.org","-116.520945","33.820181","92262"
"Rolling Hills Estates ","https://www.facebook.com/palosverdesfarmersmarket/","Palos Verdes Farmers Market","ca","27118 Silver Spur Road","organic baked goods cheese crafts flowers eggs seafood herbs vegetables honey jams meat nuts plants poultry prepared-foods soap trees coffee fruits juices","@farmersmarketpv","market","","-118.373725","33.779336","90274"
"Chico","","Paradise Thur Market","ca","Paradise Community Park - Paradise","","","market","","-121.624","39.7524",""
"Paramount ","www.facebook.com/paramountfarmersmarket","Paramount City Farmers' Market","ca","15500 Downey Ave. ","organic baked goods eggs herbs vegetables honey plants prepared-foods soap trees coffee fruits juices mushrooms","","market","http://Socalfarmersmarkets.net","-118.151223","33.891775","90723"
"Delano","","Park FM","ca","Norwalk And Cecil Ave.","","","market","","-119.241","35.7759",""
"Stockton","","Park West Place Farmers' Market","ca","","organic baked goods flowers herbs vegetables honey jams nuts plants prepared-foods","","market","http://www.stocktonfarmersmarket.org","-121.374","38.0571","95219"
"Parlier","","Parlier CFM","ca","1St St. And J Street","","","market","","-119.526","36.6121",""
"San Francisco ","","Parnassus Certified Farmers' Market @ UCSF","ca","505 Parnassus Ave.","organic herbs vegetables fruits","twitter.com/PacCoastFarmers","market","http://pcfma.org","-122.457754","37.763986","94143"
"Pasadena ","https://www.facebook.com/pages/Pasadena-Farmers-Market/133188605508","Pasadena City Hall Wednesdays (Summer Evenings)","ca","100 N. Garfield Ave.","organic baked goods flowers eggs seafood herbs vegetables honey jams nuts plants prepared-foods trees coffee fruits juices mushrooms","https://twitter.com/pasadenacfm","market","http://www.pasadenafarmersmarket.org/ ","-118.144119","34.147660","91101"
"PASADENA","https://www.facebook.com/pages/Pasadena-Farmers-Market/133188605508","PASADENA-VICTORY PARK (SATURDAY)","ca","2901 n SIERRA MADRE BLVD","organic baked goods cheese flowers eggs seafood herbs vegetables honey jams meat plants poultry prepared-foods fruits","https://twitter.com/PASADENACFMS","market","http://WWW.PASADENAFARMERSMARKET.ORG","-118.0917703","34.1615278","91107"
"PASADENA","https://www.facebook.com/pages/Pasadena-Farmers-Market/133188605508","PASADENA-VILLA PARKE (TUES)","ca","363 E VILLA STREET","baked goods flowers eggs herbs vegetables honey jams prepared-foods trees fruits","https://twitter.com/PASADENACFMS","market","http://WWW.PASADENAFARMERSMARKET.ORG","-118.143926","34.154387","91101"
"Paso Robles","https://www.facebook.com/NorthCountyFarmersMarkets","Paso Robles","ca","11th & Spring Streets","","","market","http://www.northcountyfarmersmarkets.com/","-120.691","35.6256","93446"
"Patterson","Sunblest Orchards","Patterson True Value Farmers Market","ca","1040 W Las Palmas Ave","organic baked goods crafts flowers eggs herbs vegetables honey jams plants prepared-foods soap trees fruits juices","","market","","-121.1425792","37.4661216","95363"
"Sonora","@CertifiedPVFM","Peaceful Valley Farmers Market ","ca","14888 Peaceful Valley Road ","baked goods cheese crafts flowers eggs herbs vegetables honey jams nuts plants prepared-foods soap coffee fruits juices mushrooms","","market","http://www.peacefulvalleyfarmersmarket.com","-120.338076","37.974304",""
"Grass Valley","","Penn Valley Farmers Market","ca","Western Gateway Park","","","market","","-121.192","39.2015","95945"
"San Diego","https://www.facebook.com/peoplesproducefarmersmarket?","people's produce certified farmers market","ca","4700 Castana Street","baked goods crafts flowers herbs vegetables honey plants prepared-foods soap coffee fruits","Twitter.com/newvillagesd","market","http://www.projectnewvillage.org","-117.0936101","32.7066615","92102"
"Perris","","Perris Farmers Market","ca","D Street between 2nd and 4th","","","market","","-117.228","33.7845",""
"Petaluma ","https://www.facebook.com/PetalumaFarmersMarket/","Petaluma Farmers Market","ca","Petaluma Blvd S and D St","organic baked goods cheese crafts flowers eggs seafood herbs vegetables honey jams meat nuts poultry prepared-foods soap wine coffee beans fruits grains juices mushrooms pet food tofu","","market","http://www.communityfarmersmarkets.com","-122.636797","38.231796","94952"
"Petaluma ","https://www.facebook.com/PetalumaFarmersMarket/","Petaluma Wednesday Evening Farmers' Market ","ca","2nd Street between D St and B St ","organic baked goods cheese crafts flowers eggs herbs vegetables honey jams nuts prepared-foods soap trees wine coffee beans fruits juices mushrooms tofu","","market","http://www.communityfarmersmarkets.com","-122.637103","38.233365","94952"
"Pinole","https://www.facebook.com/PinoleFarmersMarket","Pinole Farmers' Market","ca","Pear and Fernandez St.","organic baked goods flowers eggs vegetables honey nuts prepared-foods fruits","","market","http://www.pcfma.org","-122.2896301","38.0052546",""
"Pittsburg","https://www.facebook.com/PittsburgFarmersMarket","Pittsburg Farmers' Market","ca","Railroad and 6th St.","organic baked goods flowers herbs vegetables honey nuts prepared-foods fruits","","market","http://www.pcfma.org","-121.8838954","38.0311974",""
"Foster City","","PJCC Farmers' Market at Foster City","ca","800 Foster City Blvd.","organic vegetables plants","","market","http://www.urbantable.org","-122.266792","37.558672","94404"
"Placerville","","Placerville Farmers Market","ca","Main St. & Cedar Ravine","organic baked goods cheese crafts flowers eggs seafood herbs vegetables honey jams meat nuts plants poultry prepared-foods soap trees wine coffee beans fruits pet food","","market","http://www.eldoradofarmersmarket.com","-120.796286","38.729065","95667"
"Playa Vista","www.facebook.com/playavistaFM","Playa Vista Certified Farmers' Market","ca","6500 Seabluff Drive","organic baked goods cheese crafts flowers eggs seafood herbs vegetables honey jams meat plants poultry prepared-foods trees fruits","https://twitter.com/playavistaFM","market","http://www.playavistaFM.com","-118.421939","33.972624","90094"
"Pleasant Hill ","https://www.facebook.com/PleasantHillFarmersMarket","Pleasant Hill Farmers' Market","ca","Gregory Lane and Trelany Rd.","organic baked goods cheese flowers herbs vegetables honey nuts soap fruits","","market","http://www.pcfma.org","-122.0622640","37.9480202",""
"Camarillo","https://www.facebook.com/vccfm","Pleasant Valley Certified Farmers' Market and Crafter's Corner ","ca","1605 E. Burnley Street","organic baked goods cheese crafts flowers eggs seafood herbs vegetables honey jams meat nuts plants prepared-foods soap trees fruits","","market","http://www.vccfarmersmarket.com","-119.050671","34.226340","93012"
"Pleasanton","","Pleasanton Farmers' Market","ca","Main & W. Angela Street","organic baked goods cheese flowers eggs seafood herbs vegetables honey jams meat nuts plants poultry prepared-foods soap","","market","http://www.pcfma.com/pleasanton","-121.8764190","37.6594913","94566"
"Plymouth ","","Plymouth Market","ca","McGee Park Main street Plymouth","baked goods crafts flowers vegetables honey jams nuts soap wine beans fruits","","market","","-120.847706","38.481248",""
"Point Reyes Station","pointreyesfarmersmarket","Point Reyes Farmers Market","ca","11250 Hwy 1","organic baked goods cheese crafts flowers eggs herbs vegetables honey jams poultry prepared-foods coffee fruits grains","pointreyesfarmersmarket","market","http://www.pointreyesfarmersmarket.org","-122.8053238","38.0680632","94956"
"Point Richmond","","Point Richmond CFM","ca","Park Place and West Richmond Avenue","organic baked goods cheese vegetables nursery prepared-foods soap","","market","http://www.pcfma.com","-122.385099","37.926258",""
"Pomona","","Pomona Valley Farmers Market","ca","Pearl & Garey","","","market","http://www.farmernet.com","-117.75","34.0646","91768"
"Port Huemene","","Port Huemene Farmers Market","ca","Walnut & Lyons","","","market","","-118.531","34.3809","93041"
"Quincy","","Quincy Certified Farmers' Market","ca","530 W. Main St.","baked goods crafts flowers seafood vegetables prepared-foods soap fruits","","market","http://www.quincyfarmersmarket.org","-120.950176","39.937091","95971"
"Ramona","https://www.facebook.com/BullerGardens?fref=ts","Ramona Certified Farmers Market","ca","1855 Main Street","baked goods crafts flowers eggs herbs vegetables honey jams plants prepared-foods soap trees fruits","","market","http://www.ramonafarmersmarket.com","-116.8821","33.03448","92065"
"San Diego","none","Rancho Bernardo Certified Farmers Market and Specialties","ca","13330 Paseo Del Verno Norte","organic baked goods cheese crafts flowers eggs seafood herbs vegetables honey jams maple meat nuts plants soap coffee fruits juices mushrooms","none","market","","-117.046657","33.032751","92128"
"Rancho Cucamonga","","Rancho Cucumonga Farmers Market","ca","Vineyard & Rancho Cucamonga","","","market","","-117.67","35.6501","91729"
"Rancho Santa Fe","","Rancho Santa Fe Farmers Market","ca","16079 San Dieguito Rd.","organic cheese crafts flowers eggs seafood herbs vegetables honey jams meat plants poultry prepared-foods soap trees fruits","","market","http://www.ranchosantafefarmersmarket.com","-117.196585536003","32.9898123443127","92067"
"Santa Margarita","","Rancho Santa Margarita Farmers Market","ca","Dove Canyon Dr. & Plano Trabuco","","","market","","-117.578","33.6428","92509"
"Red Bluff","","Red Bluff Saturday Farmers Market","ca","100 Main Street","","","market","","-122.23","40.1721","96080"
"Red Bluff","","Red Bluff Wednesday Farmers Market","ca","600 Block of Washington Street","","","market","","-122.235","40.1764","96080"
"Redding","","Redding Thursday Farmers Market","ca","California & Placer Streets","","","market","","-122.391","40.5821","96099"
"Redlands","","Redlands Certified Farmers Market","ca","100 E. State Street","baked goods cheese crafts flowers eggs herbs vegetables honey nuts plants prepared-foods soap trees coffee fruits","","market","http://www.cityofredlands.org/redlandsmarketnight","-117.181441","34.056448","92373"
"Redlands","","Redlands Saturday Morning Certified Farmers Market","ca","100 E. Redlands Boulevard","organic baked goods cheese flowers eggs herbs vegetables honey jams nuts plants prepared-foods trees fruits","","market","https://www.cityofredlands.org/cms/One.aspx?portalId=6255746&pageId=7211257","-117.180913","34.057080","92373"
"Redondo Beach","","Redondo Beach Certified Farmers Market","ca","309 Esplanade","organic baked goods flowers eggs seafood herbs vegetables honey jams nuts plants prepared-foods soap trees coffee fruits juices mushrooms","","market","http://www.redondo.org/depts/recreation/facilities/farmers_market.asp","-118.389509","33.836486","90277"
"Redway","","Redway Farmers Market","ca","Uptown Redway","","","market","","-124.044","40.3543","95560"
"Redwood City","Redwood City Kiwanis Farmers Market","Redwood City Kiwanis Farmers Market","ca","500 Arguello Street","organic baked goods cheese flowers eggs seafood herbs vegetables honey nuts prepared-foods coffee fruits mushrooms","","market","http://www.rwcfm.org","-122.232387","37.486692","94063"
"Santa Rosa","","Redwood Empire Farmers' Markets ","ca","Santa Rosa Veterans Memorial 1351 Maple Avenue","","","market","http://www.redwoodempirefarmersmarkets.com/","-122.701","38.4338","95404"
"Redwood Valley","","Redwood Valley CFM","ca","8920 East Rd","","","market","http://www.mcfarm.org","-123.207","39.2704","95470"
"Reedley","","Reedley Farmers Market","ca","G & 10th Streets","","","market","http://www.reedleydowntown.com","-119.452","36.5974","93654"
"Richmond","","Richmond Certified Farmers Market","ca","24th & Barrett Ave.","baked goods crafts eggs herbs vegetables honey nuts prepared-foods soap fruits","","market","","-122.346713","37.937305","94804"
"Richmond ","https://www.facebook.com/RichmondMainStMarket","Richmond Main St. Farmers' Market","ca","Nevin Ave. and 13th St.","organic baked goods flowers herbs vegetables prepared-foods fruits","","market","http://www.pcfma.org","-122.3571356","37.9368235",""
"Rio Dell","","Rio Dell Farmers Market","ca","Wildwood Ave. & Douglas St.","","","market","","-124.105","40.4964","95562"
"Fresno","","River Park CFM","ca","N Blackstone Ave. And E Nees Ave.","","","market","","-119.826565","36.822853",""
"Riverbank","","Riverbank Farmers Market & More","ca","2505 Patterson Rd","baked goods cheese crafts herbs vegetables honey plants prepared-foods fruits","","market","","-120.952761","37.732749","95367"
"Riverside","https://www.facebook.com/Riverside.CFM","Riverside Certified Farmers Market","ca","5261 Arlington Av","organic baked goods cheese crafts flowers eggs herbs vegetables honey jams nuts plants prepared-foods soap trees coffee fruits mushrooms","https://twitter.com/riversidecfm","market","http://www.RiversideCFM.com","-117.416200","33.946591","92514"
"Rocklin","","Rocklin Blue Oaks CFM","ca","6636 Lonetree Blvd.","","","market","","-121.297","38.8018",""
"Rocklin","","Rocklin Farmers Market","ca","Park Drive at Stanford Ranch Road","","","market","http://www.foothillfarmersmarket.com","-121.191","38.7442","95677"
"Rohnert Park ","https://www.facebook.com/rohnertparkfarmersmarket/","Rohnert Park Farmers' Market ","ca","500 City Center Dr ","organic baked goods cheese crafts flowers eggs herbs vegetables honey jams nuts prepared-foods soap wine coffee fruits juices","","market","http://www.communityfarmersmarkets.com","-122.703949","38.349284","94928"
"Roseville","","Roseville Fountains","ca","Galleria Blvd. & East Roseville Parkway","","","market","","-121.266","38.7689",""
"Roseville","","Roseville Kaiser Permanente Farmers Market","ca","1600 Eureka Road","","","market","http://www.foothillfarmersmarket.com","-121.247","38.7477","95661"
"Roseville","","Roseville Square Farmers Market","ca","Harding & Douglas St.","","","market","http://www.foothillfarmersmarket.com","-121.311","38.6978","95678"
"Auburn","https://www.facebook.com/ShoreFresh","Roseville Sun City Farmers Market","ca","Roseville Square Shopping Center","","","market","","-121.911","38.0224","95604"
"Walnut Creek","","Rossmoor Certified Farmers Market","ca","Golden Rain St. And Tice Valley Rd.","","","market","","-122.075","37.871",""
"Running Springs","","Running Springs Area Chamber of Commerce Certified Farmers Market and Artisan Faire ","ca","empty dirt lot owned by the Water District between First Mountain Bank, Running Springs Branch Library, and the playground (across the street from the Running Springs Post Office)","","","market","http://www.localharvest.org/running-springs-area-chamber-of-commerce-certified-farmers-market-and-artisan-faire-M58463","-117.109","34.2078","92382"
"Sacramento","","Sacramento Capitol Mall Certified Farmers' Market","ca","600 Capitol Mall","","","market","http://www.marketlocations.com","-121.5","38.5783","95814"
"Sacramento","","Sacramento Central Certified Farmers' Market","ca","8th St and W St","organic baked goods cheese flowers eggs seafood herbs vegetables honey jams meat nursery nuts plants poultry trees","","market","http://www.marketlocations.com","-121.5023","38.56671","95818"
"Sacramento","","Sacramento Chavez Plaza Certified Farmers' Market","ca","10th St and J St","","","market","http://www.california-grown.com","-121.494","38.5803","95814"
"Sacramento","","Sacramento Consumnes River College CFM","ca","Bruceville Road in Lot E","","","market","http://www.california-grown.com","-121.418","38.456","95814"
"Sacramento","","Sacramento Country Club Plaza Certified Farmers' Market","ca","2405 Butano Dr","","","market","http://www.marketlocations.com","-121.379","38.6084","95825"
"Sacramento","https://www.facebook.com/stcharlesmd","Sacramento Downtown Plaza Certified Farmers' Market","ca","Downtown Plaza, 4th & K Streets","","","market","","-121.502","38.5815","95814"
"Sacramento","","Sacramento Fremont Park Certified Farmers' Market","ca","16th St and P St","baked goods flowers herbs vegetables prepared-foods","","market","http://www.california-grown.com","-121.488","38.5715","95814"
"Sacramento","","Sacramento Roosevelt Park Certified Farmers' Market","ca","9th St and P St","baked goods flowers herbs vegetables jams nuts prepared-foods","","market","http://www.california-grown.com","-121.498","38.574","95814"
"Sacramento","","Sacramento St. Rose of Lima Certified Farmers' Market","ca","7th St & K St","","","market","http://www.marketlocations.com","-121.498","38.5804","95814"
"Salinas ","https://www.facebook.com/EveryonesHarvest?ref=hl","Salinas Valley Memioral Healthcare Certified Farmers' Market","ca","450 East Romie Lance","organic baked goods flowers herbs vegetables honey jams nuts prepared-foods trees fruits juices","","market","http://www.everyonesharvest.org","-121.647188","36.660072","93901"
"San Bernardino","","San Bernardino Farmers Market","ca","1001 Highland Avenue","","","market","","-117.305","34.136","92413"
"San Bruno","","San Bruno Farmers' Market","ca","1150 El Camino Real","organic baked goods cheese flowers eggs seafood vegetables honey meat nursery nuts plants prepared-foods soap","","market","http://www.pcfma.com/sanbruno","-122.4188443","37.6358529","94066"
"San Carlos","","San Carlos CFM","ca","Laurel St btwn Olive & cherry","","","market","","-122.259","37.5043",""
"San Clemente","","San Clemente Village Farmers Market","ca","200 Avenida Del Mar Drive","","","market","","-72.7301","41.7556","92672"
"San Diego","","San Deigo Barrio Marketplace Certified Farmers Market","ca","2258 Island Avenue","","","market","http://www.BarrioMarketplace.com","-117.143","32.7106","92102"
"San Diego","","San Diego East Village Farmers Market","ca","8th Avenue","","","market","","-116.733","33.0358","92101"
"San Diego","","San Diego Gaslamp Third Avenue Certified Farmers Market and Asian Bazar","ca","400 block of Third Avenue","","","market","","-119.601","37.2417","92101"
"San Diego","https://www.facebook.com/LittleItalyMercato","San Diego Little Italy Mercato","ca","519 W. Cedar Street at India Street","organic baked goods cheese crafts flowers eggs seafood herbs vegetables honey jams meat nuts plants poultry prepared-foods soap trees wine coffee beans fruits juices mushrooms pet food","https://twitter.com/LIMercato","market","http://www.littleitalymercato.com","-117.1675579","32.7219312","92101"
"San Diego","","San Diego Mira Mesa Farmers Market","ca","10510 Reagan Road","","","market","","-119.601","37.2417","92126"
"San Diego","","San Diego Tu Mercado Certified Farmers Market","ca","5998 Alcala Park","","","market","","-117.187","32.772","92110"
"San Dimas ","https://www.facebook.com/pages/San-Dimas-Farmers-Market/106993032668777","San Dimas CFM","ca","142 E. Bonita Ave.","organic baked goods crafts flowers eggs herbs vegetables honey jams nuts plants prepared-foods trees fruits","","market","http://www.AFHL.ORG","-117.804190","34.107749","91773"
"San Francisco","","San Francisco Cannery Farmers Market","ca","Del Monte Square","","","market","http://www.thecannery.com","-122.419","37.8078","94133"
"San Francisco","","San Francisco Certified Alemany Farmers Market","ca","100 Alemany Boulevard","organic baked goods cheese flowers eggs herbs vegetables honey nuts prepared-foods coffee fruits juices mushrooms","","market","","-122.4085979","37.7373447","94110"
"San Francisco","https://www.Facebook.com/SFFarmersMkt","San Francisco Certified Farmers' Market at Crocker Galleria","ca","Crocker Galleria, 50 Montgomery & Post Street","organic baked goods cheese herbs vegetables jams nuts soap fruits juices mushrooms","https://twitter.com/cafarmersmkts","market","http://www.cafarmersmkts.com/markets/category/crocker-galleria","-122.402784","37.789216","94104"
"San Francisco","","San Francisco Farmers Market Parkmerced","ca","Serrano and Arballo Drive","","","market","http://www.cafarmersmkts.com","-122.427","37.6555","91132"
"San Francisco ","facebook.com/FillmoreFarmersMarket","San Francisco Fillmore Certified Farmers' Market","ca","Fillmore St. and O'Farrell St.","organic baked goods cheese flowers eggs seafood herbs vegetables honey jams meat nuts poultry prepared-foods soap trees fruits","twitter.com/PacCoastFarmers","market","http://pcfma.org","-122.4327477","37.7833115","94115"
"San Gabriel ","","San Gabriel CFM (Thursday Summer Evenings)","ca","Vincent Lugo Park 300 W. Wells Ave.","organic baked goods flowers eggs herbs vegetables honey jams nuts prepared-foods trees fruits juices mushrooms","","market","","-118.106540","34.084723","91776"
"Forest Knolls","","San Geronimo Valley Farmers Market","ca","Valley Presbyterian Church","","","market","","-122.671","38.0154","94933"
"San Jacinto","https://www.facebook.com/SanJacintoValleyCertifiedFarmersMarket","San Jacinto Valley Certified Farmers' Market ","ca","2575 So. San Jacinto Ave","","","market","http://www.localharvest.org/san-jacinto-valley-certified-farmers-market-M59128","-116.959","33.759","92544"
"","","San Joaquin Mobile Farmers Market","ca","","","","market","http://www.partnershipph.org/gallery/story/san-joaquin-mobile-farmers-market","","",""
"San Jose","","San Jose City Hall FM","ca","5Th Street & San Fernado St.","","","market","","-121.885","37.3363",""
"Fremont","","San Jose Evergreen Farmers Market","ca","300 Aborn Rd., La Rochelle Winery","","","market","http://www.urbanvillageonline.com","-121.779","37.3153","94538"
"San Leandro","https://www.facebook.com/BayfairFarmersMkt","San Leandro Certified Farmers' Market at Bayfair Center","ca","Bayfair Center, 15555 East 14th Street","organic baked goods cheese flowers eggs seafood herbs vegetables honey jams meat nuts plants soap trees beans fruits grains juices mushrooms","https://twitter.com/cafarmersmkts","market","http://www.cafarmersmkts.com/markets/category/bayfair","-122.125166","37.702082","95678"
"San Lorenzo","","San Lorenzo FM","ca","Hesperian Blvd. And Paso Grande St.","organic","","market","","-122.127","37.6794",""
"San Luis Obispo ","https://www.facebook.com/sloccfm","San Luis Obispo Certified Farmers' Market ","ca","3889 Long Street","baked goods flowers eggs vegetables jams prepared-foods fruits juices","@sloccfm","market","http://www.sloccfm.com","-120.670780","35.247382","93401"
"San Marcos ","https://www.facebook.com/SanMarcosFarmersMarket","San Marcos Certified Farmers' Market","ca","1020 San Marcos Blvd","organic baked goods crafts flowers eggs herbs vegetables honey jams nuts plants prepared-foods soap trees fruits juices wild","","market","http://www.sdfarmbureau.org","-117.190931","33.135686","92078"
"San Mateo","facebook.com/25thAveFarmersMarket","San Mateo @ 25th Ave. Certified Farmers' Market","ca","25th Ave. and Hacienda St.","eggs seafood vegetables honey nuts prepared-foods fruits","twitter.com/PacCoastFarmers","market","http://pcfma.org","-122.309607","37.543848","94403"
"San Mateo","","San Mateo Event Center CFM","ca","2495 South Delaware Street, San Mateo Event Center","","","market","","-122.303","37.546",""
"Paso Robles","","San Miguel Farmers Market","ca","Mission & 10th","","","market","","-120.697","35.7477","93446"
"San Pablo ","https://www.facebook.com/SanPabloFarmersMarket","San Pablo Farmers' Market","ca","13831 San Pablo Ave.","organic baked goods herbs vegetables honey nuts prepared-foods soap fruits","","market","http://www.pcfma.org","-122.3411614","37.9586052",""
"San Rafael","https://www.facebook.com/downtownsanrafaelmarket/","San Rafael Downtown Farmers Market","ca","4th & B Streets, San Rafael, California 94915","organic baked goods cheese crafts flowers herbs vegetables honey jams plants poultry prepared-foods soap wine fruits grains juices pet food wild","","market","http://sanrafaelmarket.org","-122.5294769","37.9732654","94903"
"San Ramon","https://www.facebook.com/SanRamonFarmersMarket","San Ramon Farmers Market ","ca","2680 Bishop Drive","","","market","http://www.sanramonfarmersmarket.wordpress.com/","-121.961","37.7636","94583"
"Sanger","","Sanger Farmers' Market & Street Faire","ca","7th and N Streets","crafts herbs vegetables honey jams prepared-foods soap fruits","","market","","-119.557378","36.706334","93657"
"Santa Rosa","https://www.facebook.com/pages/Santa-Rosa-Farmers-Market/211418155616864","Santa  Rosa Original Certified Farmers Market","ca","50 Mark West Springs Road  Wells Fargo Center for the Arts","organic baked goods cheese crafts flowers eggs seafood herbs vegetables honey jams meat nuts plants poultry prepared-foods soap wine fruits","https://twitter.com/SantaRosaFrmMkt","market","http://www.thesantarosafarmersmarket.com","-122.7144314","38.4404674","95403"
"Goleta","","Santa Barbara Farmers Market","ca","7004 Marketplace Drive","organic baked goods cheese flowers seafood herbs vegetables jams meat nuts plants","","market","http://www.sbfarmersmarket.org","-119.872","34.4293","93105"
"Santa Barbara","","Santa Barbara Farmers Market","ca","600 Santa Barbara St.","organic baked goods cheese flowers seafood herbs vegetables honey jams meat nuts plants","","market","http://www.sbfarmersmarket.org","-119.695","34.4199","93103"
"Santa Barbara","","Santa Barbara Farmers Market","ca","600 State Street","organic baked goods cheese flowers seafood herbs vegetables honey jams meat nuts plants","","market","http://www.sbfarmersmarket.org","-119.697","34.4177","93103"
"Santa Barbara","","Santa Barbara La Cumbre Farmers Market","ca","110 South Hope Avenue","","","market","http://www.sbfarmersmarket.org","-119.747","34.4378","93101"
"Santa Clara","","Santa Clara Farmers' Market","ca","Jackson Street at Homestead Road","organic baked goods cheese crafts flowers eggs seafood herbs vegetables honey jams meat nursery nuts plants poultry prepared-foods soap","","market","http://www.urbanvillageonline.com","-121.9464195","37.3479946","95050"
"San Jose","www.facebook.com/SCVMCFarmersMarket","Santa Clara Valley Medical Center Farmers' Market","ca","751 South Bascom","organic vegetables prepared-foods fruits","www.twitter.com/PacCoastFarmers","market","http://www.pcfma.org","-121.9328811","37.3128688",""
"Santa Clarita","https://www.facebook.com/vccfm","Santa Clarita Certified Farmers' Market","ca","26455 N. Rockwell Canyon Road","organic baked goods cheese flowers eggs herbs vegetables honey jams meat nuts plants poultry prepared-foods soap trees fruits juices","","market","http://www.vccfarmersmarkets.com","-119.050939","34.245836","91355"
"Santa Maria","","Santa Maria CFM","ca","Mervyns parking lot","","","market","","-118.081","33.9039","93444"
"Santa Monica ","MonicaFarMar","Santa Monica Farmers Market - Saturday Downtown","ca","300 Arizona Ave","organic baked goods cheese flowers eggs seafood herbs vegetables honey jams meat nuts plants poultry prepared-foods trees beans fruits grains juices mushrooms wild","smfms","market","http://farmersmarket.smgov.net","-118.4976309","34.0170450","90401"
"Santa Monica","santa monica farmers markets","Santa Monica Farmers Market - Sunday Main Street","ca","2640 Main Street","organic baked goods cheese crafts flowers eggs seafood herbs vegetables honey jams meat nuts plants poultry prepared-foods soap trees coffee beans fruits grains juices mushrooms","smfms","market","http://www.farmersmarket.smgov.net","-118.4833330","34.0014563","90405"
"Santa Monica ","MonicaFarMar","Santa Monica Pico","ca","2200 Virginia Ave","organic baked goods cheese flowers eggs seafood herbs vegetables honey jams meat nuts plants poultry prepared-foods trees coffee beans fruits grains juices mushrooms wild","smfms","market","http://farmersmarket.smgov.net","-118.4681932","34.0213001","90404"
"Santa Paula","","Santa Paula CFM","ca","Hallock and Telegraph","","","market","","-119.106","34.3817","93013"
"Santa Rosa ","https://www.facebook.com/santarosacommunityfarmersmarket/","Santa Rosa Community Farmers Market at the Veterans Building","ca","1351 Maple Ave","organic baked goods cheese crafts flowers eggs seafood herbs vegetables honey jams meat nuts plants poultry prepared-foods soap trees coffee beans fruits grains juices mushrooms pet food tofu","","market","http://www.communityfarmersmarkets.com","-122.700199","38.434437","95404"
"Santa Rosa","https://www.facebook.com/Santa-Rosa-Downtown-Market-Wednesday-Night-Market-293742913694/","Santa Rosa Downtown Market (Wednesday Night Market)","ca","Courthouse Square & 4th St","organic baked goods cheese crafts flowers eggs herbs vegetables honey jams meat plants prepared-foods soap wine coffee fruits juices mushrooms wild","","market","http://www.wednesdaynightmarket.org","-122.7135900","38.4406777","95404"
"Santa Rosa","","Santa Rosa Oakmont CFM","ca","Bank Parking Lot","","","market","","-122.607","38.4414","95409"
"San Jose","www.facebook.com/SantaTeresaFarmersMarket","Santa Teresa Farmers' Market","ca","Santa Teresa Blvd. and Camino Verde Dr.","organic baked goods cheese flowers eggs seafood vegetables honey nuts plants poultry prepared-foods trees fruits mushrooms","www.twitter.com/PacCoastFarmers","market","http://www.pcfma.org","-121.8010961","37.2370797",""
"Santee","https://www.facebook.com/pages/Santee-Certified-Farmers-Market/272268856255","Santee Certified Farmer's Market","ca","9608 Carlton Hills Blvd","organic baked goods cheese crafts flowers eggs seafood herbs vegetables honey jams meat nuts plants prepared-foods soap fruits juices mushrooms","Santee Certified Farmer's Market","market","http://www.santeefarmersmarket.com","-116.999234","32.852133","92071"
"Saratoga","https://www.facebook.com/SarFarmersMkt","Saratoga Certified Farmers' Market","ca","West Valley College, 14000 Fruitvale Avenue","organic baked goods cheese flowers eggs seafood herbs honey jams meat nuts plants poultry prepared-foods soap trees coffee beans fruits grains juices mushrooms tofu","https://twitter.com/cafarmersmkts","market","http://www.cafarmersmkts.com/markets/category/saratoga","-122.011452","37.264228","95070"
"Finley","https://www.facebook.com/Lake-County-Farmers-Finest-124667697570982/","Saturday Morning Market at Steele Wines","ca","Thomas Dr./ Highway 29","organic baked goods cheese crafts flowers eggs seafood herbs vegetables honey jams nuts plants prepared-foods soap trees coffee fruits","","market","http://www.lakecountyfarmersfinest.org","-122.875340","38.992593","95435"
"Sausalito","","Sausalito CFM","ca","Bridgeway St. & Tracy St.","","","market","","-122.481","37.8573","94949"
"Scotts Valley","https://www.facebook.com/ScottsValleyFarmersMarket","Scotts Valley Farmers Market","ca","360 Kings Village Drive","organic baked goods flowers eggs seafood herbs honey jams meat nuts plants poultry prepared-foods soap coffee beans fruits juices","https://twitter.com/SCFarmersMkts","market","http://www.santacruzfarmersmarket.org","-122.028204","37.050323",""
"San Diego","https://www.facebook.com/scrippsranchfarmersmarket","Scripps Ranch Farmers Market & Family Festival","ca","10380 Spring Canyon Rd.","organic baked goods cheese crafts flowers eggs seafood herbs vegetables honey jams nuts plants prepared-foods soap trees fruits juices","","market","http://www.SRFM.org","-117.0955070","32.9355380","92131"
"Sebastopol","","Sebastopol CFM","ca","New Town Plaza","","","market","","-122.842","38.3961","95472"
"San Francisco","","Second Street Plaza Farmers' Market","ca","303 Second St. between Folsom and Harrison Streets","organic herbs vegetables honey nuts","","market","http://www.urbantable.org","-122.395785","37.785046","94107"
"Selma","","Selma Farmers Market","ca","1st & High Street","","","market","","-119.612","36.5687","93662"
"Anderson","Shasta Growers Association Farmers Markets","Shasta Growers Association Certified Farmers Markets/Anderson Market","ca","1699 Hwy 273","baked goods cheese crafts flowers eggs vegetables honey poultry prepared-foods soap fruits","","market","http://www.shastagrowersassociation.com","-122.288172","40.435319","96007"
"Burney ","Shasta Growers Association Farmers Markets","Shasta Growers Association Certified Farmers Markets/Burney Market","ca","37143 Main Street","baked goods flowers eggs vegetables prepared-foods fruits","","market","http://www.shastagrowersassociation.com","-121.663545","40.881799","96013"
"Redding ","Shasta Growers Association Farmers Markets","Shasta Growers Association Certified Farmers Markets/Marilyn Miller Market","ca","1700 Churn Creek Road","baked goods crafts flowers eggs vegetables honey poultry prepared-foods trees coffee fruits","","market","http://www.shastagrowersassociation.com","-122.354616","40.581776","96001"
"Redding","Shasta Growers Association Farmers Markets","Shasta Growers Association Certified Farmers Markets/Saturday Redding Market","ca","777 Cypress Ave.","organic baked goods cheese crafts flowers eggs herbs vegetables honey jams meat nuts plants poultry prepared-foods soap trees wine coffee fruits juices","","market","http://www.shastagrowersassociation.com","-122.381055","40.572288","96001"
"Redding","Shasta Growers Association Farmers Markets","Shasta Growers Association Certified Farmers Markets/Turtle Bay Market","ca","Sundial Bridge Drive","organic baked goods cheese crafts flowers eggs herbs vegetables honey jams prepared-foods soap coffee fruits","","market","http://www.shastagrowersassociation.com","-122.377865","40.591272","96001"
"Shelter Cove","","Shelter Cove CFM","ca","Machi Road next to motel","","","market","","-124.067","40.026",""
"","","Sierra Madre CFM","ca","S. Baldwin St. & Mariposa St.","","","market","","-118.053","34.1609",""
"Porterville ","visalia farmers market","Sierra View Farmers Market","ca","465 W Putnam ","eggs vegetables honey nuts soap fruits juices","","market","http://visaliafarmersmarket.com","-119.025728","36.069080","93257"
"Los Angeles","wwww.facebook.com/silverlake.cfm","Silver Lake CFM","ca","1500 Griffith Park Blvd","organic baked goods cheese crafts flowers eggs seafood herbs vegetables honey jams maple nuts plants prepared-foods soap coffee fruits juices tofu wild","","market","","-118.277386","34.090541","90026"
"Simi Valley","https://www.facebook.com/simivalleycertifiedfarmersmarket/","Simi Valley City Hall Certified Farmers' Market","ca","2757 Tapo Canyon rd","organic baked goods cheese crafts flowers eggs herbs vegetables honey jams nuts prepared-foods soap coffee fruits","","market","","-118.718091","34.285295","93093"
"Placerville","https://facebook.com/solcommunityfarmersmarket","SOL Community Farmers' Market","ca","241 Main Street","organic baked goods cheese crafts flowers eggs herbs vegetables honey jams meat nuts prepared-foods soap trees wine fruits mushrooms pet food wild","https://twitter.com/solcfm","market","http://www.solcommunityfarmersmarket.com","-120.803523","38.727845","95667"
"Solana Beach","https://www.facebook.com/SolanaBeachFarmersMarket","Solana Beach Farmers Market","ca","444 South Cedros Avenue","organic baked goods cheese crafts flowers eggs seafood herbs vegetables honey jams meat nuts plants poultry prepared-foods soap coffee fruits juices mushrooms pet food","","market","http://www.solanabeachfarmersmarket.com","-117.269204","32.987194","92075"
"Soledad","","Soledad FM","ca","Encinal St. & Front St.","","","market","","-121.33","36.4275",""
"Solvang","","Solvang CFM","ca","Copenhagen Dr. & 1st St.","","","market","http://www.sbfarmersmarket.org","-120.14","34.595","93101"
"Somersville","","Somersville CFM","ca","","","","market","","-121.842","38.0033",""
"Donoma","","Sonoma Friday CFM","ca","Depot Museum parking lot","","","market","","-122.475","38.2953","95409"
"Sonora","www.facebook.com/sonorafarmersmarket","Sonora's Certified Farmers' Market","ca","Theall and Stewart Street","baked goods cheese crafts flowers eggs seafood herbs vegetables honey jams meat nuts plants poultry trees coffee fruits juices mushrooms","https://twitter.com/Sheala_W","market","http://www.sonoraca.com/visitsonora/farmer","-120.3816619","37.9836641","95370"
"Berkeley","","South Berkeley Farmers' Market","ca","Adeline Street at 63rd Street","organic baked goods cheese flowers eggs seafood herbs vegetables honey jams meat nuts poultry prepared-foods trees beans fruits grains juices mushrooms tofu","https://twitter.com/ecbfm","market","http://www.ecologycenter.org/fm","-122.2719224","37.8477611","94703"
"South Gate","https://www.facebook.com/harborareafarmersmarkets","South Gate Farmers Market","ca","4855 Tweedy Blvd","organic baked goods eggs herbs vegetables honey jams nuts plants prepared-foods trees fruits juices mushrooms","","market","http://www.goodveg.org","-118.184745","33.942098","90280"
"South Lake Tahoe","","South Lake Tahoe Tuesday Farmers Market","ca","American Legion Hall (Hwy 50)","organic baked goods cheese crafts flowers eggs seafood herbs vegetables honey jams meat nuts plants poultry prepared-foods soap trees coffee beans fruits","","market","http://www.eldoradofarmersmarket.com","-119.979964","38.929445","96150"
"South Pasadena","https://www.facebook.com/pages/South-Pasadena-Farmers-Market/130261473671096","South Pasadena Farmers Market","ca","Meridan Ave. and El Centro Street","organic baked goods cheese flowers eggs seafood herbs vegetables honey jams meat nuts poultry prepared-foods soap trees beans fruits juices mushrooms","","market","http://www.southpasadenafarmersmarket.org","-118.1572818","34.1147385","91030"
"South San Francisco ","facebook.com/SouthCityFarmersMarket","South San Francisco Certified Farmers' Market","ca","748 Tennis Drive","organic baked goods herbs vegetables honey prepared-foods fruits","twitter.com/PacCoastFarmers","market","http://pcfma.org","-122.427016","37.654723","94080"
"Morro Bay","","Spencer's Market - Morro Bay","ca","Hwy. 1, North of Hwy. 41 Jtn.","","","market","http://www.slocountyfarmers.org","-120.859","35.3904","93442"
"St. Helena","https://www.facebook.com/shfarmersmarket/","St Helena Farmers Market (Napa Valley California)","ca","360 Crane Avenue","organic baked goods cheese crafts flowers eggs seafood herbs vegetables honey jams maple meat nuts plants poultry prepared-foods soap wine coffee beans fruits grains juices mushrooms wild","","market","http://sthelenafarmersmkt.org","-122.465451","38.492470","94574"
"Standord","","Stanford CFM","ca","Tressider Union","","","market","","-122.171","37.4244","94305"
"Stockton","","Stockton Downtown Certified Farmers Market","ca","200 Main Street","organic baked goods crafts flowers eggs herbs vegetables jams plants prepared-foods trees fruits","","market","http://www.sjcfarmersmarket.com","-121.287689","37.953072","95201"
"Stockton","","Stockton Kaiser CFM","ca","Kaiser Parking Lot","","","market","http://www.stocktonfarmersmarket.org","-121.289","37.953","95205"
"Stockton","","Stonecreek Village Farmers' Market","ca","5757 Pacific Ave.","organic baked goods vegetables prepared-foods","","market","http://www.pcfma.com/stonecreek","-121.3184910","38.0014260","95207"
"San Francisco","https://www.facebook.com/StonestownFarmersMarket/?fref=ts","Stonestown Farmers Market","ca","3251 20th Ave","organic baked goods cheese crafts flowers eggs seafood herbs vegetables honey jams meat nuts poultry prepared-foods wine coffee beans fruits grains juices mushrooms tofu","","market","https://www.agriculturalinstitute.org/directory/listing-details/stonestown-market","-122.478978","37.730057","94132"
"Studio City","","Studio City Farmers Market","ca","Ventura Place And Radford Avenue","","","market","","-118.393","34.1434",""
"Modesto","","Sunblest","ca","10Th Street Modesto","","","market","","-120.996","37.6372",""
"San Rafael","https://www.facebook.com/MarinFarmersMarkets/?fref=ts","Sunday Civic Center Farmers Market","ca","3501 Civic Center Dr.","organic baked goods cheese crafts flowers eggs seafood herbs vegetables honey jams maple meat nuts plants poultry prepared-foods soap trees wine coffee beans fruits grains juices mushrooms pet food tofu","","market","https://www.agriculturalinstitute.org/directory/listing-details/sunday-san-rafael-market","-122.531204","37.998052","94903"
"Sunnyvale","","Sunnyvale Farmers' Market","ca","Murphy Avenue Between Washington & Evelyn Streets","organic baked goods cheese crafts flowers eggs seafood herbs vegetables honey jams meat nursery nuts plants poultry prepared-foods soap trees","","market","http://www.urbanvillageonline.com","-122.0072376","37.3713926","94088"
"Citrus Heights","https://www.facebook.com/SunriseMallFarmersMarket?fref=ts","Sunrise Mall Farmers Market","ca","6196 Sunrise Boulevard","organic baked goods cheese flowers eggs seafood herbs vegetables honey jams meat nuts plants poultry prepared-foods soap trees coffee beans fruits juices mushrooms pet food wild","","market","http://www.bemoneysmartusa.org","-121.267404","38.671941","95610"
"Rancho Cordova","","Sunrise Station Certified Farmers' Market","ca","Folsom Blvd & Sunrise Blvd","organic baked goods cheese flowers eggs herbs vegetables honey jams meat nursery nuts plants poultry","","market","http://www.marketlocations.com","-121.2694","38.60565","95670"
"Cedarville ","https://www.facebook.com/SVSaturdayMarket","Surprise Valley Saturday Market","ca","Bonner Street at Main","baked goods cheese crafts flowers eggs herbs vegetables honey jams plants poultry soap trees coffee fruits","","market","http://www.svsaturdaymarket.org","-120.171644","41.527751","96104"
"Davis","https://www.facebook.com/SutterDavisHospital","Sutter Davis Hospital Farmers Market","ca","2000 Sutter Place","organic baked goods flowers eggs herbs vegetables honey jams nuts plants fruits","","market","http://www.sutterdavis.org/farmersmarket/","-121.771134","38.562819","95616"
"Tahoe City","https://www.facebook.com/tahoecityfarmersmarket/","Tahoe City Farmers Market Thursday CFM","ca","400 N Lake Blvd","organic baked goods cheese crafts flowers seafood herbs vegetables honey jams meat nuts poultry prepared-foods soap wine coffee fruits juices mushrooms wild","","market","http://www.tahoecityfarmersmarket.com","-120.141130","39.169938","96145"
"Mill Valley","","Tam Valley Farmers Market","ca","219 Shoreline Highway","","","market","http://www.tcsd.us/index.aspx?page=18&recordid=2214","-122.524","37.8803","94941"
"Tarzana","","Tarana Farmers Market","ca","19130 Ventura Blvd.","","","market","http://www.farmernet.com","-118.549","34.1726","91356"
"Tehachapi","","Tehachapi CFM","ca","Green  and S. Robinson Street","","","market","","-118.447","35.131","93561"
"Oakland","","Temescal Farmers' Market","ca","5300 Claremont Avenue","organic baked goods cheese crafts flowers eggs seafood herbs vegetables honey jams meat nursery nuts plants poultry prepared-foods soap trees","","market","http://www.urbanvillageonline.com","-122.2603683","37.8394875","94618"
"Temple City","https://www.facebook.com/pages/Temple-City-Farmers-Market/117101011699239","Temple City CFM ","ca","9701 Las Tunas Blvd","organic baked goods flowers eggs herbs vegetables honey jams plants prepared-foods trees fruits juices","https://twitter.com/TempleCityFarmersMarket","market","http://WWW.PASADENAFARMERSMARKET.ORG","-118.0578630","34.1076900","91780"
"Templeton","","Templeton CFM","ca","6th St. & Crocker","","","market","http://www.northcountyfarmersmarkets.com","-120.707","35.5491","93446"
"Templeton","https://www.facebook.com/NorthCountyFarmersMarkets","Templeton Farmers Market","ca","6th & Crocker Streets","","","market","http://www.northcountyfarmersmarkets.com/","-120.707","35.5488","93465"
"Lancaster","https://www.facebook.com/TheBlvdFarmersMarket","The BLVD Market","ca","Lancaster Boulevard, between Fern Avenue and Ehrlich Avenue","organic baked goods cheese crafts eggs herbs vegetables honey jams nuts prepared-foods soap wine coffee beans fruits juices pet food","","market","http://www.cityoflancasterca.org/blvdmarket","-118.143269","34.697669","93534"
"Irvine","","The Farmers Market at the Great Park","ca","The Great Park","organic baked goods cheese crafts flowers eggs seafood herbs vegetables honey jams nursery nuts plants prepared-foods soap trees","","market","http://www.orange.cfbf.com/","-117.7490656","33.6652420","92618"
"Redlands","https://www.facebook.com/pages/The-Farmers-Market-at-The-Grove-School/174657082577947","The Farmers Market at the Grove School","ca","11126 Iowa Street","","","market","","-117.213","34.0515","92373"
"Burlingame","","The Fresh Market Burlingame (2)","ca","Capuchino Avenue at Broadway","","","market","","-122.365","37.5852",""
"Visalia","","The Market Downtown Tulare","ca","K Street","","","market","http://www.tularedowntown.com/Pages/FarmersMarket/Farmers%20Market.html","-119.274","36.3073","93292"
"Dana Point","https://www.facebook.com/danapointcertifiedfarmersmarket","The New Dana Point CFM","ca","Dana Pt. Pacific Coast Hwy & Golden Lantern St.","baked goods crafts flowers eggs seafood herbs vegetables honey jams nuts plants poultry prepared-foods soap trees coffee fruits mushrooms pet food","","market","","-117.699022","33.467790","92629"
"Petaluma ","https://www.facebook.com/petalumaeastsidefarmersmarket/","The Petaluma East Side Farmers' Market","ca","320 N McDowell Blvd","organic baked goods cheese crafts flowers eggs seafood herbs vegetables honey jams meat nuts plants poultry prepared-foods soap trees coffee beans fruits grains juices mushrooms pet food tofu","","market","http://www.communityfarmersmarkets.com","-122.630899","38.252337","94954"
"Boyes Hot Springs ","https://www.facebook.com/TheSpringsCommunityFarmersMarket/","The Springs Community Farmers' Market ","ca","Parking lot at Boyes Blvd & Hwy 12","organic baked goods cheese crafts flowers eggs seafood herbs vegetables honey jams maple meat nuts plants prepared-foods soap coffee beans fruits juices mushrooms tofu","","market","http://www.communityfarmersmarkets.com","-122.482053","38.314330","95476"
"Los Angeles","The WALL Food Flowers","The WALL Food + Flowers + Farmers Market","ca","755 Wall Street","organic baked goods crafts flowers herbs vegetables honey jams plants prepared-foods soap trees coffee fruits pet food","The WALL","market","http://www.communityevent.org","-118.249691","34.040809","90014"
"Woodland ","https://www.facebook.com/pages/The-Woodland-Farmers-Market/128409933892000","The Woodland Farmers Market","ca","250 First Street ","organic baked goods crafts flowers eggs seafood herbs vegetables honey jams meat prepared-foods soap fruits grains","","market","http://www.thewoodlandfarmersmarket.org","-121.7737712","38.6792311","95695"
"Woodland","https://www.facebook.com/pages/The-Woodland-Farmers-Market/128409933892000","The Woodland Farmers Market at Woodland Healthcare","ca","Corner of Cottonwood and Gibson Rd","organic baked goods flowers eggs seafood herbs vegetables honey jams plants prepared-foods fruits","","market","http://www.thewoodlandfarmersmarket.org","-121.793045","38.663686","95695"
"Thousand Oaks","https://www.facebook.com/vccfm","Thousand Oaks Certified Farmers' Market","ca","230 W. Hillcrest Drive","organic baked goods cheese flowers eggs seafood herbs vegetables honey jams meat nuts plants poultry prepared-foods soap trees fruits","","market","http://www.vccfarmersmarkets.com","-118.883760","34.181413","91301"
"San Rafael","https://www.facebook.com/MarinFarmersMarkets/?fref=ts","Thursday Civic Center Farmers Market","ca","Marin Center, Avenue of the Flags","organic baked goods cheese crafts flowers eggs seafood herbs vegetables honey jams maple meat nuts poultry prepared-foods soap wine coffee beans fruits grains juices mushrooms pet food tofu","","market","https://www.agriculturalinstitute.org/directory/listing-details/thursday-san-rafael-market","-122.533581","38.002859","94903"
"San Rafael ","https://www.facebook.com/MarinFarmersMarkets/","Thursday Marin Farmers Market","ca","Avenue of the Flags, San Rafael , California 94903","organic baked goods cheese flowers eggs seafood herbs vegetables honey jams maple meat nuts poultry prepared-foods trees coffee beans fruits grains juices mushrooms wild","","market","http://agriculturalinstitue.org","-122.534505","38.001229","94903"
"Tiburon ","https://www.facebook.com/TiburonFarmersMarket/","Tiburon Farmers Market ","ca","Main Street ","organic baked goods cheese crafts flowers eggs seafood herbs vegetables honey jams meat nuts plants prepared-foods soap wine coffee beans fruits grains juices mushrooms tofu","","market","http://www.communityfarmersmarkets.com","-122.456280","37.873323","94920"
"Toluca Lake","","Toluca Lake CFM","ca","Sancola Avenue & Riverside Drive","","","market","","-118.549","34.1726","91356"
"Topanga","","Topanga Canyon Certified Farmer's Market","ca","120 S. Topanga Canyon Blvd","organic flowers herbs vegetables honey jams meat nuts","","market","","-118.605","34.0906","90290"
"Torrance","","Torrance Certified Farmers' Market -Tuesday and saturday- 2200 Crenshaw Blvd Torrance,Ca.90501","ca","2200 Crenshaw Blvd","organic baked goods cheese flowers eggs seafood herbs vegetables honey jams meat nursery nuts plants poultry prepared-foods trees","","market","","-118.3284440","33.8249448","90501"
"Fresno ","","Tower District Farmers Market","ca","1201 N. Van Ness Avenue","organic crafts flowers herbs vegetables honey prepared-foods fruits","","market","","-119.799153","36.757911","93728"
"El Dorado Hills","","Town Center Sunday Farmers' Market","ca","Town Center Blvd.","organic baked goods cheese crafts flowers eggs seafood herbs vegetables honey jams meat nuts plants poultry soap wine coffee beans fruits","","market","http://www.eldoradofarmersmarket.com","-121.065914","38.650811","95762"
"Tracy","","Tracy Kaiser CFM","ca","Kaiser Parking Lot","","","market","http://www.stocktonfarmersmarket.org","-121.456","37.7553",""
"Tracy","","Tracy Wednesday CFM","ca","333 Civic Center Plaza","","","market","","-121.419","37.7378",""
"Trinidad","","Trinidad CFM","ca","View & Main Streets","","","market","","-124.141","41.0613","95570"
"Truckee","https://www.facebook.com/truckeefarmersmarket/","Truckee Community Farmers Market","ca","12047 Donner Pass Road","baked goods flowers eggs seafood herbs vegetables jams meat prepared-foods wine fruits","","market","http://www.truckeefarmersmarket.org","-120.222507","39.325129","96161"
"Patterson","","True Value Patterson FM","ca","1040 W. Las Palmas","","","market","","-121.11","37.4806",""
"Lakeport","https://www.facebook.com/Tuesday-Farmers-Market-at-Library-Park-238157099542658/","Tuesday Morning Market at Library Park","ca","www.lakecountyfarmersfinest.org","organic cheese crafts flowers herbs vegetables honey jams nuts plants prepared-foods soap fruits","","market","http://www.lakecountyfarmersfinest.org","-122.913740","39.043566","95453"
"Tuolumne","","Tuolumne Memorial Park CFM","ca","Tuolumne City Memorial Park","","","market","","-120.237","37.9604","95379"
"Turlock","","Turlock Certified Farmers Market ","ca","W Main St & S Broadway St","","","market","http://www.turlockmarket.org/","-120.848","37.4933","95380"
"Turlock","","Turlock Gourmet CFM","ca","Main & Golden State","","","market","http://www.turlockdowntown.org","-120.846","37.4946","95380"
"Tustin","https://www.facebook.com/ocfarmbureaufarmersmarkets","Tustin Certified Farmers' Market","ca","El Camino Real and 3rd Street","organic baked goods cheese flowers eggs seafood herbs vegetables honey jams meat nuts plants prepared-foods coffee fruits juices mushrooms","","market","http://www.orange.cfbf.com","-117.823466","33.743241","92780"
"Twain Harte","","Twain Harte CFM","ca","Eproson Park","","","market","","-120.232","38.0384","95383"
"Davis","https://www.facebook.com/UCDavisFarmersMarket","UC Davis Farmers Market","ca","Quad","organic herbs vegetables honey nuts plants trees fruits juices","","market","http://www.ucdavisfarmersmarket.org","-121.7499278","38.5430292","95616"
"La Jolla","","UCSD Certified Farmers' Market","ca","Town Square at Gilman and Meyers Dr.","organic flowers vegetables prepared-foods fruits","","market","","-117.236148","32.878533","92093"
"Ukiah","https://www.facebook.com/UkiahFarmersMarket","Ukiah Saturday CFM","ca","Corner W. Clay St and S. School St","organic baked goods cheese flowers eggs seafood herbs vegetables honey jams meat nuts plants poultry prepared-foods soap wine coffee fruits juices","","market","http://www.mcfarm.org","-123.2081","39.1479","95482"
"Union City","","Union City Farmers' Market","ca","3864 Smith Street","organic baked goods flowers vegetables prepared-foods","","market","http://www.pcfma.com/unioncity","-122.0782062","37.5964855","94587"
"San Francisco","","University Of San Francisco FM","ca","650 Parker Ave.","","","market","","-122.452","37.7756",""
"San Francisco ","facebook.com/UpperHaightFarmersMarket","Upper Haight Certified Farmers' Market","ca","Stanyan St. and Waller St.","organic baked goods eggs herbs vegetables meat poultry fruits","twitter.com/PacCoastFarmers","market","http://pcfma.org","-122.4533286","37.7682478","94117"
"Whittier","","Uptown Whittier CFM","ca","Bright St. And Philadelphia St.","","","market","","-118.036","33.9791",""
"San Mateo","","Urban Table Certified Farmer's Market","ca","100 E. 4th Avenue","","","market","","-122.324","37.5663",""
"San Diego ","https://www.facebook.com/UTCFarmersMarket","UTC Certified Farmers Market","ca","South of Regents Rd. and Arriba St. ","baked goods cheese crafts eggs herbs vegetables honey maple nuts plants prepared-foods soap coffee fruits juices","","market","http://www.sdmarketmanager.com","-117.222193","32.858890","92122"
"Palo Alto ","www.facebook.com/VAPaltoAltoFarmersMarket","VA Palo Alto Farmers' Market","ca","3801 Miranda Ave.","organic baked goods vegetables honey prepared-foods fruits","www.twitter.com/PacCoastFarmers","market","http://www.pcfma.org","-122.139744","37.404409",""
"San Francisco ","","VA San Francisco Certified Farmers' Market","ca","4150 Clement St.","organic baked goods flowers herbs vegetables jams nuts prepared-foods fruits","twitter.com/PacCoastFarmers","market","http://pcfma.org","-122.503942","37.781760","94121"
"San Francisco","","VA San Francisco Farmers' Market","ca","Veterans Drive & 42 Avenue","organic flowers vegetables","","market","http://www.pcfma.com","-122.5030878","37.7811798","94121"
"Vacaville","","Vacaville Farmers' Market","ca","Main St. between Parker and Dobbins","organic baked goods flowers herbs vegetables honey jams nuts prepared-foods fruits","","market","http://www.pcfma.org","-121.9877444","38.3565773",""
"Murphys","","Val Du Vino Farmers Market","ca","634 French Gulch Rd.","cheese flowers eggs vegetables honey jams prepared-foods soap wine fruits","","market","","-120.469","38.138",""
"Cupertino ","www.facebook.com/VallcoFarmersMarket","Vallco Farmers' Market","ca","10101 N. Wolfe Rd.","organic baked goods cheese flowers eggs seafood vegetables meat plants poultry prepared-foods trees fruits","www.twitter.com/PacCoastFarmers","market","http://www.pcfma.org","-122.0158532","37.3242945","95014"
"Vallejo","https://www.facebook.com/VallejoFarmersMarket","Vallejo Farmers' Market","ca","Georgia and Marin St.","organic baked goods cheese flowers eggs seafood herbs vegetables honey jams prepared-foods soap trees fruits juices","","market","http://www.pcfma.org","-122.2566420","38.1011190",""
"Valley Center","","Valley Center CFM","ca","28751 Cole Grade Rd.","organic","","market","http://www.sdfarmbureau.org","-117.024","33.2348","92082"
"Bakersfield","","Valley Farmers' Market Association LLC","ca","3201 ""F"" Street","organic baked goods cheese crafts flowers eggs herbs honey jams meat nuts plants prepared-foods soap trees coffee fruits juices pet food tofu","","market","http://www.farmersmarketbakersfield.com","-119.0249978","35.3885777",""
"Shafter","","Valley Farmers' Market Association LLC","ca","","baked goods eggs vegetables honey jams nuts fruits","","market","http://www.farmersmarketbakersfield.com","-119.2717761","35.5005139","93263"
"Sonoma","https://www.facebook.com/pages/Valley-of-the-Moon-Certified-Farmers-Market/486196241421991","Valley of the Moon Certified Farmers' Market","ca","No. 1 The Plaza","organic baked goods cheese crafts flowers eggs herbs vegetables honey jams nuts plants prepared-foods soap wine coffee fruits juices mushrooms","","market","http://www.sonomaplazamarket.org","-122.457808","38.292177","95476"
"Vandenberg Village","www.facebook.com/villagegoesgreen","Vandenberg Village Certified Farmers Market","ca","120 Burton Mesa Blvd","organic baked goods flowers eggs herbs vegetables honey jams nuts plants prepared-foods trees coffee beans fruits juices","","market","http://www.villagegoesgreen.org","-120.468728","34.699856","93436"
"Venice","","Venice CFM","ca","","organic baked goods cheese flowers eggs seafood herbs vegetables honey jams maple meat nuts plants poultry prepared-foods trees wine coffee beans fruits grains juices mushrooms tofu wild","","market","http://VeniceFarmersMarket.com","-118.465792","33.987218","90291"
"Ventura","https://www.facebook.com/vccfm","Ventura Saturday Downtown CFM","ca","Santa Clara & Palm Streets","organic baked goods cheese flowers eggs seafood herbs vegetables honey jams meat plants poultry prepared-foods soap trees fruits","","market","http://www.vccfarmersmarkets.com","-119.295915","34.279734","93001"
"Fresno ","https://www.facebook.com/VineyardFarmersMarket/","Vineyard Farmers Market","ca","100 W. Shaw","organic baked goods cheese flowers eggs herbs vegetables honey jams meat nuts plants prepared-foods coffee fruits grains juices mushrooms","","market","http://www.vineyardfarmersmarket.com","-119.7910413","36.8097606","93704"
"Stockton","","Vintage Certified Farmers Market","ca","Holmen Rd & Hammer ln.","","","market","","-121.271","38.0212",""
"Modesto","","Vintage Fair Mall","ca","3401 Dale Road","","","market","","-121.05","37.6899",""
"Visalia","https://www.facebook.com/visaliafarmersmarket","Visalia Farmers Market- Downtown Thursday","ca","North and South 100 Blocks of Church Street","organic baked goods cheese crafts eggs herbs vegetables honey jams nuts plants poultry prepared-foods soap fruits juices","","market","http://www.visaliafarmersmarket.com","-119.291180","36.330258","93291"
"Visalia","https://www.facebook.com/visaliafarmersmarket","Visalia Farmers Market- Sears Saturday Market","ca","5401 Mooney Blvd.","organic baked goods cheese crafts flowers eggs herbs vegetables honey jams meat nuts plants poultry prepared-foods soap trees beans fruits juices pet food","","market","http://www.visaliafarmersmarket.com","-119.314054","36.298778","93277"
"Tulare","https://www.facebook.com/visaliafarmersmarket","Visalia Farmers Market- TuesdayTulare Outlet Market","ca","1407 Retherford St.","baked goods cheese crafts herbs vegetables honey jams nuts prepared-foods soap fruits juices","","market","http://www.visaliafarmersmarket.com","-119.335663","36.229230","93274"
"Vista","facebook","Vista Farmers Market","ca","325 South Melrose Drive","organic baked goods cheese crafts flowers eggs seafood herbs vegetables honey jams meat nuts plants poultry prepared-foods soap trees wine coffee fruits juices mushrooms pet food","","market","http://vistafarmersmarket.com","-117.255810","33.191027","92081"
"W. Covina","","W. Covina Saturday CFM","ca","W. Covina Parkway & California Ave.","","","market","","-117.93","34.0686",""
"W. Covina","","W. Covina Tuesday CFM","ca","Garvey and Vincent Streets","","","market","","-117.926","34.074",""
"West Hollywood","","W. Hollywood Monday CFM","ca","Plummer Park","","","market","http://www.sfma.net","-118.352","34.0941","90046"
"Walnut Creek","https://www.facebook.com/WalnutCreekFarmersMarket","Walnut Creek Certified Farmers' Market","ca","1700 block of Locust St.","organic baked goods cheese crafts flowers eggs seafood herbs vegetables honey meat nuts plants poultry prepared-foods soap trees wine coffee fruits grains","https://twitter.com/CCCFarmersMrkts","market","http://www.cccfm.org","-122.0635523","37.9026163","94596"
"Wasco","","Wasco Farmers Market","ca","6th & F Street","","","market","","-119.334","35.5955","93280"
"Yucca Valley","","water canyon farmers market","ca","56460 29 Palms Hwy Ste A","organic eggs fruits","","market","","-116.432134","34.121082","92284"
"Watsonville","","Watsonville CFM","ca","Peck St. between Main and Union St.","","","market","","-121.771","36.9295","95077"
"Hayfork","","Weaverville CFM","ca","Main St. & Mill St.- next to Art Center","","","market","","-123.184","40.554","96041"
"Stockton","","Weberstown Mall Certified Farmers Market","ca","4994 Claremont Ave.","organic baked goods cheese crafts flowers eggs herbs vegetables honey jams plants trees fruits","","market","http://www.sjcfarmersmarket.com","-121.308547973633","37.9974899291992","95207"
"Weed","","Weed CFM","ca","Weed College Campus","","","market","","-122.392","41.4142","96094"
"Escondido","facebook.com/welkfm","Welk Certified Farmers' Market","ca","8860 Lawrence Welk Dr","organic baked goods cheese crafts eggs herbs vegetables honey jams nuts prepared-foods soap wine coffee fruits juices wild","","market","","-117.142839","33.232552","92026"
"Los Angeles","https://www.facebook.com/wellingtonsquarefarmersmarket","Wellington Square Certified Farmers Market","ca","4394 W Washington Blvd.","organic baked goods crafts flowers eggs herbs vegetables honey jams nuts prepared-foods soap coffee fruits juices","https://twitter.com/wsfarmersmarket","market","http://www.wellingtonsquarefarmersmarket.com","-118.334753","34.039790","90016"
"Anaheim","https://www.facebook.com/westanaheimfarmersmarket","West Anaheim Farmers' Market","ca","3100 W Orange Ave","baked goods crafts flowers eggs herbs vegetables nuts prepared-foods soap fruits","","market","http://www.downtownanaheim.com/westanaheimfarmersmarket","-117.998416","33.824344","92804"
"Brisbane","https://www.facebook.com/WestCoastFamersMarketAssociation","West Coast Farmers Markets at Brisbane","ca","Old County Rd & San Francisco St.","organic baked goods crafts vegetables honey jams poultry prepared-foods fruits","","market","http://www.westcoastfarmersmarkets.org","-122.402383","37.684771",""
"West Covina","","WEST COVINA FARMERS MARKET","ca","195 GLENDORA av.","organic crafts flowers vegetables honey plants soap fruits","","market","http://westcovinafarmersmarket.org","-117.921509","34.070600","91790"
"Santa Rosa ","https://www.facebook.com/WestEndFarmersMarketSantaRosa/","West End Farmers Market","ca","#9 Fourth Street","organic baked goods crafts eggs seafood herbs vegetables honey jams meat plants poultry prepared-foods soap wine fruits mushrooms","","market","","-122.721238","38.437591","95401"
"West Hollywood","","West Hollywood Thursday Farmers Market","ca","647 North San Vicente Blvd.","","","market","http://www.cafarmersmarkets.org","-118.384","34.0821","90069"
"Los Angeles","https://www.facebook.com/WestLaFarmersMarket/","West LA Farmers Market","ca","1600 Purdue Ave.","organic baked goods cheese crafts flowers eggs herbs vegetables honey nuts prepared-foods soap trees coffee fruits juices wild","","market","http://www.wlafarmersmarket.com","-118.450674","34.045724","90025"
"Long Beach","https://www.facebook.com/GreenerGoodLB","West Long Beach Market","ca","Admiral Kidd Park, 2125 Santa Fe Avenue","","","market","http://www.GreenerGoodLB.org","-118.216","33.7958","90802"
"Modesto","","West Modesto CFM","ca","601 S. Martin Luther King Drive","","","market","","-121.012","37.6335",""
"West Sacramento","https://www.facebook.com/pages/West-Sacramento-Farmers-Market/150165835040769","West Sacramento Farmers Market","ca","1271 West Capitol Ave.","organic baked goods cheese flowers eggs herbs vegetables honey jams meat poultry prepared-foods wine coffee fruits juices tofu","","market","http://www.wsfarmersmarket.com","-121.523316","38.581499","95691"
"Tracy ","","West Valley Mall Farmers Market","ca","3200N. Naglee Rd","","","market","http://nfmd.org/ca/tracy/1002079.html","-121.459371","37.760474",""
"Westchester","","Westchester Farmers Market","ca","Westchester Park","","","market","http://www.farmernet.com","-118.394","33.9586","90045"
"Westchester","","Westchester Howard Hughes Promenade CFM","ca","Howard Hughes Promenade","","","market","","-118.394","33.9802",""
"Santa Cruz","www.facebook.com/santacruzfarmersmarket/","Westside Santa Cruz Farmers' Market","ca","Corner of Western Drive and Mission St.","organic baked goods cheese flowers eggs seafood herbs vegetables honey jams meat nuts plants poultry prepared-foods soap wine coffee beans fruits juices","","market","http://www.santacruzfarmersmarket.org","-122.057","36.9598","95060"
"Los Angeles","https://www.facebook.com/farmermarkwv/","Westwood Village Farmers Market by Farmer Mark","ca","1030 Broxton Avenue","organic baked goods crafts flowers eggs seafood herbs vegetables honey jams nuts prepared-foods soap coffee fruits grains juices tofu","","market","http://www.farmermark.com/westwood/","-118.446688","34.061997","90024"
"South Whittier ","","Whittier Host Lions Certified Farmers Market","ca","9401 S Painter Ave","organic baked goods cheese crafts flowers eggs seafood herbs vegetables honey jams maple nuts plants prepared-foods soap trees coffee beans fruits grains juices mushrooms wild","","market","","-118.044332","33.953160","90605"
"Whittier ","","Whittier Tuesday Evening Summer CFM","ca","12910 Bailey St.","organic baked goods eggs herbs vegetables honey plants prepared-foods fruits","","market","","-118.038187","33.980873","90601"
"Santa Rosa","","WIC Satellite","ca","1450 Guerneville Road","","","market","","-122.766","38.4525",""
"Arcata","https://www.facebook.com/North.Coast.Growers.Association","Wildberries Marketplace Farmers Market","ca","747 13th street","organic baked goods flowers eggs herbs vegetables honey jams meat nuts plants poultry soap trees beans fruits grains mushrooms","","market","http://www.humfarm.org","-124.0847601","40.8719469","95521"
"Willits","","Willits CFM","ca","100 State St","","","market","http://www.mcfarm.org","-123.359","39.4129","95490"
"Willow Creek","","Willow Creek CFM","ca","Mayfair & Walnut Way","","","market","","-123.628","40.9393",""
"San Jose","https://www.facebook.com/UrbanVillageOnFB","Willow Glen Farmers' Market","ca","1165 Lincoln Ave.","organic baked goods cheese crafts flowers eggs seafood herbs vegetables honey jams meat nuts plants poultry prepared-foods soap trees coffee fruits grains juices tofu","@UrbanVillageFM","market","http://www.uvfm.org","-121.9004523","37.3073027","95125"
"Wilminton","","Wilmington CFM","ca","Avalon and L St.","","","market","","-118.263","33.7867","90744"
"LOS ANGELES","","Wilshire Earth Day Festival","ca","Serrano St. and Wilshire St.","","","market","","-118.307","34.0617",""
"Windsor ","facebook.com/windsorcertifiedfarmersmarket","Windsor Certified Farmers Market","ca","701 McClelland Blvd.","organic baked goods cheese crafts flowers eggs seafood herbs vegetables honey jams nuts plants poultry prepared-foods soap wine coffee fruits juices mushrooms pet food tofu","","market","http://www.windsorfarmersmarket.com","-122.813734","38.548842","95492"
"Woodlake","","Woodlake FM","ca","Magnolia Street And Antelope Ave.","","","market","","-119.098","36.4156",""
"Calabasas","","Woodland Hills Farmers Market","ca","6200 Block of Topanga Blvd.","","","market","http://www.farmernet.com","-118.605","34.2086","91303"
"Weed","https://www.facebook.com/WrcwcrcFarmersMarket","WRC-WCRC Farmers' Market","ca","590 Main Street","herbs vegetables honey plants fruits","","market","","-122.384215","41.428039","96094"
"Wrightwood","https://www.facebook.com/wrightwoodcfm","Wrightwood Certified Farmers Market","ca","1275 State Route 2","organic baked goods crafts eggs herbs vegetables honey jams nuts prepared-foods soap trees fruits mushrooms","","market","http://www.wrightwoodcfm.org","-117.6340491","34.3613424","92397"
"ORLAND","","Yancys Farmers Market","ca","6235 Coutny Rd. 23","","","market","","-122.226","39.7142",""
"San Francisco","","Yerba Buena Lane Farmers' Market","ca","Market St. between Third & Fourth Streets","organic baked goods cheese eggs herbs vegetables honey jams nuts prepared-foods","","market","http://www.urbantable.org","-122.404883","37.786250","94103"
"Yorba Linda","","Yorba Linda - Old Towne CFM","ca","Main St. & Imperial Highway","","","market","","-117.042","32.7206","92116"
"Yountville","","Yountville Farmers Market","ca","Compadres Parking Lot-6539 Washington Street","","","market","http://www.commongreens.com","-122.363","38.4029","94599"
"Yreka ","","Yreka Community Certified Farmers Market","ca","1712 Fairlane Road","baked goods crafts flowers eggs herbs vegetables honey jams plants prepared-foods fruits","","market","","-122.6401341","41.7070195","96097"
"Yuab City","www.facebook.com/#!/yubasutter.farmersmarket","Yuba City Certified Farmers Market-Saturday","ca","Town Square On Plumas St. Between B St. & C St.","organic baked goods cheese crafts flowers eggs herbs vegetables honey jams meat nursery nuts plants prepared-foods soap","","market","","-121.613835","39.133181","95991"
"Yuba City","https://www.facebook.com/ycdowntown","Yuba City Downtown Certified Farmers Market","ca","732 Plumas Street","flowers herbs vegetables honey jams nuts fruits mushrooms","","market","http://www.yubacitydowntown.com","-121.616935","39.138392","95991"
"Yucaipa","","Yucaipa CFM","ca","California Street & Yucaipa Blvd.","","","market","http://www.yucaipamarketnight.com","-117.039","34.0339","92399"
