[{"type":"farm","street":"310 Kunkle Rd","city":"Kittanning borough","state":"pa","zip":"16201","x":"-79.379299","y":"40.774383","name":"Acorn Hollow Farm","website":"www.acornhollowfarm.com","facebook":"Acorn Hollow Farm","twitter":"","tags":"cut-flowers fresh-fruits fresh-vegetables"},{"type":"farm","street":"5095 Thoms Run Road","city":"Oakdale","state":"pa","zip":"15071","x":"-80.1330934","y":"40.3739713","name":"Beccari's Farm Market","website":"beccaris.com","facebook":"www.facebook/beccaris","twitter":"","tags":"baked-goods canned preserved cut-flowers dairy products eggs fresh-fruits fresh-vegetables honey juices ciders"},{"type":"farm","street":"3299 Wrighter Lake Rd","city":"Thompson","state":"pa","zip":"18465","x":"-75.428190","y":"41.851223","name":"Bialecki Farms","website":"","facebook":"https://www.facebook.com/homesteadinghobnobbery","twitter":"","tags":"eggs herbs fresh-fruits fresh-vegetables wild-harvested forest-products"},{"type":"farm","street":"2287 Durham Road","city":"Buckingham","state":"pa","zip":"18912","x":"-75.052641","y":"40.318708","name":"Blue Moon Acres: Certified Organic Farm and Market ","website":"http://bluemoonacres.com/contact-us/","facebook":"https://www.facebook.com/BlueMoonAcresFarm","twitter":"https://twitter.com/bmacres","tags":"eggs herbs fresh-fruits fresh-vegetables mushrooms wild-harvested forest-products"},{"type":"farm","street":"3669 Coventryville Road","city":"East Nantmeal","state":"pa","zip":"19465","x":"-75.692628","y":"40.160960","name":"Blue Slate Farm","website":"","facebook":"https://www.facebook.com/blueslatefarm","twitter":"@blueslatefarm","tags":"bedding plants eggs herbs fresh-fruits fresh-vegetables poultry fowl wild-harvested forest-products"},{"type":"farm","street":"768 Glen Eden Rd.","city":"Zelienople","state":"pa","zip":"16063","x":"-80.1535360","y":"40.7249880","name":"Brenckle's Organic Farm & Greenhouse","website":"http://www.brencklesfarm.com/","facebook":"https://www.facebook.com/BrencklesOrganicFarm","twitter":"","tags":"bedding plants canned preserved dairy products eggs herbs fresh-fruits fresh-vegetables honey maple-products"},{"type":"farm","street":"111 Plank Road","city":"Westfield","state":"pa","zip":"16950","x":"-77.594692","y":"41.955620","name":"Brookfield Maple Products","website":"www.brookfieldmapleproducts.com","facebook":"https://www.facebook.com/pages/Brookfield-Maple-Products/322566231113004","twitter":"","tags":"maple-products"},{"type":"farm","street":"","city":"2771 Paradise Rd","state":"pa","zip":"15841","x":"-78.831249","y":"41.059349","name":"Cherish Creamery LLC","website":"cherishcreamery.com","facebook":"cherish creamery","twitter":"","tags":"dairy products eggs"},{"type":"farm","street":"1436 Mount Joy Rd.","city":"Manheim","state":"pa","zip":"17545","x":"-76.427558","y":"40.138632","name":"Creekside Farm Market LLC","website":"http://www.thecreeksidemarket.com","facebook":"https://www.facebook.com/CreeksideFarmMarket","twitter":"","tags":"cut-flowers fresh-fruits fresh-vegetables"},{"type":"farm","street":"214 Little Beaver Rd","city":"Enon Valley","state":"pa","zip":"16120","x":"-80.490268","y":"40.844265","name":"Enon Valley Garlic","website":"www.EnonValleyGarlic.com","facebook":"https://www.facebook.com/enonvallleygarlic","twitter":"","tags":"eggs fresh-vegetables"},{"type":"farm","street":"Snoopy Barn At 515 Knauss Rd.","city":"Nazareth","state":"pa","zip":"18064","x":"-75.350858","y":"40.760277","name":"Fairman Farm","website":"www.fairmanfarm.com","facebook":"","twitter":"","tags":"bedding plants herbs fresh-vegetables"},{"type":"farm","street":"5537 Wool Mill Road","city":"Glenville","state":"pa","zip":"17329","x":"-76.8413680","y":"39.7516830","name":"Firefly Farm PA","website":"","facebook":"https://www.facebook.com/pages/Firefly-Farm-PA/117241838301654","twitter":"","tags":"eggs"},{"type":"farm","street":"110 Ducktown Road","city":"York","state":"pa","zip":"17347","x":"-76.580711","y":"40.008422","name":"Flinchbaughs Orchard and Farm Market","website":"http://www.flinchbaughsorchard.com","facebook":"https://www.facebook.com/FlinchbaughsOrchard","twitter":"https://twitter.com/FlinchsOrchard","tags":"baked-goods bedding plants canned preserved coffee tea crafts woodworking cut-flowers dairy products eggs herbs fresh-fruits fresh-vegetables grains flour honey juices ciders maple-products nuts poultry fowl prepared-foods red-meat non-poultry-meat"},{"type":"farm","street":"1922 Flint Hill Road ","city":"Coopersburg","state":"pa","zip":"18036","x":"-75.349214","y":"40.530732","name":"Flint Hill Farm Educational Center, Inc","website":"www.flinthillfarm.org","facebook":"FlintHillFarmEducationalCenter, Inc.","twitter":"","tags":"canned preserved dairy products eggs herbs honey"},{"type":"farm","street":"3669 Coventryville Road","city":"Pottstown","state":"pa","zip":"19465","x":"-75.692445","y":"40.161075","name":"Four Sisters Farm","website":"http://www.foursisters.farm","facebook":"https://www.facebook.com/FourSistersFarmPA/","twitter":"https://twitter.com/4SistersFarm","tags":"bedding plants canned preserved eggs fresh-fruits fresh-vegetables poultry fowl wild-harvested forest-products"},{"type":"farm","street":"1927 Cumberland Road","city":"Bedford","state":"pa","zip":"15522","x":"-78.5509454","y":"39.9776974","name":"Foxtail Farmstead LLC","website":"www.foxtailfarmstead.com","facebook":"","twitter":"","tags":"poultry fowl red-meat non-poultry-meat"},{"type":"farm","street":"3147 Griffis Hill Road","city":"Montrose","state":"pa","zip":"18801","x":"-75.995723","y":"41.841607","name":"Foxy Farms","website":"http://www.localharvest.org/foxy-farms-M38482","facebook":"","twitter":"","tags":"cut-flowers eggs fresh-fruits fresh-vegetables grains flour maple-products"},{"type":"farm","street":"846 Fleetwood Lyons Rd","city":"Fleetwood","state":"pa","zip":"19522","x":"-75.7970043","y":"40.4716450","name":"Gauker Farms","website":"www.gaukerfarms.com","facebook":"www.facebook.com/gaukerfarms","twitter":"","tags":"red-meat non-poultry-meat"},{"type":"farm","street":"1395 Clear Run Road","city":"DuBois","state":"pa","zip":"15801","x":"-78.7423890","y":"41.1530840","name":"Gilbert Hill Farm","website":"","facebook":"","twitter":"","tags":"baked-goods canned preserved crafts woodworking dairy products eggs herbs fresh-vegetables pet-food poultry fowl"},{"type":"farm","street":"13021 Flatts Rd.","city":"Waterford","state":"pa","zip":"16441","x":"-79.9719584","y":"41.9219327","name":"Glenn Troyer Farms","website":"www.glenntroyerfarms.com","facebook":"troyersstrawberryacres","twitter":"","tags":""},{"type":"farm","street":"747 Buttermilk Hollow Rd","city":"Claysburg","state":"pa","zip":"16625","x":"-78.488254","y":"40.303651","name":"Green\"er\" Acres Farm","website":"","facebook":"https://www.facebook.com/greeneracresfarm","twitter":"","tags":"eggs herbs fresh-fruits fresh-vegetables poultry fowl red-meat non-poultry-meat wild-harvested forest-products"},{"type":"farm","street":"11 Hardler Farm Rd","city":"Honesdale","state":"pa","zip":"18431","x":"-75.259646","y":"41.697583","name":"Hardler Farms","website":"","facebook":"Hardlerfarms@facebook","twitter":"","tags":"baked-goods canned preserved dairy products eggs fresh-vegetables honey prepared-foods red-meat non-poultry-meat soap body-care"},{"type":"farm","street":"962 Martin Road","city":"Needmore","state":"pa","zip":"17238","x":"-78.127732","y":"39.843541","name":"Hartman's Oz Farm","website":"","facebook":"","twitter":"","tags":"eggs fresh-vegetables mushrooms red-meat non-poultry-meat"},{"type":"farm","street":"75 Creamery Road","city":"Pottstown","state":"pa","zip":"19465","x":"-75.6073240","y":"40.1896470","name":"Hill Creek Farm","website":"http://www.hillcreekfarmpa.com","facebook":"https://www.facebook.com/pages/Hill-Creek-Farm/145650775611864?ref=bookmarks","twitter":"","tags":"cut-flowers herbs fresh-fruits fresh-vegetables mushrooms wild-harvested forest-products"},{"type":"farm","street":"217 Rock Glen Rd.","city":"Sugarloaf","state":"pa","zip":"18249","x":"-76.084909","y":"40.986051","name":"Hilliards Fruit Farm","website":"","facebook":"","twitter":"","tags":"fresh-fruits fresh-vegetables juices ciders"},{"type":"farm","street":"5095 old state rd","city":"Edinboro","state":"pa","zip":"16412","x":"-80.130026","y":"41.932811","name":"Hulings Blueberries and Farm Market","website":"hulingsblueberries.com","facebook":"Hulings Blueberries","twitter":"","tags":"baked-goods bedding plants canned preserved cut-flowers dairy products dry beans eggs herbs fresh-fruits fresh-vegetables honey maple-products soap body-care"},{"type":"farm","street":"270 Wilpen Rd","city":"Ligonier","state":"pa","zip":"15658","x":"-79.203738","y":"40.275947","name":"Jamboree Farm","website":"http://jamboreefarm.blogspot.com/","facebook":"https://www.facebook.com/jamboreefarm","twitter":"https://twitter.com/JamboreeFarm","tags":"canned preserved eggs herbs fresh-fruits fresh-vegetables juices ciders poultry fowl red-meat non-poultry-meat wild-harvested forest-products"},{"type":"farm","street":"3403 N. Balsiger Road","city":"Apollo borough","state":"pa","zip":"15613","x":"-79.503008","y":"40.603351","name":"Kistaco Farm Market","website":"http://kistacofarm.com/ ","facebook":"https://www.facebook.com/pages/Kistaco-Farm/151290458223231?fref=ts ","twitter":"","tags":"baked-goods bedding plants canned preserved coffee tea dairy products eggs herbs fresh-fruits fresh-vegetables grains flour honey juices ciders maple-products pet-food prepared-foods soap body-care"},{"type":"farm","street":"136 California Drive","city":"Coal Center","state":"pa","zip":"15423","x":"-79.9804745","y":"40.1059950","name":"Lowden Farm LLC","website":"","facebook":"","twitter":"","tags":"red-meat non-poultry-meat"},{"type":"farm","street":"3157 Comfort Road","city":"Solebury","state":"pa","zip":"18963","x":"-75.006565","y":"40.395989","name":"Manoff Market Gardens","website":"www.manoffmarketgardens.com","facebook":"https://www.facebook.com/manoffmarketgardens","twitter":"","tags":"baked-goods canned preserved cut-flowers eggs herbs fresh-fruits fresh-vegetables honey maple-products"},{"type":"farm","street":"171 Many Springs Farm Road","city":"Portersville","state":"pa","zip":"16051","x":"-80.1884470","y":"40.9541520","name":"Many Springs Farm","website":"","facebook":"","twitter":"","tags":"baked-goods crafts woodworking eggs honey soap body-care"},{"type":"farm","street":"543 Jo Jo Rd","city":"Kane","state":"pa","zip":"16735","x":"-78.837090","y":"41.643853","name":"Maple Glen Farm","website":"","facebook":"Maple Glen Farm","twitter":"","tags":"bedding plants canned preserved cut-flowers nursery-stock"},{"type":"farm","street":"329 BenVenue Rd","city":"Zelienople","state":"pa","zip":"16123","x":"-80.157104","y":"40.786906","name":"Mazur's Greenhouse and Farm","website":"","facebook":"Mazur's Greenhouse and Farm","twitter":"","tags":"baked-goods bedding plants canned preserved herbs fresh-fruits fresh-vegetables juices ciders nursery-stock"},{"type":"farm","street":"329 BenVenue Rd","city":"Zelienople ","state":"pa","zip":"16123","x":"-80.156903","y":"40.787197","name":"Mazurâ€™s Greenhouse and Farm ","website":"","facebook":"https://www.facebook.com/Mazurs-Greenhouse-and-Farm-225721554196893/","twitter":"","tags":"baked-goods bedding plants canned preserved herbs fresh-fruits fresh-vegetables honey"},{"type":"farm","street":"836 Cleland Mill Road","city":"New Castle","state":"pa","zip":"16102","x":"-80.407753","y":"40.956053","name":"McConnell's Christmas Tree Farm","website":"www.mcconnellsnursery.com","facebook":"https://www.facebook.com/pages/McConnells-Christmas-Tree-Farm/136507896405104?ref=br_tf","twitter":"","tags":"nursery-stock"},{"type":"farm","street":"691 Furnace St.","city":"Robesonia","state":"pa","zip":"19551","x":"-76.157888","y":"40.333923","name":"Meadow Mountain Farm","website":"www.meadowmountainfarm.com","facebook":"https://www.facebook.com/pages/Meadow-Mountain-Farm/158613630836462?v=wall","twitter":"","tags":"poultry fowl"},{"type":"farm","street":"2236 N. 1st Ave.","city":"Whitehall","state":"pa","zip":"18052","x":"-75.4788140","y":"40.6495300","name":"Mondjack Apiaries","website":"www.Mondjackapiaries.com","facebook":"https://www.facebook.com/Mondjackapiaries","twitter":"","tags":"honey"},{"type":"farm","street":"31 Riverdale Road","city":"Forest City","state":"pa","zip":"18421","x":"-75.394530","y":"41.694289","name":"Mount Pleasant Herbary","website":"www.mountpleasantherbary.com","facebook":"https://www.facebook.com/MountPleasantHerbary","twitter":"","tags":"soap body-care"},{"type":"farm","street":"429 Strasburg Road","city":"Paradise","state":"pa","zip":"17562","x":"-76.122298","y":"40.00623","name":"Myer Hill Chicken","website":"https://www.myerhillchicken.com/","facebook":"","twitter":"","tags":"poultry fowl"},{"type":"farm","street":"2318 Butler Logan Road Frazer Township","city":"Tarentum","state":"pa","zip":"15084","x":"-79.803454","y":"40.587205","name":"Normans Orchard","website":"www.normansorchard.com","facebook":"","twitter":"","tags":"fresh-fruits"},{"type":"farm","street":"1919 Harrisville Rd","city":"Stoneboro","state":"pa","zip":"16153","x":"-80.046348","y":"41.289557","name":"Old Time Farm","website":"www.OldTime.Farm","facebook":"https://www.facebook.com/Shelly.OldTimeFarm/","twitter":"","tags":"baked-goods eggs herbs maple-products poultry fowl red-meat non-poultry-meat wild-harvested forest-products"},{"type":"farm","street":"2611 Mile Post Rd.","city":"Sunbury","state":"pa","zip":"17801","x":"-76.704561","y":"40.909558","name":"Owens Farm","website":"www.owensfarm.com","facebook":"www.facebook.com/pages/Owens-Farm/168876806466611","twitter":"","tags":"honey poultry fowl red-meat non-poultry-meat"},{"type":"farm","street":"225 Laidig Road","city":"Harrisonville","state":"pa","zip":"17228","x":"-78.094771","y":"40.037076","name":"Path of Light Farm","website":"","facebook":"https://www.facebook.com/pages/Path-of-Light-Farm/","twitter":"","tags":"bedding plants canned preserved cut-flowers dry beans eggs herbs fresh-fruits fresh-vegetables honey"},{"type":"farm","street":"150 Trenton Ave","city":"Hulmeville borough","state":"pa","zip":"19047","x":"-74.906944","y":"40.143277","name":"Phoenix Farms","website":"www.phoenixfarms.us","facebook":"http://facebook.com/thephoenixfarm","twitter":"","tags":"canned preserved eggs fresh-vegetables poultry fowl"},{"type":"farm","street":"47 Jefferson St.","city":"Tidioute","state":"pa","zip":"16351","x":"-79.3950380","y":"41.6849289","name":"Riverview Farms","website":"http://www.riverviewfarmspa.com","facebook":"","twitter":"","tags":""},{"type":"farm","street":"240 Southern Drive","city":"Catawissa","state":"pa","zip":"17820","x":"-76.4593630","y":"40.9299950","name":"Rohrbach's Farm Market","website":"rohrbachsfarm.net","facebook":"https://www.facebook.com/pages/Rohrbachs-Farm-Market-Bakery-and-Gift-Shop/63601237131?ref=hl&ref_type=bookmark","twitter":"","tags":"baked-goods canned preserved dairy products eggs fresh-fruits fresh-vegetables honey juices ciders maple-products prepared-foods"},{"type":"farm","street":"848 Wallace Rd","city":"Troy","state":"pa","zip":"16947","x":"-76.670417","y":"41.769243","name":"Running Bear Farm Stand","website":"","facebook":"https://www.facebook.com/Running-Bear-Farm-245849665535840/","twitter":"","tags":"cut-flowers eggs fresh-vegetables poultry fowl prepared-foods"},{"type":"farm","street":"3057 Center Street","city":"Bethlehem","state":"pa","zip":"18017","x":"-75.378204","y":"40.656316","name":"Scholl Orchards","website":"http://schollorchards.com/","facebook":"www.facebook.com/schollorchardsPA","twitter":"","tags":"canned preserved cut-flowers fresh-fruits fresh-vegetables honey juices ciders"},{"type":"farm","street":"429 Happy Hollow Road","city":"Mifflintown","state":"pa","zip":"17059","x":"-77.350194","y":"40.590023","name":"Serenity Hills Farms","website":"","facebook":"https://www.facebook.com/frmrfrd/","twitter":"","tags":"red-meat non-poultry-meat"},{"type":"farm","street":"170 Simmons Road","city":"McMurray","state":"pa","zip":"15317","x":"-80.083087","y":"40.2682","name":"Simmons Farm","website":"","facebook":"https://www.facebook.com/SimmonsFarm","twitter":"","tags":""},{"type":"farm","street":"917 small valley road","city":"halifax","state":"pa","zip":"17032","x":"-76.806737","y":"40.496228","name":"small valley milling","website":"small valley milling.com","facebook":"","twitter":"","tags":"fresh-vegetables grains flour"},{"type":"farm","street":"2573 Brandt School Road","city":"Wexford","state":"pa","zip":"15237","x":"-80.092730","y":"40.613911","name":"Soergel Orchards","website":"www.soergels.com","facebook":"","twitter":"","tags":"baked-goods bedding plants canned preserved coffee tea crafts woodworking eggs herbs fresh-fruits fresh-vegetables honey juices ciders maple-products nursery-stock nuts prepared-foods wine spirits beer hard-cider"},{"type":"farm","street":"3325 Creamery Road","city":"New Hope","state":"pa","zip":"18938","x":"-75.0258912","y":"40.3846846","name":"Solebury Orchards","website":"soleburyorchards.com","facebook":"www.facebook.com/soleburyorchards","twitter":"twitter.com/SoleburyOrch","tags":"canned preserved cut-flowers eggs fresh-fruits fresh-vegetables honey juices ciders"},{"type":"farm","street":"2331 Chewton Wurtemburg Rd","city":"Wampum","state":"pa","zip":"16157","x":"-80.290508","y":"40.885714","name":"Stramba Farm Alpacas & More","website":"","facebook":"","twitter":"","tags":""},{"type":"farm","street":"3045 Mountain Road","city":"Saylorsburg","state":"pa","zip":"18353","x":"-75.3287854","y":"40.8608203","name":"Stryker Farm","website":"www.strykerfarm.com","facebook":"https://www.facebook.com/strykerfarm","twitter":"https://twitter.com/strykerfarm","tags":"canned preserved dairy products eggs honey maple-products poultry fowl red-meat non-poultry-meat soap body-care"},{"type":"farm","street":"232 North High Street in Arendtsville","city":"Biglerville","state":"pa","zip":"17307","x":"-77.302631","y":"39.926690","name":"Swartz's Pumpkin Patch","website":"www.swartzspumpkinpatch.com","facebook":"https://www.facebook.com/pages/Swartzs-Pumpkin-Patch-in-Arendtsville-PA/278268028879283","twitter":"","tags":"fresh-fruits fresh-vegetables"},{"type":"farm","street":"14066 Wayne Hwy","city":"Waynesboro","state":"pa","zip":"17268","x":"-77.595770","y":"39.739070","name":"TLM Hillside Farm","website":"http://www.tlmhillsidefarm.com/","facebook":"","twitter":"https://twitter.com/TLMHillsideFarm","tags":"eggs fresh-vegetables"},{"type":"farm","street":"215 Shady Lane","city":"Muncy","state":"pa","zip":"17756","x":"-76.775489","y":"41.212668","name":"Tom Styer Farm  & Market","website":"","facebook":"","twitter":"","tags":"bedding plants canned preserved eggs fresh-fruits fresh-vegetables honey maple-products"},{"type":"farm","street":"823 Berry Lane","city":"Monongahela ","state":"pa","zip":"15063","x":"-79.9465890","y":"40.2276750","name":"Triple B Farms","website":"http://www.triplebfarms.com/","facebook":"https://www.facebook.com/TripleBFarmsFreshLocalFoodandFun/?ref=hl","twitter":"https://twitter.com/TripleBFarmsFUN","tags":"baked-goods canned preserved crafts woodworking dairy products eggs fresh-fruits fresh-vegetables honey juices ciders maple-products prepared-foods soap body-care"},{"type":"farm","street":"678 Cochecton Tpke","city":"Tyler Hill","state":"pa","zip":"18469","x":"-75.168551","y":"41.698768","name":"Twin Brook Farms","website":"http://www.twinbrookfarmsandlivestock.com","facebook":"https://www.facebook.com/TwinBrookFarms ","twitter":"","tags":""},{"type":"farm","street":"880 Valley Rd ","city":"Tamaqua","state":"pa","zip":"18252","x":"-76.013023","y":"40.755474","name":"Valley Road Farm","website":"Http://valleyroadfarm.com","facebook":"Valley road farm tamaqua","twitter":"","tags":"cut-flowers fresh-fruits fresh-vegetables honey"},{"type":"farm","street":"1061 Sugar Run Road","city":"Avella","state":"pa","zip":"15312","x":"-80.469051","y":"40.253648","name":"Weatherbury Farm","website":"http://weatherburyfarm.com/","facebook":"https://www.facebook.com/WeatherburyFarm/","twitter":"","tags":"grains flour"},{"type":"farm","street":"181 Camp Road","city":"Douglassville","state":"pa","zip":"19518","x":"-75.739851","y":"40.332461","name":"Wholesome Dairy Farms","website":"http://www.wholesomedairyfarms.com/","facebook":"http://www.facebook.com/pages/Wholesome-Dairy-Farms/77319243038","twitter":"https://twitter.com/WholesomeDairy","tags":"dairy products eggs red-meat non-poultry-meat"},{"type":"farm","street":"10445 Route 28 North","city":"Brockway","state":"pa","zip":"15824","x":"-78.902435","y":"41.232380","name":"Windy Hill Farm","website":"www.windyhillfarmnaturals.com","facebook":"","twitter":"","tags":"crafts woodworking eggs herbs fresh-fruits fresh-vegetables maple-products nuts soap body-care"},{"type":"farm","street":"1600 State Road","city":"Duncannon","state":"pa","zip":"17020","x":"-76.9892570","y":"40.3557289","name":"Yeehaw Farm Store and Local Foods Co Op","website":"www.yeehawfarms.com","facebook":"https://www.facebook.com/pages/Yeehaw-Farm/179809875371755","twitter":"","tags":"baked-goods canned preserved crafts woodworking cut-flowers dairy products dry beans eggs fish seafood herbs fresh-fruits fresh-vegetables grains flour honey juices ciders maple-products mushrooms poultry fowl red-meat non-poultry-meat soap body-care"},{"type":"farm","street":"670 Yellow Hill Road","city":"Biglerville","state":"pa","zip":"17307","x":"-77.264554","y":"39.939328","name":"Yellow Hill Farm","website":"www.yellowhillfarm.com","facebook":"www.facebook.com/YellowHillFarmBerries","twitter":"","tags":"cut-flowers"},{"type":"farm","street":"9327 Gap Rd","city":"Waynesboro","state":"pa","zip":"17268","x":"-77.537243","y":"39.783349","name":"Yesterdays Favorites Farm","website":"www.yesterdaysfavoritesfarm.com","facebook":"https://www.facebook.com/yesterdaysfavorites","twitter":"","tags":"bedding plants dairy products eggs herbs fresh-fruits"},{"type":"market","name":"Adams County Farmers Market","website":"","facebook":"www.facebook.com/AdamsCountyFarmersMarket","twitter":"@ACFarmFresh","street":"103 Carlisle Street","city":"Gettysburg","state":"pa","zip":"17325","x":"-77.234147","y":"39.830597","tags":"organic baked goods cheese flowers eggs herbs vegetables honey jams maple meat poultry prepared-foods soap wine coffee fruits pet food"},{"type":"market","name":"Adams County Farmers' Market Association","website":"http://www.acfarmersmarkets.org","facebook":"www.facebook.com/AdamsCountyFarmersMarket","twitter":"https://twitter.com/ACFarmFresh","street":"103 Carlisle Street","city":"Gettysburg","state":"pa","zip":"17325","x":"-77.234147","y":"39.830597","tags":"baked goods cheese flowers eggs herbs vegetables honey jams maple poultry prepared-foods wine coffee fruits mushrooms"},{"type":"market","name":"Adams-Ricci Farmers Market","website":"","facebook":"https://www.facebook.com/FarmersAtAdamsRicciParkEast/","twitter":"@adamsriccifm","street":"100 East Penn Drive","city":"Enola","state":"pa","zip":"17025","x":"-76.937407","y":"40.273997","tags":"baked goods cheese flowers eggs herbs vegetables honey jams meat plants poultry prepared-foods soap wine coffee beans fruits pet food"},{"type":"market","name":"City of Pittsburgh Carrick Farmers Market","website":"","facebook":"","twitter":"","street":"1529 Brownsville Road","city":"Pittsburgh ","state":"pa","zip":"15210","x":"-79.988803","y":"40.400201","tags":"baked goods vegetables honey prepared-foods fruits"},{"type":"market","name":"Co-Operative Farmers Market","website":"http://www.coopfarmersmarket.com","facebook":"Co-Operative Farmers Market","twitter":"","street":"900 Barring Avenue","city":"Scranton","state":"pa","zip":"18508","x":"-75.665908","y":"41.404178","tags":"organic baked goods cheese flowers eggs herbs vegetables honey jams maple nuts plants poultry prepared-foods soap wine beans fruits"},{"type":"market","name":"Dillsburg Farmers' Market","website":"http://dillsburgfarmersma.wixsite.com/dbgfarmersmarket","facebook":"https://www.facebook.com/DillsburgFarmersMarket/","twitter":"","street":"1 N. 2nd Street ","city":"Dillsburg","state":"pa","zip":"17019","x":"-77.037849","y":"40.110975","tags":"organic"},{"type":"market","name":"Downingtown Farmers Market","website":"http://growingrootspartners.com","facebook":"https://www.facebook.com/DowningtownFarmersMarket/","twitter":"","street":"1 Park Lane","city":"Downingtown","state":"pa","zip":"19335","x":"-75.705606","y":"40.007243","tags":"baked goods cheese crafts flowers eggs herbs vegetables honey jams maple meat poultry soap wine coffee fruits grains juices mushrooms pet food"},{"type":"market","name":"Emmaus Farmers' Market","website":"http://www.emmausmarket.com","facebook":"https://www.facebook.com/EmmausFarmersMarket/","twitter":"https://www.twitter.com/EmmausFarmMkt/","street":"235 Main St","city":"Emmaus","state":"pa","zip":"18049","x":"-75.4903","y":"40.5366","tags":"organic baked goods cheese flowers eggs herbs vegetables honey jams maple meat plants poultry prepared-foods wine coffee fruits mushrooms pet food wild"},{"type":"market","name":"Farmers on the Square","website":"http://www.farmersonthesquare.com","facebook":"https://www.facebook.com/FarmersontheSquare/","twitter":"","street":"2A N Hanover St","city":"Carlisle","state":"pa","zip":"17013","x":"-77.189168","y":"40.202148","tags":"organic baked goods cheese flowers eggs seafood herbs vegetables honey jams maple meat poultry prepared-foods soap trees wine coffee beans fruits juices mushrooms"},{"type":"market","name":"Fresh2You Mobile Market","website":"http://chestercountyfoodbank.org/programs/fresh2you/","facebook":"@fresh2youmarket","twitter":"@fresh2youmarket","street":"","city":"Phoenixville, Pottstown, Coatesville, Parkesburg, West Chester, Kennett Square and Oxford","state":"pa","zip":"","x":"-75.748454","y":"39.9731925","tags":"eggs herbs vegetables honey beans fruits grains"},{"type":"market","name":"Hanover Market House","website":"http://www.hanover-market.com","facebook":"www.Facebook.com/hanovermarket","twitter":"","street":"210 East Chestnut Street","city":"Hanover","state":"pa","zip":"17331","x":"-76.982610","y":"39.803273","tags":"baked goods cheese crafts eggs herbs vegetables honey jams meat poultry prepared-foods soap wine coffee fruits"},{"type":"market","name":"Indiana County Farmers Market ","website":"https://indianafarmmarket.blogspot.com/","facebook":"https://www.facebook.com/indianafarmmarket/","twitter":"","street":"8th & Church St.","city":"Indiana","state":"pa","zip":"15701","x":"-79.155021","y":"40.621852","tags":"baked goods flowers eggs herbs vegetables honey jams maple meat poultry soap fruits grains"},{"type":"market","name":"Lansdale Farmers' Market","website":"https://www.lansdalefarmersmarket.org/","facebook":"https://www.facebook.com/LansdaleFarmersMarket/","twitter":"","street":"400 Penn Street","city":"Lansdale","state":"pa","zip":"19446","x":"-75.277496","y":"40.234201","tags":"organic baked goods cheese flowers eggs seafood herbs vegetables honey jams maple meat poultry prepared-foods soap trees coffee fruits juices mushrooms pet food wild"},{"type":"market","name":"Lawrenceville Farmers Market","website":"http://www.lunited.org/programs/community-planning-development/lawrenceville-farmers-market/","facebook":"www.facebook.com/lvillefarmmarket","twitter":"","street":"250 40th Street","city":"Pittsburgh","state":"pa","zip":"15201","x":"-79.961092","y":"40.467011","tags":"baked goods cheese flowers eggs herbs vegetables honey jams maple meat poultry prepared-foods soap wine coffee fruits juices mushrooms wild"},{"type":"market","name":"Ligonier Country Market","website":"http://www.ligoniercountrymarket.com","facebook":"@LigonierCountryMarket","twitter":"@LigonierMarket","street":"110 Andi Lane","city":"Ligonier","state":"pa","zip":"15658","x":"-79.2507333","y":"40.2501886","tags":"organic baked goods cheese crafts flowers eggs herbs vegetables honey jams maple meat nuts plants poultry prepared-foods soap trees wine coffee fruits juices mushrooms pet food wild"},{"type":"market","name":"Little Italy Farmers Market","website":"http://www.ssjnn.org","facebook":"https://www.facebook.com/SSJNN/","twitter":"https://twitter.com/SSJNN","street":"331 West 18th Street","city":"Erie","state":"pa","zip":"16502","x":"-80.0850810","y":"42.1155929","tags":"baked goods crafts flowers vegetables honey soap fruits"},{"type":"market","name":"Main Street Farmers Market","website":"https://thecooperageproject.org/markets/farmersmarket/","facebook":"https://www.facebook.com/pg/thecooperageproject/events/?ref=page_internal","twitter":"","street":"1030 Main Street","city":"Honesdale","state":"pa","zip":"18431","x":"-75.257714","y":"41.575082","tags":"organic baked goods eggs herbs vegetables maple meat poultry prepared-foods fruits"},{"type":"market","name":"Murrysville Farmers' Market","website":"https://murrysvilleparecreation.com/190/Farmers-Market","facebook":"https://www.facebook.com/Murrysville-Farmers-Market-452857878198702/","twitter":"","street":"3235 Sardis Road","city":"Murrysville","state":"pa","zip":"15668","x":"-79.696788","y":"40.430121","tags":"organic baked goods crafts flowers eggs herbs vegetables honey jams maple meat plants poultry prepared-foods soap wine fruits"},{"type":"market","name":"North Square Farmers Market","website":"http://www.northsquarefarmersmarket.com","facebook":"https://www.facebook.com/pages/North-Square-Farmers-Market/114897878526668","twitter":"","street":"100 Spring St","city":"Chambersburg","state":"pa","zip":"17201","x":"-77.662435","y":"39.938459","tags":"baked goods cheese crafts flowers eggs herbs vegetables honey jams maple meat plants poultry prepared-foods soap wine fruits mushrooms wild"},{"type":"market","name":"Northampton Pa Farmers Market","website":"","facebook":"Northampton Pa Farmers Market","twitter":"","street":"1401 Laubach Avenue Municipal Park","city":"Northampton ","state":"pa","zip":"18067","x":"-75.489035","y":"40.684278","tags":"baked goods crafts flowers herbs vegetables honey jams plants poultry prepared-foods wine fruits"},{"type":"market","name":"Ross Township Farmers Market","website":"","facebook":"https://www.facebook.com/Ross-Twp-Farmers-Market-414344225264700/","twitter":"","street":"920 Perry Hwy","city":"Pittsburgh ","state":"pa","zip":"15229","x":"-80.036108","y":"40.533713","tags":"baked goods cheese crafts eggs herbs vegetables honey jams maple meat plants poultry prepared-foods soap coffee fruits juices pet food"},{"type":"market","name":"Slippery Rock Farmers Market ","website":"","facebook":"https://www.facebook.com/SRCFM/","twitter":"","street":"Gateway Park, 100 Midway Street","city":"Slippery Rock","state":"pa","zip":"16057","x":"-80.050842","y":"41.062533","tags":"baked goods crafts flowers eggs herbs vegetables honey jams meat plants poultry prepared-foods soap wine coffee fruits juices mushrooms pet food wild"},{"type":"market","name":"Somerset County Farmers' Market Inc.","website":"http://somersetcountyfarmersmarket.com","facebook":"https://www.facebook.com/Somerset-County-Farmers-Market-139142146101195/","twitter":"","street":"800 Georgian Place ","city":"Somerset","state":"pa","zip":"15501","x":"-79.072141","y":"40.022787","tags":"baked goods flowers eggs herbs vegetables jams maple meat plants poultry soap wine coffee fruits pet food"},{"type":"market","name":"South Side Farmers' Market","website":"http://www.facebook.com/southsidefarmersmarket","facebook":"www.facebook.com/southsidefarmersmarket","twitter":"","street":"Alder Street and Cedar Avenue","city":"Scranton","state":"pa","zip":"18505","x":"-75.6668643","y":"41.4003507","tags":"organic baked goods cheese flowers eggs vegetables honey jams maple meat plants poultry prepared-foods soap coffee fruits"},{"type":"market","name":"STCC Open Air Market","website":"","facebook":"https://www.facebook.com/STCCOpenAirMarket/","twitter":"https://twitter.com/StccOAM","street":"180 Airport Road","city":"Shippensburg","state":"pa","zip":"17257","x":"-77.477569","y":"40.050647","tags":"organic baked goods cheese crafts flowers eggs seafood herbs vegetables honey jams maple meat plants poultry prepared-foods soap wine coffee fruits juices mushrooms wild"},{"type":"market","name":"Swarthmore Farmers Market","website":"http://www.swarthmorefarmersmarket.org/","facebook":"https://www.facebook.com/swarthmorefarmersmarket/","twitter":"https://twitter.com/SwatFarmersMkt","street":"121 Park Avenue","city":"Swarthmore","state":"pa","zip":"19081","x":"-75.349110","y":"39.901799","tags":"baked goods cheese crafts flowers eggs seafood herbs vegetables honey jams maple meat plants poultry prepared-foods soap wine coffee fruits juices mushrooms pet food"},{"type":"market","name":"The Markets at Shrewsbury","website":"http://www.marketsatshrewsbury.com","facebook":"The Markets at Shrewsbury","twitter":"The Markets at Shrewsbury","street":"12025 Susquehanna Trail S","city":"Glen Rock","state":"pa","zip":"17327","x":"-76.730703","y":"39.793503","tags":"baked goods cheese crafts flowers eggs seafood herbs vegetables honey jams maple meat nuts plants poultry prepared-foods soap wine coffee beans fruits grains juices mushrooms pet food"},{"type":"market","name":"Titusville Open Air Market","website":"","facebook":"https://www.facebook.com/titusvilleopenairmarket/?ref=aymt_homepage_panel","twitter":"","street":"11652 Hydetown Road","city":"Titusville","state":"pa","zip":"16354","x":"-79.699976","y":"41.635684","tags":"baked goods crafts flowers eggs herbs vegetables honey jams maple meat plants prepared-foods soap trees coffee fruits juices pet food wild"},{"type":"market","name":"Treasure Lake Farmers Market and Artisan Faire","website":"","facebook":"","twitter":"","street":"95 Coral Reef","city":"DuBois","state":"pa","zip":"15801","x":"-78.704999","y":"41.201813","tags":"baked goods cheese crafts flowers eggs herbs vegetables honey jams maple meat nuts plants poultry prepared-foods soap wine coffee fruits pet food"},{"type":"market","name":"Wayne County Farmers Market","website":"","facebook":"","twitter":"","street":"200 Willow Avenue","city":"Honesdale ","state":"pa","zip":"18431","x":"-75.251749","y":"41.567023","tags":"organic baked goods crafts flowers eggs herbs vegetables honey jams maple plants poultry soap fruits mushrooms"},{"type":"market","name":"Waynesburg Farmers' Market","website":"http://waynesbugpa.org","facebook":"https://www.facebook.com/Waynesburg-Farmers-Market-236396956398280/","twitter":"","street":"High Street ","city":"Waynesburg","state":"pa","zip":"15370","x":"-80.186112","y":"39.896462","tags":"baked goods flowers vegetables honey jams maple plants prepared-foods soap wine fruits"},{"type":"market","name":"Wednesday, Indiana County Farmers' Market","website":"https://indianafarmmarket.blogspot.com/","facebook":"https://www.facebook.com/indianafarmmarket/","twitter":"","street":"Wayne Avenue & Hospital Rd","city":"Indiana","state":"pa","zip":"15701","x":"-79.159344","y":"40.610507","tags":"baked goods eggs vegetables honey jams maple poultry soap fruits"},{"type":"market","name":"Wilkinsburg Thursday Open Market","website":"http://wilkinsburgchamber.com","facebook":"","twitter":"","street":"225 Penn Avenue","city":"Wilkinsburg","state":"pa","zip":"15221","x":"-79.890864","y":"40.445948","tags":"baked goods flowers eggs vegetables honey jams prepared-foods soap wine fruits"},{"type":"market","name":"Yardlet Farmers Market - Indoor Winter Market","website":"http://www.yardleyfarmersmarket.com","facebook":"https://www.facebook.com/YardleyFarmersMarket/","twitter":"https://twitter.com/yardleyfarmmart","street":"65 N. Main St.","city":"Yardley borough","state":"pa","zip":"19067","x":"-74.841627","y":"40.243417","tags":"organic baked goods cheese crafts flowers eggs vegetables honey jams meat poultry prepared-foods soap coffee fruits juices mushrooms wild"},{"type":"market","name":"Yardley Farmers Market","website":"http://yardleyfarmersmarket.com/","facebook":"https://www.facebook.com/YardleyFarmersMarket/","twitter":"https://twitter.com/yardleyfarmmart","street":"Buttonwood Park","city":"Yardley borough","state":"pa","zip":"19067","x":"-74.839868","y":"40.240633","tags":"organic baked goods cheese crafts flowers eggs herbs vegetables honey jams meat plants poultry prepared-foods soap wine coffee fruits juices mushrooms pet food"},{"type":"market","name":"Zelienople-Harmony Farmer's Market","website":"","facebook":"https://www.facebook.com/ZelieHarmonyFarmersMarket/","twitter":"","street":"Beaver Street and South Division Street","city":"Zelienople","state":"pa","zip":"16063","x":"-80.130181","y":"40.792698","tags":"baked goods crafts flowers eggs vegetables honey jams meat plants poultry prepared-foods soap wine fruits juices pet food"}]
