[{"type":"farm","street":"8259 Keys Road","city":"Mount Vernon","state":"oh","zip":"43050","x":"-82.5620100","y":"40.3586810","name":"4R Angus Farm","website":"4RAngusFarm.weebly.com","facebook":"4R Angus Farm","twitter":"","tags":"poultry fowl red-meat non-poultry-meat"},{"type":"farm","street":"6373 W. US RT 36","city":"Covington","state":"oh","zip":"45318","x":"-84.324411","y":"40.127688","name":"Adams Greenhouse & Produce LLC","website":"www.adamsgreenhouse.com","facebook":"https://www.facebook.com/adamsgreenhouse","twitter":"","tags":"baked-goods bedding plants canned preserved coffee tea cut-flowers dairy products dry beans eggs fish seafood herbs fresh-fruits fresh-vegetables grains flour honey maple-products mushrooms nuts poultry fowl prepared-foods red-meat non-poultry-meat soap body-care"},{"type":"farm","street":"82nd & Kinsman rd.","city":"Cleveland","state":"oh","zip":"44104","x":"-81.630177","y":"41.475637","name":"Amalfi Gardens LLC","website":"","facebook":"https://www.facebook.com/AmalfiGardens","twitter":"","tags":""},{"type":"farm","street":"6615 Peters Rd","city":"Tipp City","state":"oh","zip":"45371","x":"-84.225463","y":"39.94265","name":"Angry Hippie Farms, LLC","website":"http://www.angryhippiefarms.com","facebook":"https://www.facebook.com/AngryHippieFarms","twitter":"","tags":""},{"type":"farm","street":"11724 Lisbon St SE","city":"Paris","state":"oh","zip":"44669","x":"-81.1825899","y":"40.7997521","name":"Arrowhead Orchard","website":"www.arrowheadorchard.com","facebook":"https://www.facebook.com/ArrowheadOrchard","twitter":"","tags":"baked-goods canned preserved coffee tea crafts woodworking dairy products dry beans eggs herbs fresh-fruits fresh-vegetables grains flour honey juices ciders nuts prepared-foods soap body-care"},{"type":"farm","street":"7285 County Road 183","city":"Fredericktown","state":"oh","zip":"43019","x":"-82.672361","y":"40.432817","name":"BaaLiss Grass Farm","website":"","facebook":"www.facebook.com/baalissgrass.farm","twitter":"","tags":"eggs poultry fowl red-meat non-poultry-meat"},{"type":"farm","street":"5459 Blue Ribbon Rd","city":"Hillsboro","state":"oh","zip":"45133","x":"-83.4767810","y":"39.1619920","name":"Blue Ribbon Farm","website":"","facebook":"","twitter":"","tags":"fresh-fruits fresh-vegetables"},{"type":"farm","street":"14337 US Highway 23","city":"South Bloomfield","state":"oh","zip":"43103","x":"-82.987563","y":"39.724435","name":"Blueberry Valley","website":"www.columbusblueberry.com","facebook":"Blueberry Valley","twitter":"","tags":"canned preserved fresh-fruits honey wild-harvested forest-products"},{"type":"farm","street":"3779 State Route 132","city":"Clarksville","state":"oh","zip":"45113","x":"-84.019575","y":"39.367811","name":"Bonnybrook Farms","website":"www.BonnybrookFarms.com","facebook":"www.Facebook/BonnybrookFarms","twitter":"","tags":"baked-goods canned preserved coffee tea prepared-foods"},{"type":"farm","street":"3257 US 127 N","city":"Eaton ","state":"oh","zip":"45320","x":"-84.631422","y":"39.791734","name":"Boulder Belt Eco-Farm","website":"http://www.boulderbelt.com","facebook":"https://www.facebook.com/boulderbeltfarm","twitter":"","tags":"canned preserved crafts woodworking dry beans eggs herbs fresh-fruits fresh-vegetables honey maple-products"},{"type":"farm","street":"23342 Bowman Rd.","city":"Homeworth","state":"oh","zip":"44634","x":"-81.0616202","y":"40.8431293","name":"Breezy Hill Farm","website":"www.breezyhillfarmohio.com","facebook":"https://www.facebook.com/pages/Breezy-Hill-Farm-Homeworth-Ohio/184191254939126","twitter":"","tags":"cut-flowers herbs fresh-vegetables wild-harvested forest-products"},{"type":"farm","street":"2626 Hussey Rd.","city":"Xenia","state":"oh","zip":"45385","x":"-83.942201","y":"39.6834","name":"Brookside Farm","website":"","facebook":"Brookside Farm","twitter":"","tags":"eggs"},{"type":"farm","street":"5702 Eber Rd.","city":"Whitehouse","state":"oh","zip":"43571","x":"-83.786230","y":"41.536222","name":"Bucher Family Farm","website":"","facebook":"","twitter":"","tags":""},{"type":"farm","street":"3486 Pioneer Tr.","city":"Mantua","state":"oh","zip":"44255","x":"-81.267049","y":"41.292584","name":"Carlton Farm Produce","website":"www.carltonfarmproduce.com","facebook":"https://www.facebook.com/CarltonFarmProduce","twitter":"https://www.twitter.com/carltonfarmprod","tags":"fresh-vegetables"},{"type":"farm","street":"1740 Sportsman Club Road","city":"Newark","state":"oh","zip":"43055","x":"-82.5317710","y":"40.1554270","name":"Charlie's Apples at Windy Hill Apple Farm","website":"www.charliesapples.com","facebook":"","twitter":"","tags":"fresh-fruits juices ciders"},{"type":"farm","street":"989 N. Clayton Rd","city":"New Lebanon","state":"oh","zip":"45345","x":"-84.3954739","y":"39.7597210","name":"Cook's Garden","website":"http://cooksgardennewlebanon.com","facebook":"https://www.facebook.com/cooksgardennewlebanon","twitter":"","tags":"bedding plants fresh-vegetables"},{"type":"farm","street":"1517 Lafevre Road","city":"Geneva","state":"oh","zip":"44041","x":"-80.958817","y":"41.765378","name":"Covered Bridge Farms/Shimandle Grapes","website":"www.facebook.com/CoveredBridgeFarms","facebook":"","twitter":"","tags":"fresh-fruits"},{"type":"farm","street":"40949 State Route 558","city":"Leetonia","state":"oh","zip":"44431","x":"-80.727259","y":"40.839863","name":"Dandelion Lane Farm","website":"www.DandelionLaneFarm.com","facebook":"https://www.facebook.com/pages/Dandelion-Lane-Farm","twitter":"","tags":"canned preserved coffee tea eggs poultry fowl"},{"type":"farm","street":"3033 Dayton Rd NE","city":"Newark","state":"oh","zip":"43055","x":"-82.355769","y":"40.092689","name":"DAVIDSON PRODUCE & CATTLE FARM LLC","website":"www.davidsonproduceandcattlefarm.com","facebook":"","twitter":"","tags":"eggs poultry fowl red-meat non-poultry-meat"},{"type":"farm","street":"11275 Lovers Lane","city":"Mount Vernon","state":"oh","zip":"43050","x":"-82.531854","y":"40.402862","name":"Double 8 Cattle Company","website":"www.double8cattle.com","facebook":"https://www.facebook.com/double8cattle/","twitter":"","tags":"red-meat non-poultry-meat"},{"type":"farm","street":"753 E Maple St","city":"Clyde","state":"oh","zip":"43410","x":"-82.9570494","y":"41.3179418","name":"Eshleman Fruit Farm","website":"www.EshlemanFruitFarm.com","facebook":"https://www.facebook.com/Eshleman-Fruit-Farm-314477007606/?rf=157614694313691","twitter":"","tags":"bedding plants canned preserved fresh-fruits fresh-vegetables honey juices ciders"},{"type":"farm","street":"2175 W. 130th Street","city":"Hinckley ","state":"oh","zip":"44233","x":"-81.784668","y":"41.216353","name":"Family Roots Farm ","website":"www.familyrootsfarm.com","facebook":"RodSharpnack.FamilyRootsFarm","twitter":"","tags":"baked-goods canned preserved fresh-fruits fresh-vegetables juices ciders wild-harvested forest-products"},{"type":"farm","street":"6843 State Route 54","city":"Mechanicsburg","state":"oh","zip":"43044","x":"-83.6365576","y":"40.0222168","name":"Folck Family Farm","website":"folckfamilyfarm.net","facebook":"folckfamilyfarm","twitter":"","tags":"fresh-fruits fresh-vegetables honey maple-products"},{"type":"farm","street":"5959 Lambert Road","city":"Orient","state":"oh","zip":"43146","x":"-83.162686","y":"39.844156","name":"Folsom & Pine Farm","website":"www.folsomandpine.com","facebook":"https://www.facebook.com/folsomandpine","twitter":"https://www.twitter.com/FolsomPineFarm","tags":"bedding plants coffee tea herbs fresh-vegetables honey nursery-stock prepared-foods soap body-care"},{"type":"farm","street":"9791 Paragon Rd","city":"Centerville (Montgomery County)","state":"oh","zip":"45458","x":"-84.185969","y":"39.601443","name":"Foster's Farmhouse LLC","website":"www.fostersfarmhouse.com","facebook":"","twitter":"","tags":"canned preserved eggs fresh-vegetables honey maple-products red-meat non-poultry-meat"},{"type":"farm","street":"798 N. Medina Line Road","city":"Granger Township","state":"oh","zip":"44256","x":"-81.713905","y":"41.162239","name":"From The Water's Edge","website":"","facebook":"","twitter":"","tags":"baked-goods canned preserved eggs herbs fresh-fruits fresh-vegetables honey maple-products wild-harvested forest-products"},{"type":"farm","street":"1673 South State Route 605","city":"Sunbury","state":"oh","zip":"43074","x":"-82.804485","y":"40.194321","name":"Glass Rooster Cannery","website":"www.glassroostercannery.com","facebook":"www.facebook.com/glassroostercannery","twitter":"@glassrooster","tags":"bedding plants canned preserved crafts woodworking honey maple-products soap body-care"},{"type":"farm","street":"9600 Madison Avenue","city":"Cleveland ","state":"oh","zip":"44102","x":"-81.749955","y":"41.477146","name":"Good Earth","website":"","facebook":"","twitter":"","tags":"fresh-fruits fresh-vegetables"},{"type":"farm","street":"10220 Peck Rd","city":"Mantua","state":"oh","zip":"44255","x":"-81.2087330","y":"41.2694840","name":"Goodell Family Farm","website":"www.goodellfamilyfarm.com","facebook":"https://facebook.com/goodellfamilyfarm","twitter":"","tags":"maple-products"},{"type":"farm","street":"7201 Tucker Road","city":"Centerburg","state":"oh","zip":"43011","x":"-82.608500","y":"40.346711","name":"Granny B Farms LLC","website":"www.grannybfarm.com","facebook":"www.facebook.com/grannybfarms/","twitter":"","tags":"herbs fresh-fruits fresh-vegetables"},{"type":"farm","street":"18456 Pitts Rd","city":"Wellington","state":"oh","zip":"44090","x":"-82.2419060","y":"41.2160269","name":"Greener Pasture Farm","website":"","facebook":"Greener Pasture Farm","twitter":"","tags":"dairy products red-meat non-poultry-meat"},{"type":"farm","street":"13521 S. Dixie Hwy.","city":"Bowling Green","state":"oh","zip":"43402","x":"-83.652856","y":"41.350138","name":"Hayhurst Farm","website":"","facebook":"","twitter":"","tags":"eggs fish seafood"},{"type":"farm","street":"18375 State Rd","city":"North Royalton","state":"oh","zip":"44133","x":"-81.7160750","y":"41.2879379","name":"Heavenly Hill Farm","website":"","facebook":"","twitter":"","tags":"baked-goods canned preserved fresh-fruits fresh-vegetables honey maple-products"},{"type":"farm","street":"14811 Wollett Rd.","city":"Nelsonville","state":"oh","zip":"45764","x":"-82.276488","y":"39.423439","name":"Hembree Hollow Farm","website":"","facebook":"","twitter":"","tags":""},{"type":"farm","street":"9105 Township Road N2","city":"Napoleon","state":"oh","zip":"43545","x":"-84.039941","y":"41.363336","name":"Hetrick Honey Bees","website":"www.hetrickhoneybees.com","facebook":"","twitter":"","tags":"honey"},{"type":"farm","street":"16618 SR 33 East","city":"Wapakoneta ","state":"oh","zip":"45895","x":"-84.134766","y":"40.555566","name":"Hilltop Harvest Farm Self Serve Market","website":"www.hilltopharvestfarm.com","facebook":"Hilltop Harvest Farm","twitter":"","tags":"bedding plants fresh-fruits fresh-vegetables honey"},{"type":"farm","street":"12846 State Route 772","city":"Chillicothe","state":"oh","zip":"45601","x":"-83.013285","y":"39.301476","name":"Hirsch Fruit Farm","website":"www.hirschfruitfarm.com","facebook":"https://www.facebook.com/hirschfruitfarm","twitter":"","tags":"bedding plants canned preserved fresh-fruits fresh-vegetables honey juices ciders maple-products"},{"type":"farm","street":"9642 Randle Road","city":"Williamsport","state":"oh","zip":"43164","x":"-83.1295940","y":"39.6525000","name":"Honeyrun Farm","website":"www.honeyrunfarm.com","facebook":"https://www.facebook.com/honeyrunfarm","twitter":"","tags":"honey"},{"type":"farm","street":"2196 Jacoby Road","city":"Copley","state":"oh","zip":"44321","x":"-81.532148","y":"41.1259834","name":"Jacobs Heritage Farm","website":"www.JacobsHeritageFarm.com","facebook":"facebook.com/jacobsheritagefarm","twitter":"","tags":"bedding plants cut-flowers eggs herbs honey poultry fowl prepared-foods soap body-care wild-harvested forest-products"},{"type":"farm","street":"2091 State Route 321","city":"Sardinia ","state":"oh","zip":"45171","x":"-83.792210","y":"39.062666","name":"Jaybird Farms","website":"www.jaybirdfarms.com","facebook":"https://www.facebook.com/JaybirdFarms","twitter":"","tags":""},{"type":"farm","street":"2251 EAST 73 rd ,Street","city":"Cleveland ","state":"oh","zip":"44103","x":"-81.6380919","y":"41.4965696","name":"Ka-La Healing Garden Center","website":"http://ka-lahealinggardencenter.webs.com","facebook":"Ka-La Healing Garden Resource Center LLC","twitter":"","tags":"baked-goods bedding plants coffee tea cut-flowers herbs fresh-fruits fresh-vegetables prepared-foods soap body-care"},{"type":"farm","street":"3175 North Ridge Road","city":"Vermilion","state":"oh","zip":"44089","x":"-82.306465","y":"41.383635","name":"Kriegs Strawberry Farm Market","website":"","facebook":"Marsha Krieg ","twitter":"","tags":""},{"type":"farm","street":"20620 St. Rt. 676","city":"Marietta","state":"oh","zip":"45750","x":"-81.518072","y":"39.436996","name":"Lane's Farm Market and Orchard, LLC","website":"http://www.lanesfarmmarket.com/","facebook":"","twitter":"","tags":"baked-goods canned preserved coffee tea dairy products eggs fresh-fruits fresh-vegetables honey juices ciders maple-products pet-food prepared-foods soap body-care wine spirits beer hard-cider"},{"type":"farm","street":"2634 Smeltzer Rd","city":"Marion","state":"oh","zip":"43302","x":"-83.136091","y":"40.537152","name":"Lawrence Orchards","website":"www.lawrenceorchards.com","facebook":"https://www.facebook.com/LawrenceOrchards?ref=hl","twitter":"","tags":"baked-goods canned preserved crafts woodworking cut-flowers dairy products fresh-fruits fresh-vegetables grains flour honey juices ciders maple-products nuts prepared-foods"},{"type":"farm","street":"3602 Lima-Sandusky Rd","city":"Sandusky","state":"oh","zip":"44870","x":"-82.826537","y":"41.436443","name":"Link Farms","website":"","facebook":"","twitter":"","tags":""},{"type":"farm","street":"6179 Newton Falls Rd.","city":"Ravenna","state":"oh","zip":"44266","x":"-81.170132","y":"41.163216","name":"Lobdell Family Farm","website":"","facebook":"","twitter":"","tags":"eggs"},{"type":"farm","street":"576 North State Route 560","city":"Urbana","state":"oh","zip":"43078","x":"-83.838212","y":"40.119300","name":"Louden Family Orchard","website":"","facebook":"","twitter":"","tags":"honey"},{"type":"farm","street":"P.O. Box 7","city":"Jeromesville","state":"oh","zip":"44840","x":"-82.155647","y":"40.821676","name":"Malabar Peach Orchard","website":"ohiopeaches.com","facebook":"","twitter":"","tags":""},{"type":"farm","street":"13262 Chardon Windsor Rd.","city":"Chardon","state":"oh","zip":"44024","x":"-81.1647140","y":"41.5773560","name":"Maple Valley Sugarbush","website":"www.maplevalleysugarbush.com","facebook":"https://www.facebook.com/pages/Maple-Valley-Sugarbush-Farm/141855572516431?ref=hl","twitter":"","tags":"honey maple-products"},{"type":"farm","street":"8876 Congress Rd Lodi, OH 44254","city":"Lodi","state":"oh","zip":"44254","x":"-82.054524","y":"41.028575","name":"Marian Kay Berry Farm","website":"https://www.mkberryfarm.com","facebook":"https://www.facebook.com/MarianKayBerryFarm","twitter":"","tags":"baked-goods canned preserved"},{"type":"farm","street":"11610 Waterville-swanton","city":"Whitehouse","state":"oh","zip":"43571","x":"-83.820351","y":"41.526752","name":"Meiring Farm","website":"","facebook":"","twitter":"","tags":"cut-flowers fresh-vegetables"},{"type":"farm","street":"260 Baker Road","city":"Clarksville","state":"oh","zip":"45113","x":"-83.9404760","y":"39.3764880","name":"Messuri Family Farm LLC","website":"http://www.messurifamilyfarm.com","facebook":"https://www.facebook.com/pages/Messuri-Family-Farm/262765327140695?ref=hl","twitter":"https://twitter.com/MessuriFmlyFarm","tags":"poultry fowl"},{"type":"farm","street":"497 West Main Road","city":"Conneaut","state":"oh","zip":"44030","x":"-80.613060","y":"41.927312","name":"Northridge Blueberries LLC","website":"www.northridgeblueberries.com","facebook":"https://facebook.com/NorthridgeBlueberries","twitter":"","tags":"fresh-fruits"},{"type":"farm","street":"8913 Mapleton St SE","city":"East Canton","state":"oh","zip":"44730","x":"-81.236584","y":"40.751443","name":"Out on  a Limb Farm","website":"","facebook":"","twitter":"","tags":"canned preserved dry beans herbs fresh-fruits fresh-vegetables"},{"type":"farm","street":"6167 Winchell Rd.","city":"Hiram","state":"oh","zip":"44234","x":"-81.169391","y":"41.343496","name":"Polecat Pines Mushroom Farm, LLC","website":"www.polecatpines.com","facebook":"https://www.facebook.com/PolecatPinesMushroomFarm","twitter":"","tags":"honey mushrooms"},{"type":"farm","street":"18802 State Road","city":"North Royalton","state":"oh","zip":"44133","x":"-81.724295","y":"41.281938","name":"Purple Skies Homestead","website":"http://www.purpleslieshomestead.com","facebook":"purpleskieshomestead@gmail.com","twitter":"","tags":"baked-goods canned preserved eggs fresh-fruits fresh-vegetables"},{"type":"farm","street":"8403 Mason Road","city":"Berlin Heights","state":"oh","zip":"44814","x":"-82.473395","y":"41.337620","name":"Quarry Hill Orchards","website":"http://quarryhillorchards.com/","facebook":"https://www.facebook.com/pages/Quarry-Hill-Orchards/538012959591189","twitter":"","tags":"baked-goods bedding plants canned preserved coffee tea cut-flowers fresh-fruits fresh-vegetables honey juices ciders maple-products nuts"},{"type":"farm","street":"5561 CR 1950","city":"Stryker","state":"oh","zip":"43557","x":"-84.460299","y":"41.493370","name":"R Farm of Northwest Ohio, LLC","website":"www.rfarmnwo.com","facebook":"facebook.com/rfarmnwo","twitter":"","tags":"red-meat non-poultry-meat"},{"type":"farm","street":"2464 Townline Road","city":"Madison","state":"oh","zip":"44057","x":"-81.104680","y":"41.800121","name":"Rainbow Farms","website":"www.rainbowfarmsonline.com","facebook":"www.facebook.com/rainbowfarmsohio","twitter":"","tags":"canned preserved herbs fresh-fruits honey juices ciders maple-products soap body-care"},{"type":"farm","street":"7271 Pearl Rd SE","city":"Amsterdam","state":"oh","zip":"43903","x":"-80.9398465","y":"40.5013874","name":"Rax and Trax Farms LLC","website":"www.raxandtraxfarms.com","facebook":"","twitter":"","tags":"fresh-vegetables red-meat non-poultry-meat"},{"type":"farm","street":"5488 Kinsman Rd (SR 87)","city":"Middlefield","state":"oh","zip":"44062","x":"-80.995559","y":"41.458943","name":"Ridgeview Farm","website":"www.ridgeviewfarm.com","facebook":"https://www.facebook.com/pages/Ridgeview-Farm-and-Tours/118515271492395","twitter":"","tags":"canned preserved fresh-fruits fresh-vegetables"},{"type":"farm","street":"3336 Columbus Rd.","city":"Springfield","state":"oh","zip":"45503","x":"-83.748269","y":"39.939077","name":"Root Down Acres, LLC","website":"www.RootDownAcres.com","facebook":"https://www.facebook.com/rootdownacres","twitter":"https://www.twitter.com/rootdownacres","tags":""},{"type":"farm","street":"1022 State Route 43","city":"Mogadore","state":"oh","zip":"44260","x":"-81.347054","y":"41.017294","name":"Rufener Hilltop Farms","website":"rufeners.com","facebook":"","twitter":"","tags":"baked-goods bedding plants canned preserved eggs fresh-fruits fresh-vegetables honey maple-products"},{"type":"farm","street":"2942 Elder Road Ne","city":"Lancaster","state":"oh","zip":"43130","x":"-82.489922","y":"39.763103","name":"Ruffwing Farms","website":"www.ruffwingfarms.com","facebook":"","twitter":"","tags":""},{"type":"farm","street":"5950 Shannon Rd","city":"Canal Winchester","state":"oh","zip":"43110","x":"-82.831925","y":"39.893120","name":"Schacht Farm Market","website":"mylocalfarm.us","facebook":"https://www.facebook.com/SchachtFarmMarket","twitter":"https://www.twitter.com/farm_market","tags":"fresh-fruits fresh-vegetables honey"},{"type":"farm","street":"5024 Jacksonburg Road","city":"Trenton","state":"oh","zip":"45067","x":"-84.501404","y":"39.514640","name":"Schaefers Farm Market   ","website":"www.schaefersfarmmarket.com","facebook":"https://www.facebook.com/SchaefersCSA/","twitter":"","tags":"baked-goods bedding plants canned preserved cut-flowers eggs herbs fresh-fruits fresh-vegetables honey poultry fowl prepared-foods"},{"type":"farm","street":"4282 State Road","city":"Medina","state":"oh","zip":"44256","x":"-81.7072720","y":"41.1587370","name":"Schmidt Family Farms","website":"Schmidt Family Farms.org","facebook":"Schmidt family Farms","twitter":"","tags":"bedding plants eggs fresh-vegetables honey poultry fowl"},{"type":"farm","street":"19009 Ravenna Rd | State Route 44","city":"Auburn Twp.","state":"oh","zip":"44023","x":"-81.219517","y":"41.352165","name":"Sirna's Farm & Market ","website":"www.sirnasfarm.com","facebook":"www.facebook.com/sirnasfarm.oh","twitter":"","tags":"baked-goods canned preserved coffee tea crafts woodworking cut-flowers dairy products dry beans eggs herbs fresh-fruits fresh-vegetables grains flour honey juices ciders maple-products mushrooms nuts poultry fowl prepared-foods red-meat non-poultry-meat soap body-care wine spirits beer hard-cider"},{"type":"farm","street":"4799 Fisher Road","city":"Athens","state":"oh","zip":"45701","x":"-82.143053","y":"39.268587","name":"The Gold Family Farm","website":"","facebook":"https://www.facebook.com/pages/The-Gold-Family-Farm/210127155664647","twitter":"","tags":"fresh-vegetables"},{"type":"farm","street":"7255 US highway 42 ","city":"Plain City","state":"oh","zip":"43064","x":"-83.295379","y":"40.047682","name":"The Orchard & Company, LLC","website":"www.theorchardandcompany.com","facebook":"","twitter":"","tags":"fresh-fruits"},{"type":"farm","street":"10915 Main Road","city":"Berlin Heights","state":"oh","zip":"44814","x":"-82.4276890","y":"41.3286520","name":"The Stem Shire","website":"Www.stemshire.com","facebook":"The stemshire","twitter":"","tags":"cut-flowers eggs honey"},{"type":"farm","street":"22867 Kellogg Road","city":"Grand Rapids","state":"oh","zip":"43522","x":"-83.842096","y":"41.415294","name":"Thurmans' Farm Market","website":"Thurmansfarmmarket.com","facebook":"https://www.facebook.com/pages/Thurmans-Farm-Market/133871850093087","twitter":"","tags":"canned preserved cut-flowers fresh-fruits fresh-vegetables honey"},{"type":"farm","street":"3600 Allard rd.","city":"Medina","state":"oh","zip":"44256","x":"-81.6957089","y":"41.1779940","name":"Tim's Turkey's/Stein Farm LLC.","website":"www.timsturkeys.com","facebook":"","twitter":"","tags":"poultry fowl"},{"type":"farm","street":"4603 State Route 193","city":"Kingsville","state":"oh","zip":"44048","x":"-80.666608","y":"41.855468","name":"Triple C Farm","website":"","facebook":"SEARCH @TRIPLE C FARM MARKET","twitter":"","tags":"baked-goods canned preserved crafts woodworking dairy products eggs fresh-fruits fresh-vegetables maple-products poultry fowl red-meat non-poultry-meat"},{"type":"farm","street":"7400 Given Road","city":"Cincinnati ","state":"oh","zip":"45243","x":"-84.320358","y":"39.190080","name":"Turner Farm Inc.","website":"http://www.turnerfarm.org/","facebook":"https://www.facebook.com/pages/Turner-Farm/455826481129640","twitter":"","tags":"bedding plants cut-flowers dry beans eggs herbs fresh-fruits fresh-vegetables honey mushrooms poultry fowl red-meat non-poultry-meat"},{"type":"farm","street":"18170 Mush Run Road","city":"Stewart","state":"oh","zip":"45778","x":"-81.9475089","y":"39.3380933","name":"Vest Berries and Produce","website":"www.vestberries.com","facebook":"https://www.facebook.com/pages/Vest-Berries/162080763828140","twitter":"","tags":""},{"type":"farm","street":"11391 Franks Rd","city":"Auburn Twp","state":"oh","zip":"44023","x":"-81.231662","y":"41.421487","name":"Voytko Berry Farm","website":"voytkofarms.com","facebook":"","twitter":"","tags":"fresh-fruits fresh-vegetables honey maple-products"},{"type":"farm","street":"14950 State Route 45","city":"Lisbon","state":"oh","zip":"44432","x":"-80.698246","y":"40.685548","name":"W Bench Farms, LLC","website":"www.wbenchfarms.com","facebook":"https://www.facebook.com/W-Bench-Farms-LLC-262282387063/","twitter":"","tags":"eggs poultry fowl red-meat non-poultry-meat"},{"type":"farm","street":"13 Denver Road","city":"Waverly","state":"oh","zip":"45690","x":"-82.982336","y":"39.138281","name":"Way Farms","website":"www.way-farms.com","facebook":"www.facebook.com/wayfarm","twitter":"","tags":"bedding plants canned preserved coffee tea herbs fresh-fruits fresh-vegetables honey"},{"type":"farm","street":"2398 Weymouth Road","city":"Hinckley","state":"oh","zip":"44233","x":"-81.759425","y":"41.211152","name":"Weymouth Farms & Orchard, Winery","website":"www.weymouthfarms.com","facebook":"https://www.facebook.com/weymouthfarms/","twitter":"","tags":"fresh-fruits wine spirits beer hard-cider"},{"type":"farm","street":"4169 Swigart Road","city":"Kettering","state":"oh","zip":"45440","x":"-84.101116","y":"39.674614","name":"Whispering Pines Farm","website":"","facebook":"https://www.facebook.com/WhisperingPinesFarm","twitter":"","tags":"eggs honey"},{"type":"farm","street":"9249 Youngstown Salem Rd","city":"Canfield","state":"oh","zip":"44406","x":"-80.8067460","y":"40.9841580","name":"White House Fruit  Farm","website":"www.whitehousefruitfarm.com","facebook":"https://www.facebook.com/whitehousefruitfarm","twitter":"","tags":"baked-goods canned preserved coffee tea dairy products eggs fresh-fruits fresh-vegetables honey juices ciders maple-products prepared-foods"},{"type":"farm","street":"110 E. Yellow Springs Fairfield Rd.","city":"Yellow Springs","state":"oh","zip":"45387","x":"-83.9194051","y":"39.8137320","name":"Wild Hare Natural Farm","website":"www.whnf.biz","facebook":"https://www.facebook.com/WildHareNaturalFarm","twitter":"","tags":"poultry fowl red-meat non-poultry-meat"},{"type":"farm","street":"3381 US 68 N","city":"BELLEFONTAINE","state":"oh","zip":"43311","x":"-83.745878","y":"40.409166","name":"Wishwell Farms","website":"wishwellfarms.com","facebook":"https://www.facebook.com/WishwellFarms","twitter":"twitter.com/wishwellfarms","tags":"canned preserved eggs fresh-fruits fresh-vegetables honey"},{"type":"farm","street":"17125 State Route 152","city":"Toronto","state":"oh","zip":"43964","x":"-80.657942","y":"40.504650","name":"Zim's Raspberry Patch","website":"","facebook":"Susan Gates Zimmerman","twitter":"","tags":"fresh-fruits"},{"type":"market","name":" Stearns Homestead Farmers' Market","website":"http://www.StearnsHomestead.com","facebook":"StearnsHomesteadFarmersMarket","twitter":"","street":"6975 Ridge Road","city":"Parma ","state":"oh","zip":"","x":"-81.7339387","y":"41.3748009","tags":"baked goods crafts flowers eggs herbs vegetables honey jams maple poultry soap fruits"},{"type":"market","name":"2nd Street Market - Five Rivers MetroPark","website":"http://www.metroparks.org","facebook":"https://www.facebook.com/2ndStreetMarket/","twitter":"","street":"600 E. 2nd Street","city":"Dayton","state":"oh","zip":"45402","x":"-84.181030","y":"39.762593","tags":"organic baked goods cheese crafts flowers eggs herbs vegetables honey jams maple meat nuts plants poultry prepared-foods soap coffee beans fruits grains juices mushrooms pet food wild"},{"type":"market","name":"Adams County Farmer's Market","website":"","facebook":"facebook.com/acohfarmersmarket","twitter":"","street":"110 W. Main St. ","city":"West Union","state":"oh","zip":"45693","x":"-83.546335","y":"38.795271","tags":"baked goods flowers herbs vegetables honey jams meat soap trees coffee fruits"},{"type":"market","name":"Alliance Farmers' Market","website":"http://www.alliancefarmersmarket.com","facebook":"https://www.facebook.com/alliancefarmersmarket","twitter":"","street":"Corner of E. Main St. and Mechanic Ave.","city":"Alliance","state":"oh","zip":"44601","x":"-81.1024","y":"40.9216","tags":"baked goods crafts flowers herbs vegetables honey jams maple meat plants poultry fruits"},{"type":"market","name":"Anderson Farm Market","website":"","facebook":"","twitter":"","street":"1240 Clifton Rd","city":"Xenia","state":"oh","zip":"45385","x":"-83.8824","y":"39.7668","tags":""},{"type":"market","name":"Anderson Farmers' Market","website":"http://www.andersonfarmersmarket.org","facebook":"","twitter":"","street":"7832 Five Mile Road","city":"Cincinnati","state":"oh","zip":"45230","x":"-84.350563","y":"39.078533","tags":"baked goods cheese crafts flowers eggs herbs vegetables honey jams maple meat plants poultry prepared-foods soap coffee fruits mushrooms pet food"},{"type":"market","name":"Ashtabula Farmers Market","website":"","facebook":"https://www.facebook.com/AshtabulaFarmersMarket","twitter":"","street":"1119 Bridge Street","city":"Ashtabula","state":"oh","zip":"44004","x":"-80.7998","y":"41.8995","tags":""},{"type":"market","name":"Athens Farmers Market","website":"http://www.athensfarmersmarket.org","facebook":"https://www.facebook.com/pages/Athens-Farmers-Market","twitter":"","street":"1000 East State Street","city":"Athens","state":"oh","zip":"45701","x":"-82.0584387","y":"39.3359163","tags":"organic baked goods cheese crafts flowers eggs herbs vegetables honey jams maple meat nuts plants poultry prepared-foods soap trees coffee beans fruits grains juices mushrooms pet food wild"},{"type":"market","name":"Austintown Farmers Market","website":"http://www.facebook.com/austintownfarmersmarket","facebook":"Austintown Farmers Market","twitter":"AustintownFM","street":"6000 Kirk Road (Austintown Township Park)","city":"Austintown","state":"oh","zip":"44515","x":"-80.774094","y":"41.070511","tags":"baked goods crafts eggs herbs vegetables honey jams maple meat plants poultry prepared-foods soap fruits grains pet food tofu"},{"type":"market","name":"Avon Lake Farmers Market","website":"http://avonlakefarmersmarket.org","facebook":"https://www.facebook.com/pages/Avon-Lake-Farmers-Market/1402286433426690?ref=tn_tnmn","twitter":"","street":"32801 Electric Blvd","city":"Avon Lake","state":"oh","zip":"44012","x":"-82.0206240","y":"41.5096130","tags":"organic baked goods crafts eggs vegetables honey jams maple prepared-foods soap coffee fruits juices"},{"type":"market","name":"Barnesville Farmers Market","website":"","facebook":"","twitter":"","street":" 300 E.Church St.","city":"Barnesville","state":"oh","zip":"43713","x":"-81.1739","y":"39.9881","tags":""},{"type":"market","name":"Bellville Farmers Market","website":"http://www.bellvilleohio.net","facebook":"https://www.facebook.com/BellvilleFarmersMarket","twitter":"","street":"142 Park Place","city":"Bellville","state":"oh","zip":"44813","x":"-82.5116","y":"40.6198","tags":"baked goods cheese flowers herbs vegetables honey jams maple prepared-foods fruits"},{"type":"market","name":"Berkey Farmers Market","website":"","facebook":"","twitter":"","street":"12290 Sylvania-Metamora Rd","city":"Berkey","state":"oh","zip":"43504","x":"-83.839418","y":"41.715538","tags":"baked goods cheese crafts herbs vegetables honey jams maple soap wine fruits"},{"type":"market","name":"Bexley Farmers Market","website":"http://www.bexleyfarmersmarket.org","facebook":"","twitter":"","street":"E Main St and S Dawson Ave","city":"Bexley","state":"oh","zip":"43209","x":"-82.935745","y":"39.957135","tags":"organic baked goods flowers eggs seafood vegetables honey jams meat poultry prepared-foods coffee fruits pet food"},{"type":"market","name":"Bixler's Farmers Market (Ripley's farmers Market)","website":"","facebook":"","twitter":"","street":"7389 Clifton Ave","city":"Russellville","state":"oh","zip":"45168","x":"-83.7999390","y":"38.8522150","tags":"baked goods crafts flowers eggs herbs vegetables jams plants poultry beans fruits wild"},{"type":"market","name":"Black River Landing Farmers Market","website":"http://www.lorainportauthority.com","facebook":"","twitter":"","street":"421  Black River Lane","city":"Lorain","state":"oh","zip":"44052","x":"-82.1757","y":"41.4688","tags":""},{"type":"market","name":"Blendon Township Farmers Market","website":"http://www.localharvest.org/blendon-township-farmers-market-M35245","facebook":"","twitter":"","street":"6350 S Hempstead Road","city":"Westerville","state":"oh","zip":"43081","x":"-82.904","y":"40.0968","tags":""},{"type":"market","name":"Bloomingrove Produce Auction","website":"","facebook":"","twitter":"","street":"1091 Free Rd","city":"Shiloh","state":"oh","zip":"44878","x":"-82.5544","y":"40.9603","tags":""},{"type":"market","name":"Bluffton Farmers Market","website":"https://www.explorebluffton.com/farmers-market","facebook":"https://www.facebook.com/farmersmarketblufftonohio/","twitter":"","street":"102 S Main St","city":"Bluffton","state":"oh","zip":"45817","x":"-83.892721","y":"40.893082","tags":"organic baked goods flowers vegetables honey jams maple meat plants soap trees fruits"},{"type":"market","name":"Breezy Acres Orchard","website":"","facebook":"","twitter":"","street":"3470 Waynesville- Jamestown Road","city":"Xenia","state":"oh","zip":"45385","x":"-83.9353","y":"39.6017","tags":""},{"type":"market","name":"Bridge Street Farmers Market","website":"","facebook":"","twitter":"","street":"Bridge Street by the Lift Bridge","city":"Kingsville","state":"oh","zip":"44048","x":"-80.815","y":"41.8977","tags":""},{"type":"market","name":"Brimfield Farmers Market","website":"","facebook":"","twitter":"","street":"Town Center Dr","city":"Kent","state":"oh","zip":"44240","x":"-81.3458","y":"41.1002","tags":""},{"type":"market","name":"Broadway Farmers Market","website":"http://slavicvillage.org/farmersmarket","facebook":"https://www.facebook.com/pages/Broadway-Farmers-Market","twitter":"","street":"","city":"Cleveland ","state":"oh","zip":"","x":"-81.645294","y":"41.461447","tags":"baked goods vegetables honey jams poultry soap coffee fruits"},{"type":"market","name":"Bronzeville Growers Market","website":"","facebook":"https://www.facebook.com/2018BGM/?modal=admin_todo_tour","twitter":"","street":"925 E. Mt. Vernon Avenue","city":"Columbus ","state":"oh","zip":"43203","x":"-82.976997","y":"39.971390","tags":"baked goods crafts herbs vegetables jams prepared-foods soap fruits mushrooms"},{"type":"market","name":"Brown County Farmers Market (Ripley Farmer's Market)","website":"","facebook":"","twitter":"","street":"Main and Cherry St","city":"Georgetown ","state":"oh","zip":"45121","x":"-83.9044248","y":"38.8653546","tags":"baked goods crafts flowers eggs herbs vegetables honey jams plants beans fruits"},{"type":"market","name":"Brown County Farmers Market (Ripleys' Farmers Market)","website":"","facebook":"","twitter":"","street":"477 W. Main St","city":"Mt Orab","state":"oh","zip":"45154","x":"-83.867718","y":"38.9342260","tags":"baked goods eggs herbs vegetables jams plants beans fruits"},{"type":"market","name":"Canal Fulton Farmers Market ","website":"http://www.localharvest.org/canal-fulton-farmers-market-M23597","facebook":"","twitter":"","street":"2309 Locust Street","city":"Canal Fulton","state":"oh","zip":"44614","x":"-81.5686","y":"40.8822","tags":""},{"type":"market","name":"Canal Market District","website":"http://www.canalmarketdistrict.org","facebook":"facebook.com/canalmarketdistrict","twitter":"","street":"24 East Canal St","city":"Newark","state":"oh","zip":"43055","x":"-82.401054","y":"40.056583","tags":"baked goods cheese flowers eggs herbs vegetables honey jams maple meat plants poultry prepared-foods soap trees coffee fruits juices mushrooms wild"},{"type":"market","name":"Canal Winchester Farmers Market","website":"http://www.thecwfm.com","facebook":"","twitter":"","street":"36 South High Street","city":"Canal Winchester","state":"oh","zip":"43110","x":"-82.8059","y":"39.842","tags":"baked goods crafts flowers eggs herbs vegetables honey jams maple plants soap fruits"},{"type":"market","name":"Canton Farmers' Market","website":"http://www.cantonfarmersmarket.com","facebook":"https://www.facebook.com/CantonOhioFarmersMarket?fref=ts","twitter":"","street":"2600 6th St. SW","city":"Canton","state":"oh","zip":"44702","x":"-81.4035970","y":"40.7960900","tags":"organic baked goods cheese crafts flowers herbs vegetables honey jams maple nursery plants prepared-foods soap"},{"type":"market","name":"Canton Farmers' Market","website":"http://www.cantonfarmersmarket.com","facebook":"https://www.facebook.com/CantonOhioFarmersMarket?fref=ts","twitter":"","street":"McKinley Ave NW and 4th St. NW","city":"Canton","state":"oh","zip":"44702","x":"-81.3775854","y":"40.8012557","tags":"organic baked goods cheese crafts flowers herbs vegetables honey jams maple plants soap"},{"type":"market","name":"Captina Produce Auction","website":"http://www.captinaproduceauction.com","facebook":"","twitter":"","street":"39050 West Captina Highway","city":"Barnesville","state":"oh","zip":"43713","x":"-81.1027","y":"39.9319","tags":""},{"type":"market","name":"Carrolton Weekly Farmers Market","website":"","facebook":"","twitter":"","street":"SR 43 S.","city":"Carrolton","state":"oh","zip":"44615","x":"-81.0869","y":"40.572","tags":""},{"type":"market","name":"Case Western Reserve University Farmers Market","website":"http://students.case.edu/farm/food/farmermarket.html","facebook":"https://www.facebook.com/CWRUFarm","twitter":"https://twitter.com/CWRUFarm","street":"2109 Adelbert Rd.","city":"Cleveland ","state":"oh","zip":"44106","x":"-81.604037","y":"41.504893","tags":"crafts flowers herbs vegetables honey plants trees fruits"},{"type":"market","name":"Celina Farmers' Market ","website":"http://www.celinafarmersmarket.com","facebook":"https://www.facebook.com/CelinaFarmersMarket/","twitter":"","street":"101 N. Main St.","city":"Celina","state":"oh","zip":"45822","x":"-84.570950","y":"40.549926","tags":"baked goods cheese crafts eggs herbs vegetables honey jams maple meat plants poultry prepared-foods soap coffee fruits pet food"},{"type":"market","name":"Centerville Farmers Market","website":"http://www.centervillefarmersmarket.com","facebook":"https://www.facebook.com/pages/Centerville-Farmers-Market/185295434850051","twitter":"","street":"892 S. Main Street","city":"Centerville","state":"oh","zip":"45458","x":"-84.1598756","y":"39.6153500","tags":"organic baked goods cheese flowers eggs herbs vegetables honey jams maple meat nuts plants poultry prepared-foods soap fruits grains juices mushrooms pet food"},{"type":"market","name":"Champaign County Farmers' Market","website":"","facebook":"Corner of market Street and Locust Street","twitter":"","street":"Market Street and Locust Street","city":"Urbana ","state":"oh","zip":"43078","x":"-83.7509825","y":"40.1068632","tags":"organic baked goods crafts flowers eggs herbs vegetables honey jams maple meat plants soap coffee beans fruits pet food"},{"type":"market","name":"Champion Garden Center","website":"","facebook":"","twitter":"","street":"3717 N. Ridge Road","city":"Perry","state":"oh","zip":"44081","x":"-81.1524","y":"41.7784","tags":""},{"type":"market","name":"Chillicothe Farmers' Market Association","website":"http://www.chillicothefarmersmarket.org","facebook":"https://www.facebook.com/#!/ChillicotheFarmersMarket","twitter":"","street":"475 Western Ave","city":"Chillicothe ","state":"oh","zip":"45601","x":"-83.0031767","y":"39.3349929","tags":"baked goods flowers eggs herbs vegetables honey jams maple meat plants poultry prepared-foods soap coffee fruits juices pet food"},{"type":"market","name":"CLARK VALLEY FARMERS' MARKET","website":"","facebook":"","twitter":"","street":"1336 ST. RT. 83","city":"MILLERSBURG","state":"oh","zip":"","x":"-81.9173","y":"40.5455","tags":""},{"type":"market","name":"Clear Valley Ltd.","website":"","facebook":"","twitter":"","street":"9124 US RT 50","city":"Hillsboro","state":"oh","zip":"45133","x":"-83.5537","y":"39.2112","tags":""},{"type":"market","name":"Clinton County Farmers Market","website":"","facebook":"","twitter":"","street":"Mulberry Street between Locust and Main streets","city":"Wilmington ","state":"oh","zip":"45177","x":"-83.8315090","y":"39.4392629","tags":"organic baked goods crafts flowers eggs herbs vegetables honey maple meat poultry soap fruits pet food"},{"type":"market","name":"Clintonville Farmers' Market","website":"http://www.clintonvillefarmersmarket.org","facebook":"https://www.facebook.com/clintonvillefarmersmarket","twitter":"","street":"N High St and W Dunedin Rd","city":"Columbus","state":"oh","zip":"43214","x":"-83.016501","y":"40.034269","tags":"organic baked goods cheese flowers eggs seafood herbs vegetables honey jams maple meat nuts plants poultry prepared-foods coffee fruits grains mushrooms"},{"type":"market","name":"College Hill Farm Market","website":"http://www.CollegeHillFarmMarket.org","facebook":"https://www.facebook.com/groups/69791386959/?fref=ts","twitter":"","street":"5742 Hamilton Avenue","city":"Cincinnati","state":"oh","zip":"45224","x":"-84.54511","y":"39.19568","tags":"organic baked goods cheese crafts eggs herbs vegetables honey jams maple meat plants prepared-foods soap trees beans fruits mushrooms"},{"type":"market","name":"Columbus Public Health Farmers Market","website":"","facebook":"","twitter":"","street":"240 Parsons Ave","city":"Columbus","state":"oh","zip":"43215","x":"-82.9805967","y":"39.9593044","tags":"herbs vegetables honey fruits mushrooms"},{"type":"market","name":"Columbus Winter Farmers Market","website":"http://www.columbuswinterfarmersmarket.com","facebook":"","twitter":"","street":"4300 Indianola Ave.","city":"Columbus","state":"oh","zip":"43214","x":"-82.9997110","y":"40.0524630","tags":"baked goods eggs vegetables honey jams maple meat poultry soap"},{"type":"market","name":"Conneaut Farmers Market Inc.","website":"","facebook":"","twitter":"","street":"327 Mill St.","city":"Conneaut","state":"oh","zip":"44048","x":"-80.5602","y":"41.9455","tags":""},{"type":"market","name":"Copley Creekside Farmers Market","website":"http://copleyfarmmarket.com/","facebook":"https://www.facebook.com/CopleyCreeksideFarmersMarket/","twitter":"https://twitter.com/copleyfm","street":"1245 S Cleveland-Massillon Rd","city":"Copley","state":"oh","zip":"44321","x":"-81.644372","y":"41.104215","tags":"organic baked goods crafts flowers eggs herbs vegetables honey jams maple meat nuts plants poultry prepared-foods soap coffee fruits mushrooms"},{"type":"market","name":"Copley Creekside Farmers Market - Second Sunday Market","website":"http://copleyfarmmarket.com/","facebook":"https://www.facebook.com/CopleyCreeksideFarmersMarket/","twitter":"https://twitter.com/copleyfm","street":"3232 Copley Rd","city":"Copley","state":"oh","zip":"44321","x":"-81.630011","y":"41.096075","tags":"organic baked goods crafts eggs vegetables honey jams maple meat plants poultry soap fruits"},{"type":"market","name":"Corning Farmers Market","website":"","facebook":"","twitter":"","street":"John Altier Park N. Valley/Adams St.","city":"Corning","state":"oh","zip":"","x":"-82.0891","y":"39.604","tags":""},{"type":"market","name":"Cortland Farmers Market","website":"","facebook":"","twitter":"","street":"290 S. High Street","city":"Cortland","state":"oh","zip":"44410","x":"-80.726906","y":"41.325344","tags":"baked goods crafts eggs herbs vegetables honey jams plants soap"},{"type":"market","name":"Coshocton Farmers Market","website":"","facebook":"https://www.facebook.com/Coshocton-Farmers-Market-275577465839332/","twitter":"","street":"300 block of Main Street","city":"Coshocton","state":"oh","zip":"43812","x":"-81.866236","y":"40.273688","tags":"organic baked goods crafts flowers eggs herbs vegetables honey jams maple plants poultry soap fruits"},{"type":"market","name":"Countryside Farmers' Market at Highland Square","website":"http://cvcountryside.org","facebook":"https://www.facebook.com/countrysidefoodandfarms/","twitter":"https://twitter.com/countrysideohio","street":"1175 W Exchange St","city":"Akron","state":"oh","zip":"44302","x":"-81.553272","y":"41.098698","tags":"baked goods cheese flowers eggs herbs vegetables honey jams meat nuts soap coffee fruits mushrooms"},{"type":"market","name":"Countryside Farmers' Market at Howe Meadow","website":"http://cvcountryside.org","facebook":"https://www.facebook.com/countrysidefoodandfarms","twitter":"https://twitter.com/countrysideohio","street":"4040 Riverview Rd.","city":"Peninsula","state":"oh","zip":"44264","x":"-81.583614","y":"41.189312","tags":"organic baked goods cheese crafts flowers eggs herbs vegetables honey jams maple meat nuts plants poultry prepared-foods soap coffee beans fruits grains juices mushrooms pet food"},{"type":"market","name":"Countryside Public Market","website":"http://cvcountryside.org","facebook":"https://www.facebook.com/countrysidefoodandfarms/","twitter":"https://twitter.com/countrysideohio","street":"21 Furnace Street","city":"Akron","state":"oh","zip":"44308","x":"-81.515871","y":"41.088850","tags":"baked goods cheese flowers eggs vegetables honey jams meat nuts plants prepared-foods coffee fruits juices pet food"},{"type":"market","name":"Countryside Winter Farmers' Market","website":"http://cvcountryside.org","facebook":"https://www.facebook.com/countrysidefoodandfarms/","twitter":"https://twitter.com/countrysideohio","street":"2315 Ira Rd.","city":"Akron","state":"oh","zip":"44333","x":"-81.589922","y":"41.192676","tags":"organic baked goods cheese crafts flowers eggs herbs vegetables honey jams maple meat nuts poultry prepared-foods soap coffee beans fruits grains juices mushrooms pet food"},{"type":"market","name":"Coventry Village Farmers Market","website":"","facebook":"","twitter":"","street":"Corner of Coventry Rd and Euclid Hts Blvd.","city":"Cleveland Hts","state":"oh","zip":"","x":"-81.58","y":"41.5081","tags":""},{"type":"market","name":"Covered Bridge Farmers' Market","website":"http://www.stmarysohio.org","facebook":"","twitter":"","street":"Memorial Park","city":"St. Marys","state":"oh","zip":"45885","x":"-84.3852","y":"40.5442","tags":"baked goods crafts flowers herbs vegetables honey jams plants soap"},{"type":"market","name":"creekside gahanna farmers market","website":"","facebook":"","twitter":"","street":"downtown olde gahanna","city":"gahanna","state":"oh","zip":"","x":"-82.8664","y":"40.0113","tags":""},{"type":"market","name":"Crossroad Orchard","website":"","facebook":"","twitter":"","street":"8040 Upper Miamisburg Rd","city":"Miamisburg","state":"oh","zip":"45342","x":"-84.3289","y":"39.6435","tags":""},{"type":"market","name":"Cuyahoga Falls Farmers' Market (Farmers' Market in the Falls)","website":"http://www.farmersmarketinthefalls.weebly.com","facebook":"Farmers' Market in the Falls","twitter":"","street":"1817 Front Street","city":"Cuyahoga Falls ","state":"oh","zip":"44222","x":"-81.483560","y":"41.130404","tags":"baked goods cheese crafts eggs herbs vegetables honey jams nuts prepared-foods soap coffee fruits grains juices pet food wild"},{"type":"market","name":"Dairymel Farms","website":"","facebook":"","twitter":"","street":"1803 Hazelton-Etna Road","city":"Pataskala","state":"oh","zip":"","x":"-82.6723","y":"40.007","tags":""},{"type":"market","name":"Danville Auction","website":"","facebook":"","twitter":"","street":"15684 Body Rd.","city":"Danville","state":"oh","zip":"43014","x":"-82.2445","y":"40.4553","tags":""},{"type":"market","name":"Deerfield Twp Farmers Market","website":"","facebook":"","twitter":"","street":"3292 Montgomery Road","city":"Warren","state":"oh","zip":"","x":"-84.2825","y":"39.3039","tags":""},{"type":"market","name":"Defiance County Farmers' Markets","website":"http://www.defiance.osu.edu","facebook":"","twitter":"","street":"121 W. High Street (S.R. 2)","city":"Hicksville","state":"oh","zip":"43526","x":"-84.762354","y":"41.292254","tags":"baked goods herbs vegetables jams"},{"type":"market","name":"Defiance County Farmers' Markets","website":"http://www.defiance.osu.edu","facebook":"","twitter":"","street":"S.R. 127 south of S.R. 18","city":"Sherwood","state":"oh","zip":"43556","x":"-84.553142","y":"41.289900","tags":"baked goods herbs vegetables honey nursery"},{"type":"market","name":"Defiance County Farmers' Markets","website":"http://www.defiance.osu.edu","facebook":"","twitter":"","street":"St. Rt. 66 south of U.S. 24","city":"Defiance","state":"oh","zip":"43512","x":"-84.361911","y":"41.302071","tags":"organic baked goods cheese eggs herbs vegetables honey jams meat nursery"},{"type":"market","name":"Delaware County Farmers Market","website":"http://www.delawarecountyfair.com","facebook":"","twitter":"","street":"236 Pennsylvania Ave., Delaware Fairgounds","city":"Delaware","state":"oh","zip":"43015","x":"-83.0689","y":"40.2939","tags":""},{"type":"market","name":"Delta Farmer's Market ","website":"","facebook":"https://www.facebook.com/deltafarmermarket","twitter":"","street":"313 West Main Street","city":"Delta","state":"oh","zip":"43515","x":"-84.0197","y":"41.5731","tags":""},{"type":"market","name":"Dietrich's Farm Market","website":"","facebook":"","twitter":"","street":"3910 Avon Lake Road","city":"Litchfield","state":"oh","zip":"","x":"-82.023","y":"41.1665","tags":""},{"type":"market","name":"DLB Law Market in the Park ","website":"http://www.washingtonpark.org/event/farmers-market-2/2013-07-15/","facebook":"","twitter":"","street":"Washington Park","city":"Cincinnati","state":"oh","zip":"45202","x":"-84.5174","y":"39.1087","tags":""},{"type":"market","name":"Downtown Ashtabula Farmers' Market ","website":"http://www.localharvest.org/downtown-ashtabula-farmers-market-M59118","facebook":"","twitter":"","street":"4161 Fox Rd","city":"Kingsville","state":"oh","zip":"44048","x":"-80.6364","y":"41.8854","tags":""},{"type":"market","name":"Downtown Bowling Green Farmer's Market","website":"http://www.downtownbgohio.org/farmersmarket","facebook":"","twitter":"","street":"South Main Street","city":"Bowling Green","state":"oh","zip":"43402","x":"-83.650031","y":"41.372751","tags":"baked goods cheese crafts flowers herbs vegetables honey jams plants soap trees fruits"},{"type":"market","name":"Downtown Cleveland Farmers Market","website":"http://www.downtownclevelandmarket.org/","facebook":"https://www.facebook.com/downtownclevelandmarket?ref=tn_tnmn","twitter":"https://twitter.com/DFMPublicSquare","street":"5th Street Arcades, 530 Euclid Avenue","city":"Cleveland","state":"oh","zip":"44115","x":"-81.6891370","y":"41.4991795","tags":"baked goods cheese flowers eggs herbs vegetables honey jams maple soap fruits grains juices"},{"type":"market","name":"Downtown Farmers Market","website":"","facebook":"","twitter":"","street":"205 North 5th Street","city":"Zanesville","state":"oh","zip":"43701","x":"-82.0066","y":"39.9439","tags":""},{"type":"market","name":"Downtown Greenville Farmers Market","website":"http://downtowngreenville.org/who-we-are-2/programs-and-initiatives/","facebook":"https://www.facebook.com/greenvillefarmersmarket","twitter":"https://twitter.com/GvilleFarMarket","street":"Corner of 4th and Broadway","city":"Greenville ","state":"oh","zip":"45331","x":"-84.6314568","y":"40.1007398","tags":"baked goods crafts flowers eggs herbs vegetables honey jams maple meat nuts plants poultry prepared-foods soap trees coffee beans fruits pet food"},{"type":"market","name":"DOWNTOWN LIMA FARMERS' MARKET","website":"","facebook":"Downtown Lima Farmers Market","twitter":"","street":"7 Town Square","city":"Lima","state":"oh","zip":"45801","x":"-84.1058237","y":"40.7395472","tags":"baked goods flowers herbs vegetables honey plants soap coffee fruits"},{"type":"market","name":"Downtown Ravenna Farmers Market","website":"http://www.ndsohio.org","facebook":"Downtown Ravenna Farmers Market","twitter":"","street":"","city":"Ravenna ","state":"oh","zip":"44266","x":"-81.2420473","y":"41.1575566","tags":"baked goods crafts flowers vegetables honey jams maple soap fruits"},{"type":"market","name":"Downtown Steubenville Farmers' Market","website":"","facebook":"","twitter":"","street":"300 South 4th Street","city":"Steubenville","state":"oh","zip":"","x":"-80.6169","y":"40.3573","tags":"baked goods flowers herbs vegetables jams nuts plants"},{"type":"market","name":"Downtown Troy Farmers Market","website":"http://www.Troymainstreet.org","facebook":"https://www.Facebook.com/downtowntroyfarmersmarket","twitter":"","street":"Cherry Street ","city":"Troy","state":"oh","zip":"45373","x":"-84.204574","y":"40.039448","tags":"organic baked goods cheese crafts flowers eggs herbs vegetables honey jams maple plants prepared-foods soap fruits"},{"type":"market","name":"Doylestown Farmers Market","website":"","facebook":"","twitter":"","street":"177 Portage St.","city":"Doylestown","state":"oh","zip":"44230","x":"-81.6956","y":"40.9706","tags":""},{"type":"market","name":"Dublin Farmers' Market","website":"http://www.dublinfarmersmarket.com","facebook":"https://www.facebook.com/DublinFarmersMarket","twitter":"https://twitter.com/DublinMarket","street":"4261 West Dublin Granville Road","city":"Dublin","state":"oh","zip":"43017","x":"-83.103455","y":"40.099046","tags":"baked goods cheese flowers eggs seafood herbs vegetables honey jams maple meat plants poultry prepared-foods soap trees coffee fruits mushrooms pet food"},{"type":"market","name":"East Holmes Market","website":"","facebook":"","twitter":"","street":"3824 SR 39","city":"Millersburg","state":"oh","zip":"44654","x":"-81.8264","y":"40.5554","tags":""},{"type":"market","name":"Easton Farmers Market","website":"http://www.eastonfarmersmarket.org","facebook":"https://www.facebook.com/EastonFarmersMarketColumbus","twitter":"","street":"Easton Town Square","city":"Columbus","state":"oh","zip":"43219","x":"-82.915370","y":"40.049231","tags":"baked goods cheese flowers eggs herbs vegetables honey jams maple meat plants prepared-foods soap wine coffee fruits"},{"type":"market","name":"Eaton Earlybird Farmer's Market","website":"","facebook":"www.facebook.com/eatonearlybirdfarmersmarket","twitter":"","street":"Barron Street and Somers Street","city":"Eaton","state":"oh","zip":"45320","x":"-84.6364564","y":"39.7452906","tags":"baked goods crafts flowers eggs vegetables jams maple plants poultry prepared-foods fruits"},{"type":"market","name":"Edible Saturdays Farmers Market","website":"http://www.ediblefarmersmarkets.com","facebook":"","twitter":"","street":"100 Green Meadows Drive","city":"Lewis Center","state":"oh","zip":"43035","x":"-83.017262","y":"40.153628","tags":"eggs herbs vegetables honey jams maple meat plants poultry fruits"},{"type":"market","name":"Edible Thursdays Farmers Market","website":"http://ediblefarmersmarkets.com/","facebook":"","twitter":"","street":"4300 Indianola Ave.","city":"Columbus","state":"oh","zip":"43214","x":"-82.9997110","y":"40.0524630","tags":"baked goods eggs herbs vegetables honey jams maple meat plants poultry soap fruits"},{"type":"market","name":"Eighth & Enright Farmers Market @ Common Roots","website":"","facebook":"","twitter":"","street":"3542 W. 8th St.","city":"Cincinnati ","state":"oh","zip":"45205","x":"-84.573114","y":"39.106241","tags":"baked goods flowers eggs herbs vegetables meat plants poultry prepared-foods soap wine fruits pet food wild"},{"type":"market","name":"Euclid Farmers Market","website":"http://shoreculturalcentre.com/EuclidFarmersMarket","facebook":"https://www.facebook.com/EuclidFarmersMarket/","twitter":"","street":"291 E 222nd Street","city":"Euclid","state":"oh","zip":"44123","x":"-81.525914","y":"41.607434","tags":"organic baked goods crafts flowers herbs vegetables honey jams maple plants prepared-foods soap coffee fruits"},{"type":"market","name":"Fairborn Farmers Market","website":"http://www.ci.fairborn.oh.us","facebook":"","twitter":"","street":"Corner of Main St. & Grand Ave.","city":"Fairborn","state":"oh","zip":"45324","x":"-84.0225","y":"39.8216","tags":""},{"type":"market","name":"Farm Fresh Fridays","website":"","facebook":"","twitter":"","street":"North Broadway Avenue","city":"Geneva","state":"oh","zip":"44041","x":"-80.9718","y":"41.7821","tags":""},{"type":"market","name":"Farmers and Artisans Market","website":"","facebook":"","twitter":"","street":"4309 Lancaster Rd SE","city":"Granville","state":"oh","zip":"43023","x":"-82.523","y":"40.013","tags":""},{"type":"market","name":"Farmers Market at Jilbert Winery","website":"","facebook":"","twitter":"","street":"1496 Columbia Rd","city":"Valley City","state":"oh","zip":"44280","x":"-81.9224","y":"41.2352","tags":""},{"type":"market","name":"Farmers Market Sweet Shop","website":"","facebook":"","twitter":"","street":"116 N. Washington St.","city":"Greenfield","state":"oh","zip":"45123","x":"-83.3829","y":"39.3517","tags":""},{"type":"market","name":"Farmers Produce Market","website":"","facebook":"","twitter":"","street":"Wilmer Avenue","city":"Cincinnati","state":"oh","zip":"","x":"-84.4216","y":"39.1086","tags":""},{"type":"market","name":"Farmers' gateway Market","website":"","facebook":"https://www.facebook.com/Farmers-Gateway-Market-250248165001885/","twitter":"","street":"Eastern Gateway Community College, 4000 Sunset Boulevard","city":"Steubenville","state":"oh","zip":"43952","x":"-80.669759","y":"40.377613","tags":"baked goods flowers herbs vegetables jams meat plants trees fruits pet food"},{"type":"market","name":"Farms Produce Auction","website":"http://www.mthope.com","facebook":"","twitter":"","street":"SR 241","city":"Millersburg","state":"oh","zip":"44654","x":"-81.8764","y":"40.591","tags":""},{"type":"market","name":"Fayette County Farmers Market","website":"https://fayettecountyfarmersmarket.wordpress.com/","facebook":"https://www.facebook.com/OHFCFM/","twitter":"https://twitter.com/FAYCOFARMERSMKT","street":"100 E EAST ST.","city":"WASHINGTON COURT HOUSE","state":"oh","zip":"43160","x":"-83.427938","y":"39.53886","tags":"baked goods crafts flowers eggs herbs vegetables honey jams plants prepared-foods soap fruits juices pet food"},{"type":"market","name":"Fayette County Farmers Market","website":"https://fayettecountyfarmersmarket.wordpress.com/","facebook":"https://www.facebook.com/OHFCFM/","twitter":"https://twitter.com/FAYCOFARMERSMKT","street":"100 E EAST STREET","city":"Washington Court House ","state":"oh","zip":"43160","x":"-83.427938","y":"39.53886","tags":"baked goods crafts flowers eggs herbs vegetables honey jams plants prepared-foods soap fruits pet food"},{"type":"market","name":"Fibonacci's Mount Healthy Farmers Market","website":"http://fibbrew.com/farmers-market-application/","facebook":"https://www.facebook.com/events/722787851585113/","twitter":"","street":"1445 Compton Road","city":"Cincinnati","state":"oh","zip":"45231","x":"-84.540950","y":"39.231610","tags":"baked goods cheese eggs herbs vegetables jams maple meat poultry prepared-foods soap wine coffee fruits juices"},{"type":"market","name":"Fifth Street Farmers' Market","website":"","facebook":"FifthStreetFarmersMarket","twitter":"","street":"West Fifth Street","city":"Sycamore","state":"oh","zip":"44882","x":"-83.1700053","y":"40.9509375","tags":"baked goods crafts eggs herbs vegetables honey jams plants soap trees fruits"},{"type":"market","name":"Findlay Market","website":"http://www.findlaymarket.org","facebook":"https://www.facebook.com/FindlayMarket","twitter":"https://twitter.com/findlaymarket","street":"1801 Race St ","city":"Cincinnati","state":"oh","zip":"45202","x":"-84.518946","y":"39.115330","tags":"organic baked goods cheese crafts flowers eggs seafood herbs vegetables honey jams maple meat plants poultry prepared-foods soap wine fruits"},{"type":"market","name":"First Baptist Church Farmers Market","website":"http://www.firstbaptistcleveland.org","facebook":"https://www.facebook.com/pages/FBCs-Farmers-Market/127226640620857","twitter":"https://twitter.com/fbcfarmersmarc","street":"3630 Fairmount Blvd.","city":"Shaker Heights","state":"oh","zip":"44118","x":"-81.549727","y":"41.485691","tags":"baked goods flowers eggs herbs vegetables honey jams maple prepared-foods trees fruits"},{"type":"market","name":"Forest Farmer's Market","website":"","facebook":"https://www.facebook.com/forestohfarmersmarket","twitter":"","street":"102 W. Lima St.","city":"Forest","state":"oh","zip":"45843","x":"-83.51205","y":"40.8019","tags":"baked goods crafts eggs vegetables honey jams maple plants soap fruits"},{"type":"market","name":"Fostoria Farmers' Market","website":"","facebook":"https://www.facebook.com/FostoriaFarmersMarket","twitter":"","street":"133 W Tiffin","city":"Fostoria","state":"oh","zip":"44830","x":"-83.41541","y":"41.15641","tags":"baked goods crafts flowers herbs vegetables honey jams plants prepared-foods soap fruits"},{"type":"market","name":"Franklin Park Conservatory and Botanical Gardens Farmers' Market","website":"https://www.fpconservatory.org/education-programs/outreach-programs/farmers-market/","facebook":"https://www.facebook.com/FPConservatory","twitter":"https://twitter.com/FPConservatory","street":"1777 E. Broad Street","city":"Columbus","state":"oh","zip":"43203","x":"-82.952321","y":"39.966884","tags":"organic baked goods cheese crafts flowers eggs seafood herbs vegetables honey jams maple meat plants poultry prepared-foods soap wine coffee fruits grains juices mushrooms pet food tofu"},{"type":"market","name":"French 500 Flea Market","website":"","facebook":"","twitter":"","street":"189 Jackson Pike","city":"Gallipolis","state":"oh","zip":"45631","x":"-82.2384","y":"38.8443","tags":""},{"type":"market","name":"Frostville Museum Farmers Market ","website":"http://www.frostvillefarmersmarket.com","facebook":"https://www.facebook.com/FrostvilleMarket?fref=ts","twitter":"","street":"24101 Cedar Point Road","city":"North Olmsted ","state":"oh","zip":"44070","x":"-81.8916596","y":"41.4054884","tags":"baked goods cheese crafts eggs herbs vegetables honey jams maple meat plants poultry soap wine coffee fruits pet food"},{"type":"market","name":"Gallia County Farmers Market","website":"http://www.growgallia.com/farmersmarket.html","facebook":"","twitter":"","street":"18 State Street","city":"Gallipolis","state":"oh","zip":"45631","x":"-82.20496","y":"38.80736","tags":"baked goods cheese flowers eggs herbs vegetables honey maple meat plants poultry prepared-foods trees fruits"},{"type":"market","name":"Garden Station Sunday Market ","website":"http://www.daytongardenstation.org","facebook":"https://www.facebook.com/GardenStation","twitter":"","street":"509 East 4th Street","city":" Dayton","state":"oh","zip":"45402","x":"-84.1854","y":"39.7593","tags":""},{"type":"market","name":"Gateway105 Farmers' Market","website":"http://famicos.org","facebook":"https://www.facebook.com/Gateway105","twitter":"","street":"Corner of East 105th Street and Ashbury Road","city":"Cleveland ","state":"oh","zip":"44108","x":"-81.6154630","y":"41.5181575","tags":"baked goods flowers herbs vegetables jams plants prepared-foods soap coffee fruits grains mushrooms"},{"type":"market","name":"Geauga Family Farm Market","website":"","facebook":"","twitter":"","street":"4645 Mayfield Rd.","city":"South Euclid","state":"oh","zip":"","x":"-81.5123","y":"41.5198","tags":""},{"type":"market","name":"Geauga Fresh Farmers Market","website":"","facebook":"https://www.facebook.com/Geauga-Fresh-Farmers-Market-240462732699800/","twitter":"","street":"5205 Chillicothe Raod","city":"South Russell","state":"oh","zip":"44022","x":"-81.337545","y":"41.430889","tags":"organic baked goods cheese crafts flowers eggs vegetables honey jams maple meat plants poultry prepared-foods soap coffee fruits mushrooms"},{"type":"market","name":"Geneva Farmers Market","website":"http://geneva.ashtabulamarkets.com","facebook":"http://www.facebook.com/genevafarmersmarket","twitter":"","street":"187 Depot St.","city":"Geneva","state":"oh","zip":"44041","x":"-80.947264","y":"41.806409","tags":"crafts flowers eggs herbs vegetables honey jams maple meat poultry prepared-foods soap wine fruits wild"},{"type":"market","name":"Gervasi Vineyard Farmers Market","website":"http://www.gervasivineyard.com/Events/Farmers-Market","facebook":"https://www.facebook.com/pages/Gervasi-Vineyard-Italian-Bistro/166711470061","twitter":"https://twitter.com/GervasiVineyard","street":"1700 55th Street NE","city":"Canton ","state":"oh","zip":"44721","x":"-81.351431","y":"40.859639","tags":"baked goods cheese flowers eggs herbs vegetables honey jams meat poultry prepared-foods soap wine coffee fruits pet food"},{"type":"market","name":"God's Little Acre Farmers' Market ","website":"","facebook":"https://www.facebook.com/pages/Gods-Little-Acre-Farmers-MarketFirst-Presbyterian-Church/264224506927477","twitter":"","street":"240 South Market St. First Presbyterian Church","city":"Galion","state":"oh","zip":"44833","x":"-82.79","y":"40.7316","tags":""},{"type":"market","name":"Good Earth Herbs","website":"","facebook":"","twitter":"","street":"5553 N. Market Street","city":"Berlin","state":"oh","zip":"","x":"-81.7974","y":"40.5596","tags":""},{"type":"market","name":"Gordon SQ. Market","website":"http://www.gordonsquaremarket.org","facebook":"https://www.facebook.com/gordonsquaremarket","twitter":"https://twitter.com/gordonsqmarket","street":"6415 Detroit Avenue","city":"Cleveland","state":"oh","zip":"44102","x":"-81.728973","y":"41.484210","tags":"baked goods cheese crafts flowers eggs herbs vegetables honey jams maple meat poultry prepared-foods coffee beans fruits grains juices mushrooms"},{"type":"market","name":"Grandview Avenue Farmers Market","website":"http://www.pearlalleygrowers.com","facebook":"","twitter":"","street":"1371 Grandview Avenue","city":"Columbus","state":"oh","zip":"43212","x":"-83.043444","y":"39.980195","tags":"baked goods cheese crafts flowers eggs herbs vegetables honey jams maple soap fruits"},{"type":"market","name":"Granville Farmers Market","website":"http://www.granvillefarmersmarket.com","facebook":"","twitter":"","street":"Broadway and N. Main Street","city":"Granville","state":"oh","zip":"43023","x":"-82.520099","y":"40.068520","tags":"baked goods cheese flowers herbs vegetables honey jams maple meat plants poultry soap coffee beans fruits juices pet food"},{"type":"market","name":"Granville Farmers Market Tuesday","website":"http://www.granvillefarmersmarket.com","facebook":"","twitter":"","street":"S. Main Street","city":"Granville","state":"oh","zip":"43023","x":"-82.520292","y":"40.063240","tags":"baked goods flowers vegetables beans"},{"type":"market","name":"Green County Farm Market Association","website":"","facebook":"","twitter":"","street":"Beaver Valley & Dayton","city":"Fairborn","state":"oh","zip":"45324","x":"-84.0206","y":"39.7894","tags":""},{"type":"market","name":"Green Farmers Market","website":"http://www.cityofgreen.org","facebook":"https://www.facebook.com/cityofgreenohio","twitter":"","street":"1781 Town Park Blvd.","city":"Green","state":"oh","zip":"44685","x":"-83.649584","y":"41.377677","tags":"baked goods cheese flowers eggs herbs vegetables honey jams maple meat poultry prepared-foods soap wine fruits"},{"type":"market","name":"Greene County Farmers Market","website":"","facebook":"","twitter":"","street":"Allison Avenue, Plaza Shopping Center","city":"Xenia","state":"oh","zip":"45335","x":"-83.9432","y":"39.6858","tags":""},{"type":"market","name":"Greenfield Farmer's Market","website":"","facebook":"https://www.facebook.com/pages/Greenfield-Farmers-Market/190768260965370","twitter":"","street":"1300 Jefferson Street","city":"Greenfield","state":"oh","zip":"45123","x":"-83.400832","y":"39.347270","tags":"baked goods crafts flowers eggs herbs vegetables jams fruits"},{"type":"market","name":"Greenwich Farmers' Market Place","website":"http://www.facebook.com/GreenwichImprovementGroup","facebook":"https://www.facebook.com/GreenwichImprovementGroup","twitter":"","street":"North Railroad Street - between US224 & Townsend Street","city":"Greenwich","state":"oh","zip":"44837","x":"-82.517514","y":"41.030438","tags":"baked goods crafts flowers vegetables honey maple plants soap trees fruits grains"},{"type":"market","name":"Grove City Farmers' Market ","website":"http://www.gcchamber.org/upcoming-events.html","facebook":"","twitter":"","street":"Grove City Town Center on Broadway","city":"Grove City","state":"oh","zip":"43123","x":"-83.0936","y":"39.8822","tags":""},{"type":"market","name":"Groveport Farmers' Market ","website":"http://GroveportMarket.com","facebook":"","twitter":"","street":"Main Street and Front Street","city":"Groveport","state":"oh","zip":"43125","x":"-82.8823730","y":"39.8512144","tags":"baked goods crafts flowers herbs vegetables honey jams maple plants fruits"},{"type":"market","name":"Guernsey County Farmers Market","website":"http://www.guernseycountyfarmersmarket.com","facebook":"","twitter":"","street":"801 Wheeling Avenue","city":"Cambridge","state":"oh","zip":"43725","x":"-81.59","y":"40.0248","tags":"baked goods crafts herbs vegetables honey jams meat plants prepared-foods"},{"type":"market","name":"Hamilton's Historic Farmers Market","website":"http://www.hamiltonshistoricfarmersmarket.com","facebook":"Hamilton's Historic Farmer's Market","twitter":"","street":"345 High Street ","city":"Hamilton","state":"oh","zip":"45011","x":"-84.565522","y":"39.394328","tags":"baked goods crafts flowers eggs vegetables honey jams plants soap coffee fruits"},{"type":"market","name":"Hancock County Farmers' Market","website":"https://hancockfarmmarket.wixsite.com/home","facebook":"@HancockCountyFarmersMarket","twitter":"","street":"200 West Main Cross","city":"Findlay","state":"oh","zip":"45840","x":"-83.653004","y":"41.039589","tags":"baked goods crafts flowers herbs vegetables honey jams maple meat nuts plants poultry prepared-foods soap trees coffee fruits juices mushrooms pet food"},{"type":"market","name":"HAPI Fresh Farmers' Market ","website":"","facebook":"","twitter":"","street":"647 E. Market Street","city":"Akron","state":"oh","zip":"44304","x":"-81.521429","y":"41.080456","tags":"organic baked goods crafts vegetables honey jams maple soap coffee fruits"},{"type":"market","name":"HAPI Fresh Farmers' Market ","website":"http://asiaohio.org ","facebook":"","twitter":"","street":"381 Ontario Street","city":"Akron ","state":"oh","zip":"44310","x":"-81.521429","y":"41.080456","tags":"organic baked goods crafts flowers vegetables honey jams maple plants prepared-foods fruits"},{"type":"market","name":"Hartville Market Place","website":"","facebook":"","twitter":"","street":"1289 Edison St. NW","city":"Hartville","state":"oh","zip":"","x":"-81.3542","y":"40.9696","tags":""},{"type":"market","name":"Haymaker Farmers' Market","website":"http://haymakermarket.com/","facebook":"http://www.facebook.com/haymaker.farmers.market","twitter":"https://twitter.com/haymakermarket","street":"Franklin Avenue & Summit Street","city":"Kent","state":"oh","zip":"44240","x":"-81.360033","y":"41.150692","tags":"organic baked goods cheese crafts flowers eggs herbs vegetables honey jams maple meat nuts plants poultry prepared-foods soap trees coffee fruits juices mushrooms pet food"},{"type":"market","name":"Haymaker Winter Farmers' Market","website":"http://haymakermarket.com","facebook":"https://www.facebook.com/haymaker.farmers.market","twitter":"https://twitter.com/haymakermarket","street":"1435 E. Main St.","city":"Kent","state":"oh","zip":"44240","x":"-81.337517","y":"41.155043","tags":"organic baked goods cheese crafts flowers eggs herbs vegetables honey jams maple meat poultry prepared-foods soap coffee beans fruits grains juices mushrooms pet food"},{"type":"market","name":"Hilliard Farm Market","website":"http://www.HilliardFarmMarket.com","facebook":"Hilliard Farm Market","twitter":"HilliardMarket","street":"5445 Scioto-Darby Rd","city":"Hilliard","state":"oh","zip":"43026","x":"-83.161861","y":"40.028014","tags":"baked goods cheese crafts flowers seafood vegetables honey jams meat poultry soap coffee fruits"},{"type":"market","name":"Hillsboro Farmers Market","website":"","facebook":"","twitter":"","street":"","city":"Hillsboro","state":"oh","zip":"45133","x":"-83.611724","y":"39.202872","tags":"baked goods eggs vegetables honey jams maple poultry fruits"},{"type":"market","name":"Historic Harrison Farmers' Market ","website":"http://www.harrisonohio.org/filestorage/276/286/315/1252/1180/Farmers_Fest_13_Flyer.pdf","facebook":"","twitter":"","street":"Walnut St and S. State St","city":"Harrison","state":"oh","zip":"45030","x":"-84.8185","y":"39.262","tags":""},{"type":"market","name":"Hocking Hills Farmers Market","website":"","facebook":"","twitter":"","street":"26820 U.S. Rt. 33","city":"Rockbridge","state":"oh","zip":"43149","x":"-81.3719","y":"40.8595","tags":""},{"type":"market","name":"Holmes County Farmers Market","website":"","facebook":"","twitter":"","street":"224 N. Clay Street","city":"St. Millersburg","state":"oh","zip":"44654","x":"-81.9173","y":"40.5558","tags":""},{"type":"market","name":"Holy Trinity Farmers Market","website":"http://holytrinitymansfield.org/special_events/farmers-market/","facebook":"https://www.facebook.com/holytrinityfarmersmarket?ref=aymt_homepage_panel","twitter":"","street":"525 W. Cook Rd.","city":"Mansfield","state":"oh","zip":"44907","x":"-82.535281","y":"40.732527","tags":"baked goods flowers herbs vegetables jams maple fruits mushrooms"},{"type":"market","name":"Hopedale Farmers' Market ","website":"http://www.localharvest.org/hopedale-farmers-market-M58541","facebook":"https://www.facebook.com/pages/Hopedale-Farmers-Market/419361138158497","twitter":"","street":"Hwy 22","city":"Hopedale","state":"oh","zip":"43976","x":"-80.9516","y":"40.3136","tags":""},{"type":"market","name":"Howland Farmers Market ","website":"http://www.localharvest.org/howland-farmers-market-M32351","facebook":"https://www.facebook.com/HowlandFarmersMarket?ref=hl","twitter":"","street":"East Market Street","city":"Howland","state":"oh","zip":"44484","x":"-80.7512","y":"41.2383","tags":""},{"type":"market","name":"Hudson Farmers Market","website":"http://www.hudsonfarmersmarket.org","facebook":"facebook.com/HudsonOHFarmersMarket","twitter":"@hfmnow","street":"Main St. and Aurora St.","city":"Hudson","state":"oh","zip":"44236","x":"-81.440110","y":"41.241401","tags":"baked goods cheese flowers eggs herbs vegetables honey jams maple meat plants poultry prepared-foods soap coffee fruits grains"},{"type":"market","name":"Hyde Park Farmers' Market","website":"http://www.HydeParkFarmersMarket.com","facebook":"https://www.facebook.com/HydeParkFarmersMarket/","twitter":"","street":"2700 Erie Avenue","city":"Cincinnati","state":"oh","zip":"45208","x":"-84.442330","y":"39.139602","tags":"organic baked goods cheese flowers eggs herbs vegetables honey jams maple meat plants poultry prepared-foods soap coffee fruits grains mushrooms pet food wild"},{"type":"market","name":"I-70 & I-77 FARMERS' MARKET","website":"","facebook":"","twitter":"","street":"GUERNSEY CTY. FAIRGROUNDS","city":"OLD WASHINGTON","state":"oh","zip":"","x":"-81.4333","y":"40.0368","tags":""},{"type":"market","name":"I-71 FARMERS MARKET at Rest Stop Signpost 224","website":"","facebook":"https://www.facebook.com/wytheville.farmersmarket","twitter":"","street":"I-71 Rest Area at signpost 224","city":"Brunswick","state":"oh","zip":"44212","x":"-81.792526","y":"41.222229","tags":"organic baked goods cheese flowers eggs herbs vegetables honey jams maple meat nursery nuts plants poultry prepared-foods soap trees wine"},{"type":"market","name":"Idora Neighborhood Farmer's Market","website":"","facebook":"https://www.facebook.com/idoraneighborhoodfarmersmarket/info?tab=overview","twitter":"","street":"2600 Glenwood Ave","city":"Youngstown","state":"oh","zip":"44511","x":"-80.6756890","y":"41.0736120","tags":"baked goods herbs vegetables honey jams maple plants prepared-foods soap coffee fruits grains wild"},{"type":"market","name":"Jackson Township Farmers' Market ","website":"http://www.localharvest.org/jackson-township-farmers-market-M37221","facebook":"","twitter":"","street":"7660 Fulton Drive NW (Across from Jackson High School)","city":"Massillon (Jackson Township)","state":"oh","zip":"44646","x":"-81.4932","y":"40.8609","tags":""},{"type":"market","name":"Jefferson Farmers' Market","website":"","facebook":"","twitter":"","street":"32 E. Jefferson St.","city":"Jefferson","state":"oh","zip":"44047","x":"-80.7674","y":"41.7373","tags":"flowers herbs vegetables maple plants trees fruits"},{"type":"market","name":"Jefferson Township Community Farmers Market","website":"http://www.jeffersontownship.org","facebook":"","twitter":"","street":"7475 Clark State Road","city":"Blacklick","state":"oh","zip":"43004","x":"-82.8005","y":"40.0438","tags":""},{"type":"market","name":"Johnstown Farmers' Market","website":"","facebook":"","twitter":"","street":"S. Main Street and Coshocton St.","city":"Johnstown","state":"oh","zip":"43031","x":"-82.6848560","y":"40.1538580","tags":"baked goods crafts vegetables honey jams maple plants soap fruits"},{"type":"market","name":"Kamm's Corners Farmers Market","website":"http://www.kammscornersfarmersmarket.org","facebook":"https://www.facebook.com/kammsmarket/","twitter":"","street":"16906 Albers Ave.","city":"Cleveland ","state":"oh","zip":"44111","x":"-81.814974","y":"41.449328","tags":"organic baked goods cheese crafts flowers eggs herbs vegetables honey jams maple meat nuts plants poultry prepared-foods soap coffee fruits juices pet food"},{"type":"market","name":"Kenton Farmers' Market","website":"","facebook":"","twitter":"","street":"Columbus St at N. Detroit St","city":"Kenton","state":"oh","zip":"43326","x":"-83.609734","y":"40.648150","tags":"baked goods crafts flowers herbs vegetables honey jams maple nursery plants"},{"type":"market","name":"Knox County Farmers Market","website":"","facebook":"","twitter":"","street":"Mt. Vernon City Square","city":"Mt. Vernon","state":"oh","zip":"","x":"-82.9796","y":"39.971","tags":""},{"type":"market","name":"KOLLSTEDT FAMILY FARM","website":"","facebook":"","twitter":"","street":"4655 RIVER ROAD ","city":"Fairfield ","state":"oh","zip":"45014","x":"-84.567481","y":"39.351705","tags":"vegetables jams fruits"},{"type":"market","name":"Lake Metroparks Farmpark Farmers' Market","website":"http://www.lakemetroparks.com ","facebook":"","twitter":"","street":"8800 Euclid Chardon Rd","city":"Kirtland ","state":"oh","zip":"44094","x":"-81.328375","y":"41.577281","tags":"organic baked goods cheese crafts flowers eggs herbs vegetables plants prepared-foods trees fruits"},{"type":"market","name":"Lake Milton Farmers Market ","website":"http://www.lakemiltoninfo.com/","facebook":"","twitter":"","street":"Lake Milton Waterfront on the Amphitheater Lawn","city":"Lake Milton","state":"oh","zip":"44429","x":"-80.9816","y":"41.0929","tags":""},{"type":"market","name":"Lakewood Earth and Food (LEAF) Community Farmers' Market","website":"http://www.leafcommunity.org","facebook":"https://www.facebook.com/groups/leafc","twitter":"","street":"15425 Detroit","city":"Lakewood","state":"oh","zip":"44107","x":"-81.8042660","y":"41.4845390","tags":"organic baked goods cheese crafts flowers eggs herbs vegetables honey jams maple meat nuts plants poultry prepared-foods soap trees coffee beans fruits grains"},{"type":"market","name":"Lakewood Farmers Market","website":"http://marketconnect.us","facebook":"https://www.facebook.com/lakewoodfarmersmarket","twitter":"","street":"Detroit Ave., Between Warren and Cook","city":"Lakewood ","state":"oh","zip":"44107","x":"-81.800894","y":"41.484758","tags":"baked goods cheese crafts herbs vegetables honey jams maple meat nuts poultry soap trees coffee fruits grains pet food"},{"type":"market","name":"Lancaster Farmers Market","website":"http://www.lancasterfarmersmarket.com","facebook":"","twitter":"","street":"Corner of Memorial Dr. & Wheeling St.","city":"Lancaster","state":"oh","zip":"43130","x":"-82.6067","y":"39.7151","tags":""},{"type":"market","name":"Lean Fat Organic Market","website":"http://www.leanfat.com","facebook":"","twitter":"","street":"9871 Lean Street","city":"Columbus","state":"oh","zip":"43085","x":"-82.9988","y":"39.9612","tags":""},{"type":"market","name":"Lebanon Farmers Market","website":"","facebook":"","twitter":"","street":"120 W. South Street","city":"Lebanon","state":"oh","zip":"","x":"-84.2102","y":"39.4324","tags":""},{"type":"market","name":"Lettuce Eat Well Farmers' Market","website":"http://www.lewfm.org","facebook":"lewfm","twitter":"","street":"4040 Harrison Ave","city":"Cincinnati","state":"oh","zip":"45211","x":"-84.6172030","y":"39.1587027","tags":"baked goods cheese crafts flowers eggs herbs vegetables honey jams maple meat plants poultry prepared-foods soap beans fruits grains pet food"},{"type":"market","name":"Lincolnview Farms","website":"","facebook":"","twitter":"","street":"","city":"Van Wert","state":"oh","zip":"","x":"-84.5837","y":"40.8688","tags":""},{"type":"market","name":"Locust Street Farmers' Market and Flea Market","website":"","facebook":"","twitter":"","street":"853 Locust Street South and Portage Street","city":"Canal Fulton","state":"oh","zip":"44614","x":"-81.568155","y":"40.882003","tags":"baked goods crafts herbs vegetables jams soap fruits wild"},{"type":"market","name":"Logan County Farmers Market","website":"","facebook":"https://www.facebook.com/pages/Logan-County-Farmers-Market/117396318274013","twitter":"","street":"Corner of Chillicothe and Detroit Street","city":"Bellefontaine","state":"oh","zip":"43311","x":"-83.7617721","y":"40.3598470","tags":"organic baked goods cheese crafts flowers eggs seafood herbs vegetables honey jams maple meat plants poultry soap trees coffee beans fruits grains pet food"},{"type":"market","name":"London Farmers Market","website":"","facebook":"","twitter":"","street":"East 2nd Street","city":"London","state":"oh","zip":"43140","x":"-83.4491","y":"39.8868","tags":""},{"type":"market","name":"Loveland Farmers' Market","website":"http://www.lovelandfm.com","facebook":"https://www.facebook.com/LovelandFarmersMarket","twitter":"","street":"205 Broadway Street","city":"Loveland","state":"oh","zip":"45140","x":"-84.2599240","y":"39.2663880","tags":"organic baked goods cheese flowers eggs herbs vegetables honey jams meat nuts plants poultry prepared-foods soap fruits juices mushrooms pet food"},{"type":"market","name":"Macedonia Farmer's Market ","website":"http://www.macrec.com/","facebook":"","twitter":"","street":"1494 E Aurora Rd","city":"Macedonia","state":"oh","zip":"44056","x":"-81.486","y":"41.3107","tags":""},{"type":"market","name":"Madeira Farmers Market","website":"http://www.madeirafarmersmarket.com","facebook":"","twitter":"","street":"8000 Miami Ave","city":"Madeira","state":"oh","zip":"45243","x":"-84.361117","y":"39.203094","tags":"organic baked goods cheese crafts eggs vegetables meat poultry soap fruits"},{"type":"market","name":"Madeira Farmers' Market","website":"http://www.madeirafarmersmarket.com","facebook":"https://www.facebook.com/madeirafarmersmarket/","twitter":"","street":"Dawson and Miami Ave.","city":"Madeira","state":"oh","zip":"45243","x":"-84.363859","y":"39.187923","tags":"organic baked goods crafts flowers eggs herbs vegetables honey jams maple meat poultry prepared-foods soap coffee fruits juices mushrooms pet food tofu"},{"type":"market","name":"Madison Garden Center","website":"","facebook":"","twitter":"","street":"9640 West Broad St.","city":"West Jefferson","state":"oh","zip":"43162","x":"-82.7353","y":"39.8177","tags":""},{"type":"market","name":"Main Street Delaware Farmers Market","website":"http://www.mainstreet.com","facebook":"","twitter":"","street":"N. Sandusky Street","city":"Delware","state":"oh","zip":"43015","x":"-83.0672","y":"40.3055","tags":""},{"type":"market","name":"Main Street Elyria Farmers Market ","website":"http://www.mainstreetelyria.com/events?view=1&id=81","facebook":"","twitter":"","street":"104 Middle Ave.","city":"Elyria","state":"oh","zip":"44035","x":"-82.1066","y":"41.3675","tags":""},{"type":"market","name":"Main Street Portsmouth Farmers Market ","website":"","facebook":"https://www.facebook.com/pages/Main-Street-Portsmouth-Farmers-Market/121334127915677","twitter":"","street":"Corner of Gallia & Chillicothe Streets","city":"Portsmouth","state":"oh","zip":"45662","x":"-82.9966","y":"38.7341","tags":""},{"type":"market","name":"Main Street Wooste, Inc.","website":"","facebook":"","twitter":"","street":"N. Market Street Quad.","city":"Wooster","state":"oh","zip":"44691","x":"-81.9454","y":"40.7976","tags":""},{"type":"market","name":"Maize Valley Farmers Market","website":"http://www.maizevalleywinery.com/homegrown","facebook":"","twitter":"","street":"6193 Edison Street NE","city":"Hartville","state":"oh","zip":"44632","x":"-81.2792","y":"40.9549","tags":""},{"type":"market","name":"Malabar Farm Market","website":"","facebook":"","twitter":"","street":"Pleasant Valley Road","city":"Lucas","state":"oh","zip":"","x":"-82.401","y":"40.6428","tags":""},{"type":"market","name":"Marion Ohio Market","website":"","facebook":"Marion Ohio Market","twitter":"","street":"Main and Church ","city":"Marion ","state":"oh","zip":"43302","x":"-83.122972","y":"40.593304","tags":"baked goods crafts eggs vegetables honey jams maple prepared-foods soap fruits"},{"type":"market","name":"Market at 15th & High ","website":"http://www.marketat15thandhigh.blogspot.com/","facebook":"","twitter":"","street":"1871 North High Street","city":"Columbus","state":"oh","zip":"43210","x":"-83.0082","y":"40.0006","tags":""},{"type":"market","name":"Market at Lock 3","website":"http://www.downtownakron.com/market","facebook":"https://www.facebook.com/pages/Market-at-Lock-3/119098968127379","twitter":"","street":"200 S. Main St.","city":"Akron","state":"oh","zip":"44308","x":"-81.520422","y":"41.079982","tags":"baked goods crafts herbs vegetables jams maple nuts plants poultry fruits"},{"type":"market","name":"Market Day RCAC","website":"","facebook":"","twitter":"","street":"13794 Woodworth Rd","city":"New Springfield","state":"oh","zip":"44443","x":"-80.6061","y":"40.9172","tags":""},{"type":"market","name":"Massillon Farmers Market","website":"","facebook":"","twitter":"","street":"505 Erie St.","city":"Massillon","state":"oh","zip":"44646","x":"-81.5207","y":"40.7916","tags":""},{"type":"market","name":"Maynards Farm Market","website":"","facebook":"","twitter":"","street":"445 US Route 42","city":"Polk","state":"oh","zip":"","x":"-82.7075","y":"41.4436","tags":""},{"type":"market","name":"MCCOMB FARMERS' MARKET","website":"","facebook":"","twitter":"","street":"200 PARK DR. S.","city":"MCCOMB","state":"oh","zip":"","x":"-83.7844","y":"41.1072","tags":""},{"type":"market","name":"Medina County Farmers Market","website":"","facebook":"","twitter":"","street":"Historic Medina Square","city":"Medina","state":"oh","zip":"44256","x":"-81.8636","y":"41.1376","tags":""},{"type":"market","name":"Meigs County Farmers' Market","website":"http://www.meigscountyfarmersmarket.com","facebook":"www.facebook.com/meigscountyfarmersmarket","twitter":"","street":"PO Box 702","city":"Pomeroy","state":"oh","zip":"45769","x":"-82.034026","y":"39.026596","tags":"organic baked goods crafts flowers eggs herbs vegetables honey jams plants soap coffee fruits"},{"type":"market","name":"Mentor Farmers Market","website":"http://cityofmentor.com/departments/parks-recreation/upcoming-events/mentor-farmers-market/","facebook":"https://www.facebook.com/Mentor-Farmers-Market-1696340793979619/?ref=aymt_homepage_panel","twitter":"","street":"7967 Mentor Avenue","city":"Mentor","state":"oh","zip":"44060","x":"-81.354842","y":"41.662919","tags":"organic baked goods cheese crafts flowers eggs herbs vegetables honey jams maple meat plants poultry prepared-foods soap trees coffee fruits juices pet food"},{"type":"market","name":"Mentor Outdoor Farmers Market","website":"","facebook":"","twitter":"","street":"7850 Mentor Avenue, Great Lakes Mall","city":"Mentor","state":"oh","zip":"44060","x":"-81.361","y":"41.6605","tags":""},{"type":"market","name":"Miami County Farmers Market","website":"","facebook":"","twitter":"","street":"Corner of ST RT & 41 Experiment Farm Rd.","city":"Troy","state":"oh","zip":"45373","x":"-84.2404","y":"40.0559","tags":""},{"type":"market","name":"Middlefield Market","website":"","facebook":"","twitter":"","street":"15864 Nauvoo Road","city":"Middlefield","state":"oh","zip":"","x":"-81.0766","y":"41.4792","tags":""},{"type":"market","name":"Miles Farmers Market INC","website":"http://www.milesfarmersmarket.com","facebook":"","twitter":"","street":"28560 Miles Road","city":"Cleveland","state":"oh","zip":"44139-1184","x":"-81.4768","y":"41.4243","tags":""},{"type":"market","name":"MILLERSBURG FARMERS' MARKET","website":"","facebook":"","twitter":"","street":"20 N. CLINTON","city":"MILLERSBURG","state":"oh","zip":"","x":"-81.9175","y":"40.5555","tags":""},{"type":"market","name":"Mills Rest Ranch","website":"","facebook":"","twitter":"","street":"St. US Rt 42 South","city":"Mt. Gilead","state":"oh","zip":"43338","x":"-82.8266","y":"40.4605","tags":""},{"type":"market","name":"Minerva Farmers' Market","website":"","facebook":"https://www.facebook.com/MinervaFarmersMarketOhio","twitter":"","street":"corner of Line St. & Short St.","city":"Minerva","state":"oh","zip":"44657","x":"-81.1025950","y":"40.7279350","tags":"baked goods cheese crafts flowers herbs vegetables plants prepared-foods soap fruits"},{"type":"market","name":"Montgomery Farmers Market","website":"http://www.montgomeryfarmersmarket.org","facebook":"https://www.facebook.com/MontgomeryFM/","twitter":"","street":"9609 Montgomery Rd","city":"Montgomery","state":"oh","zip":"45242","x":"-84.353789","y":"39.230912","tags":"baked goods crafts flowers eggs seafood herbs vegetables honey jams maple meat plants poultry prepared-foods soap coffee fruits juices mushrooms pet food"},{"type":"market","name":"Montgomery Farmers Market Winter Market","website":"http://www.montgomeryfarmersmarket.org","facebook":"https://www.facebook.com/MontgomeryFM/","twitter":"","street":"9994 Zig Zag Rd","city":"Montgomery","state":"oh","zip":"45242","x":"-84.363070","y":"39.241124","tags":"baked goods crafts flowers eggs seafood herbs vegetables honey jams maple meat poultry prepared-foods soap fruits"},{"type":"market","name":"Morgan County Farmers Market","website":"http://morgan.osu.edu","facebook":"Morgan County Farmers Market","twitter":"","street":"Intersection Main and Kennebec","city":"McConnelsville","state":"oh","zip":"43756","x":"-81.853276","y":"39.648855","tags":"baked goods crafts vegetables plants fruits"},{"type":"market","name":"MRC Farmers' Market ","website":"http://www.mrcfarmersmarket.org/","facebook":"https://www.facebook.com/MRCFarmersMarket","twitter":"","street":"1500 Superior Ave.  NE","city":"Canton","state":"oh","zip":"","x":"-81.3426","y":"40.8129","tags":""},{"type":"market","name":"Mt Gilead Farmer's Market ","website":"","facebook":"https://www.facebook.com/pages/Mount-Gilead-Farmers-Market/357066631010759","twitter":"","street":"75 E. High St. ","city":"Mt. Gilead","state":"oh","zip":"","x":"-82.8257","y":"40.5487","tags":""},{"type":"market","name":"Mt. Hope Auction","website":"","facebook":"","twitter":"","street":"8076 SR 241","city":"Mt. Hope","state":"oh","zip":"44660","x":"-81.8","y":"40.624","tags":""},{"type":"market","name":"Munroe Falls Farmers Market ","website":"http://munroefallsfarmersmarket.weebly.com/","facebook":"https://www.facebook.com/MunroeFallsFarmersMarket","twitter":"","street":"43 Munroe Falls Ave","city":"Munroe Falls ","state":"oh","zip":"44262","x":"-81.441095","y":"41.139097","tags":""},{"type":"market","name":"Nationwide Children's Hospital Farmers Market","website":"","facebook":"","twitter":"nchfarmmarket","street":"760 E. Livingston Ave.","city":"Columbus","state":"oh","zip":"43205","x":"-82.977836","y":"39.952259","tags":"baked goods cheese eggs herbs vegetables honey jams maple poultry fruits grains"},{"type":"market","name":"Natures Carousel","website":"","facebook":"","twitter":"","street":"233 South Market St.","city":"Galion","state":"oh","zip":"","x":"-82.7894","y":"40.732","tags":""},{"type":"market","name":"NDS Downtown Barberton Farmers' Market","website":"http://ndsbarbertonevents.com","facebook":"","twitter":"","street":"3rd Street NW between W. Tuscarawas and W. Park","city":"Barberton ","state":"oh","zip":"44203","x":"-81.608706","y":"41.013610","tags":"baked goods crafts flowers herbs vegetables honey jams maple plants soap coffee fruits"},{"type":"market","name":"Nelsonville Farmers Market ","website":"","facebook":"https://www.facebook.com/NelsonvilleFarmersMarket","twitter":"","street":"52 Public Square","city":"Athens ","state":"oh","zip":"","x":"-82.231891","y":"39.460973","tags":"baked goods eggs herbs vegetables jams maple plants prepared-foods soap fruits tofu"},{"type":"market","name":"New Albany Farmers Market","website":"http://www.healthynewalbany.org","facebook":"https://www.facebook.com/nafarmersmarket","twitter":"","street":"200 Market Street (outdoor); 150 West Main Street (indoor)","city":"New Albany","state":"oh","zip":"43054","x":"-82.815383","y":"40.081412","tags":"organic baked goods cheese crafts flowers eggs seafood herbs vegetables honey jams maple poultry prepared-foods soap coffee fruits grains juices mushrooms pet food wild"},{"type":"market","name":"New Carlisle Farmer's Market","website":"http://buyclarkcounty.com/market/","facebook":"https://www.facebook.com/NewCarlisleFarmersMarket","twitter":"@BuyClarkCounty","street":"114 South Main street","city":"New Carlisle","state":"oh","zip":"45344","x":"-84.025048","y":"39.936605","tags":"baked goods crafts flowers herbs vegetables honey jams maple plants prepared-foods soap fruits"},{"type":"market","name":"New Concord Farmers' Market","website":"","facebook":"","twitter":"","street":"Main Street","city":"New Concord","state":"oh","zip":"43762","x":"-81.7371","y":"39.9937","tags":""},{"type":"market","name":"New London Farmers and Flea Market","website":"","facebook":"","twitter":"","street":"East Main Street, Old school parking lot","city":"New London","state":"oh","zip":"44851","x":"-81.5906","y":"41.4839","tags":""},{"type":"market","name":"Noodles Market","website":"","facebook":"","twitter":"","street":"932 Main Street","city":"Smithfield","state":"oh","zip":"43948","x":"-80.7825","y":"40.2691","tags":""},{"type":"market","name":"North Canton Farmers' Market ","website":"http://www.msgrille.com/NcFarmersMarket/","facebook":"","twitter":"","street":"123-139 South Main Street - rear parking lot of St. Pauls Catholic parking lot and the Main Street Grille ","city":"North Canton, OH.","state":"oh","zip":"","x":"-81.4024","y":"40.8753","tags":""},{"type":"market","name":"North End Farmers Market","website":"http://www.necic-ohio.org","facebook":"www.facebook.com/nefm2014/","twitter":"twitter.com/necic","street":"417 Blust Ave.","city":" Mansfield ","state":"oh","zip":"44903","x":"-82.5247140","y":"40.7703620","tags":"organic baked goods cheese crafts flowers herbs vegetables honey jams maple meat soap fruits juices"},{"type":"market","name":"North Market Farmers' Market","website":"http://northmarket.com","facebook":"https://www.facebook.com/NorthMarket/","twitter":"https://twitter.com/NorthMarket","street":"59 Spruce Street","city":"Columbus","state":"oh","zip":"43215","x":"-83.0043304","y":"39.9718961","tags":"baked goods flowers eggs vegetables honey jams maple plants soap fruits mushrooms"},{"type":"market","name":"North Royalton Farmers Market","website":"","facebook":"","twitter":"","street":"Memorial Park State Rd","city":"North Royalton","state":"oh","zip":"44133","x":"-81.7245","y":"41.3096","tags":""},{"type":"market","name":"North Union Farmers Market at Chagrin Falls","website":"http://www.northunionfarmersmarket.org/markets/chagrin.html","facebook":"https://www.facebook.com/NorthUnionFarmersMarket","twitter":"https://twitter.com/NUFarmersMarket","street":"Band Stand Triangle Park","city":"Chagrin Falls","state":"oh","zip":"44022","x":"-81.391704","y":"41.430360","tags":"organic baked goods cheese crafts flowers eggs herbs vegetables honey jams meat plants poultry soap trees fruits grains juices"},{"type":"market","name":"North Union Farmers Market at Cleveland Clinic Beachwood","website":"http://www.northunionfarmersmarket.org/markets/clinic_beachwood.html","facebook":"","twitter":"","street":"26900 Cedar Road","city":"Beachwood","state":"oh","zip":"44122","x":"-81.4891619","y":"41.5005240","tags":"organic baked goods cheese crafts flowers eggs herbs vegetables honey jams maple meat nursery nuts plants poultry prepared-foods soap trees"},{"type":"market","name":"North Union Farmers Market at Crocker park","website":"http://www.northunionfarmersmarket.org/markets/crocker.html","facebook":"https://www.facebook.com/NorthUnionFarmersMarket","twitter":"https://twitter.com/NUFarmersMarket","street":"Crocker Road and Market Street","city":"Westlake","state":"oh","zip":"44145","x":"-81.950408","y":"41.457881","tags":"organic baked goods cheese crafts flowers eggs herbs vegetables honey jams maple meat plants poultry prepared-foods soap trees coffee beans fruits grains juices mushrooms wild"},{"type":"market","name":"North Union Farmers Market at PlayhouseSquare/CSU","website":"http://www.northunionfarmersmarket.org/markets/csu.html","facebook":"https://www.facebook.com/NorthUnionFarmersMarket","twitter":"https://twitter.com/NUFarmersMarket","street":"Star Plaza, Euclid Avenue and E. 14th","city":"Cleveland","state":"oh","zip":"44115","x":"-81.681848","y":"41.500652","tags":"organic baked goods cheese flowers vegetables honey jams maple plants soap trees fruits juices"},{"type":"market","name":"North Union Farmers Market at Shaker Square","website":"http://www.northunionfarmersmarket.org/markets/shaker.html","facebook":"https://www.facebook.com/NorthUnionFarmersMarket","twitter":"https://twitter.com/NUFarmersMarket","street":"Shaker Square","city":"Cleveland","state":"oh","zip":"44120","x":"-81.5911402","y":"41.4839508","tags":"organic baked goods cheese crafts flowers eggs herbs vegetables honey jams maple meat nuts plants poultry prepared-foods soap trees coffee beans fruits grains juices mushrooms tofu wild"},{"type":"market","name":"North Union Farmers Market at the Cleveland Clinic Main Campus","website":"http://www.northunionfarmersmarket.org/markets/clinic.html","facebook":"https://www.facebook.com/NorthUnionFarmersMarket","twitter":"https://twitter.com/NUFarmersMarket","street":"East 100th Street and Carnegie Ave.","city":"Cleveland","state":"oh","zip":"44106","x":"-81.617533","y":"41.502183","tags":"organic baked goods cheese flowers eggs herbs vegetables honey jams maple meat plants poultry soap coffee fruits juices"},{"type":"market","name":"North Union Farmers Market at University Hospitals","website":"http://www.northunionfarmersmarket.org/markets/uh.html","facebook":"https://www.facebook.com/NorthUnionFarmersMarket","twitter":"https://twitter.com/NUFarmersMarket","street":"2074 Adelbert Road","city":"Cleveland","state":"oh","zip":"44106","x":"-81.607019","y":"41.504883","tags":"organic baked goods cheese flowers eggs herbs vegetables honey jams maple meat plants poultry prepared-foods soap trees coffee fruits juices"},{"type":"market","name":"North Union Farmers Market Indoor Winter Market at Shaker Square","website":"http://www.northunionfarmersmarket.org/markets/indoor.html","facebook":"https://www.facebook.com/NorthUnionFarmersMarket","twitter":"https://twitter.com/NUFarmersMarket","street":"13209 Shaker Square","city":"Cleveland","state":"oh","zip":"44120","x":"-81.589906","y":"41.484433","tags":"organic baked goods cheese crafts eggs herbs vegetables honey jams maple meat poultry prepared-foods soap beans fruits grains juices mushrooms"},{"type":"market","name":"Northside Farmers Market","website":"http://www.northsidefm.org","facebook":"https://www.facebook.com/CinciNorthsideFarmersMarket","twitter":"https://twitter.com/NsideFarmersMkt","street":"4101 Hamilton Avenue","city":"Cincinnati","state":"oh","zip":"45223","x":"-84.539695","y":"39.160511","tags":"organic baked goods cheese crafts flowers eggs herbs vegetables honey jams meat plants poultry prepared-foods soap coffee fruits grains juices mushrooms pet food wild"},{"type":"market","name":"Northside Farmers' Market  year round","website":"","facebook":"Northside Farmers' Market Youngstown","twitter":"","street":"901 Elm Street","city":"Youngstown","state":"oh","zip":"44505","x":"-80.645004","y":"41.112216","tags":"organic baked goods cheese crafts flowers eggs herbs vegetables honey jams maple meat plants poultry prepared-foods soap coffee beans fruits grains juices mushrooms"},{"type":"market","name":"Norwalk Farmers Market","website":"","facebook":"https://www.facebook.com/pages/Norwalk-Farmers-Market/155311025552","twitter":"","street":"2 Church Street","city":"Norwalk","state":"oh","zip":"44857","x":"-82.617223","y":"41.241406","tags":"organic baked goods crafts flowers eggs herbs vegetables honey jams maple plants soap coffee fruits juices"},{"type":"market","name":"Oak Harbor Farmer's Market ","website":"http://www.oakharborohio.net/events/12","facebook":"","twitter":"","street":"161 West Water Street(Downtown Oak Harbor)","city":"Oak Harbor","state":"oh","zip":"43449","x":"-83.1468","y":"41.5073","tags":""},{"type":"market","name":"Oakwood Farmers Market ","website":"","facebook":"https://www.facebook.com/pages/Oakwood-Farmers-Market/119628384905691","twitter":"","street":"22 Orchard Drive, just off Far Hills Ave. in the parking lot behind Chico's","city":"Oakwood","state":"oh","zip":"45419","x":"-84.1698","y":"39.7084","tags":""},{"type":"market","name":"Oberlin Farmers Market","website":"http://www.oberlinfarmersmarket.com","facebook":"https://www.facebook.com/oberlinfarmersmarket","twitter":"","street":"69-85 S Main Street","city":"Oberlin","state":"oh","zip":"44074","x":"-82.2166500","y":"41.2893270","tags":"organic baked goods cheese crafts flowers eggs herbs honey jams maple meat poultry prepared-foods soap beans fruits grains juices"},{"type":"market","name":"OBETZ FAMILY MARKET","website":"","facebook":"","twitter":"","street":"4025 ALUM CREEK DRIVE","city":"COLUMBUS","state":"oh","zip":"43207","x":"-82.9315","y":"39.8873","tags":""},{"type":"market","name":"Ohio Valley Farmers Market - Bellaire","website":"http://ovfarmersmarket.org/","facebook":"https://www.facebook.com/Ohio-Valley-Farmers-Market-76218936373/info/?entry_point=page_nav_about_item&tab=page_info","twitter":"","street":"32nd Street and Union Street","city":"Bellaire","state":"oh","zip":"43906","x":"-80.7422347","y":"40.0137473","tags":"organic baked goods crafts flowers eggs herbs vegetables honey jams maple meat plants poultry prepared-foods soap trees coffee fruits mushrooms"},{"type":"market","name":"Ohio Valley Farmers' Market","website":"http://www.ovfarmersmarket.org","facebook":"https://www.facebook.com/Ohio-Valley-Farmers-Market-76218936373/?ref=bookmarks","twitter":"","street":"Mall Road","city":"St. Clairsville","state":"oh","zip":"43950","x":"-80.866729","y":"40.070918","tags":"baked goods crafts eggs herbs vegetables honey meat plants poultry soap coffee fruits"},{"type":"market","name":"Ohio Valley Fruit & Vegetable Growers Asociation","website":"","facebook":"","twitter":"","street":"1025 Lila Avenue","city":"Milford","state":"oh","zip":"45150","x":"-84.275529","y":"39.173808","tags":"flowers eggs herbs vegetables honey jams soap fruits"},{"type":"market","name":"Ohio Valley Fruit and Vegetable growers assn","website":"http://www.Milfordfarmersmarket.com","facebook":"","twitter":"","street":"453 Old State Route 74","city":"Cincinnati ","state":"oh","zip":"","x":"-84.306319","y":"39.111468","tags":"herbs vegetables wine fruits"},{"type":"market","name":"Orrville Farmers Market","website":"","facebook":"https://www.facebook.com/pages/The-Carytown-Farmers-Market/251655224946456?ref=hl","twitter":"","street":"315 W. Market St.","city":"Orrville","state":"oh","zip":"44667","x":"-81.7667","y":"40.8407","tags":""},{"type":"market","name":"Ottawa Area Farmers Market","website":"","facebook":"","twitter":"","street":"Parking Lot at Main & Oak Streets","city":"Ottawa","state":"oh","zip":"45875","x":"-84.0476","y":"41.0193","tags":"baked goods vegetables honey jams meat plants"},{"type":"market","name":"Oxford Farmers Market","website":"http://www.oxfordfarmersmarket.com","facebook":"oxfordfarmersmarket","twitter":"","street":"Main & High Streets","city":"Oxford ","state":"oh","zip":"45056","x":"-84.742070","y":"39.511147","tags":"organic baked goods crafts flowers eggs herbs vegetables honey jams maple plants poultry prepared-foods soap trees coffee beans fruits grains juices pet food"},{"type":"market","name":"Painesville Farmers Market","website":"http://www.painesvillefarmersmarket.webs.com","facebook":"https://www.facebook.com/painesvillefarmersmarket","twitter":"PainesvilleFM","street":"Veteran's Park at 1 Liberty Street","city":"Painesville","state":"oh","zip":"44077","x":"-81.2451655","y":"41.7241493","tags":"baked goods cheese flowers eggs vegetables honey jams maple nuts plants soap coffee fruits pet food"},{"type":"market","name":"Pataskala Farmers Market","website":"","facebook":"https://www.facebook.com/StratfordFarmersMarket","twitter":"","street":"S. Main Street","city":"Pataskala","state":"oh","zip":"43062","x":"-82.6774","y":"39.9917","tags":""},{"type":"market","name":"Pearl Market","website":"http://www.downtowncolumbus.com/pearlmarket","facebook":"www.facebook.com/PearlMarket","twitter":"https://twitter.com/PEARLMARKET","street":"1 Capitol Square","city":"Columbus ","state":"oh","zip":"43215","x":"-82.999264","y":"39.962141","tags":"baked goods crafts flowers eggs herbs vegetables honey jams meat plants prepared-foods soap wine coffee fruits juices mushrooms pet food"},{"type":"market","name":"Peddlers Paradise","website":"","facebook":"","twitter":"","street":"865 W. Market Street","city":"Troy","state":"oh","zip":"","x":"-84.2244","y":"40.028","tags":""},{"type":"market","name":"Perry County FARMERS' MARKET","website":"http://www.perrycofarmmarket.com","facebook":"https://www.facebook.com/perrycofarmersmarket","twitter":"","street":"100 PUBLIC SQ.","city":"SOMERSET","state":"oh","zip":"43783","x":"-82.299305","y":"39.807259","tags":"baked goods crafts flowers eggs herbs vegetables honey jams maple meat plants poultry soap fruits"},{"type":"market","name":"Perrysburg Farmers Market","website":"http://www.perrysburg-farmers-market.com","facebook":"","twitter":"","street":"Louisiana Ave. at Front St.","city":"Perrysburg","state":"oh","zip":"43551","x":"-83.6300200","y":"41.5604230","tags":"organic baked goods cheese crafts flowers eggs herbs vegetables honey jams maple meat plants prepared-foods soap trees coffee fruits juices pet food"},{"type":"market","name":"Pickaway Farmers' Market","website":"http://www.pickawaymarket.com","facebook":"","twitter":"","street":"166 West Main Street","city":"Circleville","state":"oh","zip":"43113","x":"-82.9468","y":"39.6026","tags":"baked goods crafts flowers herbs vegetables honey jams nuts plants soap"},{"type":"market","name":"Pickerington Farmers' Market","website":"http://www.pickeringtonvillage.com","facebook":"facebook.com/oldepickeringtonfarmersmarket","twitter":"twitter.com/pickfarmers","street":"89 N. Center Street","city":"Pickerington ","state":"oh","zip":"43147","x":"-82.753828","y":"39.885907","tags":"baked goods cheese crafts flowers eggs herbs vegetables honey jams maple meat plants poultry prepared-foods soap coffee beans fruits"},{"type":"market","name":"Pike County Pop-Up Farmers' Markets - Beaver, Ohio","website":"http://pike.osu.edu","facebook":"https://www.facebook.com/OSU-Extension-Pike-County-942516695840817/notifications/","twitter":"","street":"5556 Beaver Pike","city":"Beaver","state":"oh","zip":"45613","x":"-82.827699","y":"39.031097","tags":"baked goods flowers eggs vegetables honey jams meat plants prepared-foods fruits"},{"type":"market","name":"Pike County Pop-Up Farmers' Markets - Piketon, Ohio","website":"http://pike.osu.edu","facebook":"https://www.facebook.com/OSU-Extension-Pike-County-942516695840817/notifications/","twitter":"","street":"7144 US 23 N","city":"Piketon","state":"oh","zip":"45661","x":"-83.017869","y":"39.060090","tags":"baked goods flowers eggs vegetables honey jams meat plants prepared-foods fruits"},{"type":"market","name":"Pike County Pop-Up Farmers' Markets - Waverly, Ohio","website":"http://pike.osu.edu","facebook":"https://www.facebook.com/OSU-Extension-Pike-County-942516695840817/notifications/","twitter":"","street":"1001 West 2nd Street","city":"Waverly","state":"oh","zip":"45690","x":"-82.990343","y":"39.115218","tags":"baked goods flowers eggs vegetables honey jams meat plants prepared-foods fruits"},{"type":"market","name":"Piqua Community Farmers Market","website":"http://www.piquafarmersmarket.com","facebook":"https://www.facebook.com/piquafarmersmarket","twitter":"","street":"Spring & Ash Streets","city":"Piqua","state":"oh","zip":"45356","x":"-84.238572","y":"40.149539","tags":"baked goods eggs vegetables honey jams plants soap coffee fruits"},{"type":"market","name":"Plain City Farmers Market","website":"http://uptownplaincity.com/","facebook":"https://www.facebook.com/plaincityfarmersmarket","twitter":"","street":"South Chillicothe St. and Main St.","city":"Plain City","state":"oh","zip":"43064","x":"-83.26707","y":"40.10798","tags":""},{"type":"market","name":"Plain Township Farmers' Market","website":"https://www.plaintownship.com/farmersmarket.aspx","facebook":"https://www.facebook.com/PlainTownshipFarmersMarket/","twitter":"","street":"1714 Schneider Street NE","city":"Canton, OH","state":"oh","zip":"44721","x":"-81.350669","y":"40.865422","tags":"organic baked goods cheese crafts flowers eggs vegetables honey jams maple meat nuts plants poultry prepared-foods soap coffee fruits juices mushrooms pet food"},{"type":"market","name":"Powell Chamber of Commerce Farmers Market","website":"","facebook":"https://www.facebook.com/PowellChamberFarmersMarket","twitter":"","street":"50 S. Liberty Street","city":"Powell","state":"oh","zip":"43065","x":"-83.0748408","y":"40.1569811","tags":"baked goods cheese eggs herbs vegetables meat plants soap coffee fruits"},{"type":"market","name":"Prairie Township Farmer's Market","website":"http://oh-prairietownship2.civicplus.com/219/Farmers-Market","facebook":"","twitter":"","street":"5955 W. Broad Street","city":"Galloway","state":"oh","zip":"43119","x":"-83.009303","y":"39.9695356","tags":"baked goods eggs vegetables honey jams maple poultry coffee fruits juices"},{"type":"market","name":"Ralph's Joy of Living Farmer's Market","website":"http://www.joyofliving.com/fremont-market","facebook":"","twitter":"","street":"Front Street and Garrison Street","city":"Fremont","state":"oh","zip":"43420","x":"-83.1135499","y":"41.3454080","tags":"baked goods cheese crafts flowers eggs herbs vegetables honey jams maple meat plants prepared-foods soap trees coffee fruits juices pet food"},{"type":"market","name":"Red Barn Market","website":"","facebook":"","twitter":"","street":"2100 Washington Blvd.","city":"Belpre","state":"oh","zip":"45714","x":"-81.6036","y":"39.2779","tags":""},{"type":"market","name":"Reynoldsburg Farmer's Market","website":"http://www.ci.reynoldsburg.oh.us","facebook":"","twitter":"","street":"1520 Davidson Drive","city":"Reynoldsburg ","state":"oh","zip":"43068","x":"-82.8046203","y":"39.9519741","tags":"baked goods cheese crafts flowers eggs vegetables honey jams maple meat plants prepared-foods soap fruits"},{"type":"market","name":"Rinky Dinks Flea & Farmers Market","website":"","facebook":"","twitter":"","street":"404 Fort Harmar Drive","city":"Marietta","state":"oh","zip":"45750","x":"-81.4672","y":"39.407","tags":""},{"type":"market","name":"Ripley Farmers Market","website":"","facebook":"","twitter":"","street":"116 Main St.","city":"Ripley","state":"oh","zip":"45167","x":"-83.8086607","y":"39.0080523","tags":"baked goods eggs vegetables jams plants beans fruits"},{"type":"market","name":"River City Farmers Market","website":"","facebook":"","twitter":"","street":"South 3rd St.","city":"Marietta","state":"oh","zip":"45750","x":"-81.4479","y":"39.4109","tags":""},{"type":"market","name":"Robert's Farmstand","website":"http://www.findlaymarket.org","facebook":"https://www.facebook.com/FindlayMarket","twitter":"","street":"1702 Grand Ave","city":"Cincinnati","state":"oh","zip":"45214","x":"-84.557140","y":"39.118213","tags":"baked goods cheese eggs herbs vegetables honey jams meat poultry prepared-foods fruits"},{"type":"market","name":"Rogers Community Auction & Open Market","website":"","facebook":"","twitter":"","street":"45625 S.R. 154","city":"Rogers","state":"oh","zip":"44455","x":"-82.471","y":"40.3908","tags":""},{"type":"market","name":"Roseville Community Center Farmers Market","website":"","facebook":"","twitter":"","street":"13047 Karl Brown Rd.","city":"Roseville","state":"oh","zip":"43777","x":"-82.077","y":"39.8121","tags":""},{"type":"market","name":"S.P. Mallow & Sons","website":"","facebook":"","twitter":"","street":"914 Bellbrook Avenue","city":"Xenia","state":"oh","zip":"45385","x":"-83.9492","y":"39.6767","tags":""},{"type":"market","name":"SaintParis FarmersMarket","website":"","facebook":"SaintParis FarmersMarket","twitter":"","street":"135 West Main Street","city":"Saint Paris","state":"oh","zip":"43072","x":"-83.975948","y":"40.133275","tags":"baked goods crafts flowers vegetables honey jams maple plants soap fruits"},{"type":"market","name":"SaintParis FarmersMarket","website":"","facebook":"SaintParis FarmersMarket","twitter":"","street":"135 W. Main St","city":"Saint Paris","state":"oh","zip":"43072","x":"-83.959772","y":"40.127699","tags":"baked goods cheese crafts vegetables honey maple plants fruits"},{"type":"market","name":"Sandusky Farmers Market","website":"http://www.sanduskyfarmersmarket.org","facebook":"https://www.facebook.com/SanduskyFarmersMarket/","twitter":"","street":"Market and Hancock","city":"Sandusky","state":"oh","zip":"44870","x":"-82.7084701","y":"41.4572297","tags":"baked goods flowers vegetables honey jams prepared-foods trees fruits"},{"type":"market","name":"Schmidt Family Farms","website":"http://Schmidt Family Farms.org","facebook":"Schmidt Family Farms","twitter":"","street":"4282 State Road","city":"Medina","state":"oh","zip":"44256","x":"-81.708060","y":"41.159011","tags":"organic eggs vegetables honey plants poultry wild"},{"type":"market","name":"SE Columbus Farmer's & Grower's Market","website":"","facebook":"https://www.facebook.com/Southeastfarmersgrowers43232/","twitter":"","street":"5081 Carbondale Drive","city":"Columbus","state":"oh","zip":"43232","x":"-82.847372","y":"39.924927","tags":"baked goods crafts herbs vegetables honey jams soap fruits mushrooms"},{"type":"market","name":"Shelby Farmers' Market","website":"","facebook":"https://www.facebook.com/pages/Shelby-Farmers-Market/269675866394028","twitter":"","street":"E Main St. and High School Ave.","city":"Shelby","state":"oh","zip":"44875","x":"-82.6584510","y":"40.8813740","tags":"organic baked goods cheese crafts flowers herbs vegetables honey maple plants soap fruits"},{"type":"market","name":"Shiloh Farmers' Market","website":"http://www.shilohfarmersmarket.com/","facebook":"https://www.facebook.com/Shiloh-Farmers-Market-508150235911225/","twitter":"","street":"5300 Philadelphia Dr.","city":"Dayton ","state":"oh","zip":"45415","x":"-84.235026","y":"39.819046","tags":"baked goods cheese crafts flowers eggs herbs vegetables honey jams maple meat plants poultry prepared-foods soap coffee fruits juices mushrooms"},{"type":"market","name":"SouthPonte Farmers Market","website":"","facebook":"","twitter":"","street":"3459 South High Street","city":"Columbus","state":"oh","zip":"43207","x":"-82.997","y":"39.891","tags":""},{"type":"market","name":"Spencerville OH Farmers Market","website":"","facebook":"https://www.facebook.com/SpencervilleFarmersMarket/","twitter":"","street":"St Rt 66 and 3rd St","city":"Spencerville","state":"oh","zip":"45887","x":"-84.3540645","y":"40.7076022","tags":"organic baked goods eggs herbs vegetables honey jams maple soap trees fruits juices"},{"type":"market","name":"Springfield Farmers Market","website":"http://www.visitgreaterspringfield.com","facebook":"https://www.facebook.com/SpringfieldFarmMarket/","twitter":"","street":"117 S Fountain Ave. ","city":"Springfield","state":"oh","zip":"45502","x":"-83.810796","y":"39.922966","tags":"organic baked goods cheese crafts flowers eggs herbs vegetables honey jams meat plants poultry prepared-foods soap fruits mushrooms pet food"},{"type":"market","name":"St. Paris Farmers Market","website":"","facebook":"SaintParis FarmersMarket","twitter":"","street":"135 W. Main Street","city":"Saint Paris","state":"oh","zip":"43072","x":"-83.953592","y":"40.125993","tags":"baked goods flowers vegetables honey jams plants soap fruits"},{"type":"market","name":"StarkFresh Corridor Farmer's Market","website":"http://www.starkfresh.org","facebook":"www.facebook.com/starkfresh","twitter":"","street":"1800 block of Mahoning Rd. NE","city":"Canton","state":"oh","zip":"44705","x":"-81.351516","y":"40.808886","tags":"baked goods eggs herbs vegetables honey jams soap fruits"},{"type":"market","name":"Stimmel's Saturday Farmer's Market ","website":"http://www.localharvest.org/stimmels-saturday-farmers-market-M48452","facebook":"","twitter":"","street":"1220 Wooster St","city":"Bowling Green","state":"oh","zip":"43402","x":"-83.6719","y":"41.3724","tags":""},{"type":"market","name":"Stow Community Farmers Market","website":"http://www.stowfarmersmarket.com","facebook":"@StowCommunityFarmersMarket","twitter":"","street":"1567 Pilgrim Drive","city":"Stow","state":"oh","zip":"44224","x":"-81.452156","y":"41.168794","tags":"baked goods crafts eggs herbs vegetables honey jams maple meat plants prepared-foods soap trees coffee fruits pet food"},{"type":"market","name":"Strongsville Farmers Market","website":"","facebook":"","twitter":"","street":"18100 Royalton Road","city":"Strongsville","state":"oh","zip":"44136","x":"-81.828","y":"41.3136","tags":""},{"type":"market","name":"SUGARCREEK TOWNSHIP FARMERS' MARKET","website":"http://www.sugarcreektownship.com/index.aspx?nid=199","facebook":"","twitter":"","street":"6134 Wilmington Pike","city":"Dayton (Sugarcreek Township)","state":"oh","zip":"45459","x":"-84.1099836677313","y":"39.6508618444204","tags":"organic baked goods cheese flowers eggs herbs vegetables honey jams meat plants poultry prepared-foods soap trees fruits"},{"type":"market","name":"Summit Lake Neighborhood Farmers' Market","website":"http://www.letsgrowakron.org","facebook":"https://www.facebook.com/LetsGrowAkron/","twitter":"letsgrowakron","street":"380 W. Crosier St.","city":"Akron","state":"oh","zip":"44311","x":"-81.542318","y":"41.058965","tags":"organic baked goods crafts flowers vegetables honey jams soap coffee beans fruits"},{"type":"market","name":"Swanton Farmer's Market","website":"http://www.swantonohiofarmersmarket.com","facebook":"","twitter":"","street":"Airport Highway and Hallett","city":"Swanton","state":"oh","zip":"43558","x":"-83.8825344","y":"41.5810890","tags":"baked goods crafts flowers vegetables honey jams nuts plants soap trees fruits juices pet food"},{"type":"market","name":"TALLMADGE FAMILY FARMERS MARKET","website":"","facebook":"","twitter":"","street":"1279 E Tallmadge Ave","city":"Akron","state":"oh","zip":"44311","x":"-81.4688767","y":"41.1019246","tags":"baked goods seafood vegetables prepared-foods soap wine coffee fruits juices"},{"type":"market","name":"Tallmadge Farmers Market ","website":"http://www.facebook.com/TallmadgeFarmersMarket","facebook":"Tallmadge Farmers Market","twitter":"","street":"46 N Munroe Road","city":"Tallmadge ","state":"oh","zip":"44278","x":"-81.414936","y":"41.101566","tags":"baked goods crafts flowers eggs herbs vegetables honey jams plants poultry prepared-foods soap coffee fruits"},{"type":"market","name":"Terra Local","website":"http://www.terralocal.net/","facebook":"https://www.facebook.com/terralocal","twitter":"","street":"Park st  and Eagle Street","city":" Geneva","state":"oh","zip":"","x":"-80.9501","y":"41.8037","tags":""},{"type":"market","name":"The Coit Road Farmers Market","website":"http://www.coitmarket.org","facebook":"https://www.facebook.com/CoitRoadFarmersMarket","twitter":"","street":"15000 Woodworth Rd","city":"East Cleveland","state":"oh","zip":"44110","x":"-81.578199","y":"41.545129","tags":"baked goods cheese crafts eggs herbs vegetables honey maple nuts plants soap fruits"},{"type":"market","name":"The Downtown Mansfield Farmers Market","website":"http://www.downtownmansfield.com/index.php/uplift/farmers-market.html","facebook":"https://www.facebook.com/DowntownMansfieldFarmersMarket","twitter":"","street":"4 West Fourth Steet","city":"Mansfield ","state":"oh","zip":"44902","x":"-82.515694","y":"40.760992","tags":"organic baked goods crafts flowers herbs vegetables jams meat plants prepared-foods coffee fruits juices"},{"type":"market","name":"The Fairfield Farmers Market","website":"","facebook":"http://bit.ly/thefairfieldfarmersmarket","twitter":"","street":"411 Wessel Drive","city":"Fairfield","state":"oh","zip":"45014","x":"-84.563916","y":"39.334042","tags":"baked goods cheese crafts eggs herbs vegetables honey jams poultry soap wine coffee fruits juices mushrooms pet food"},{"type":"market","name":"The Farmer's Market at Ginghamsburg Church","website":"http://www.ginghamsburg.org/mission","facebook":"facebook.com/GrowersandPickers","twitter":"","street":"6759 S County Rd 25A","city":"Tipp City","state":"oh","zip":"45373","x":"-84.1922356","y":"39.9403423","tags":"organic baked goods cheese flowers eggs herbs vegetables honey jams maple meat plants poultry prepared-foods soap trees coffee fruits juices"},{"type":"market","name":"The Feed Barn Farmers Market","website":"","facebook":"","twitter":"","street":"9257 Cincinnati Dayton Rd.","city":"West Chester","state":"oh","zip":"45069","x":"-84.4111","y":"39.3212","tags":""},{"type":"market","name":"The Great Sidney Farmers Market","website":"http://www.downtownsidney.com","facebook":"","twitter":"","street":"101 S. Ohio Avenue - Floor 2","city":"Sidney","state":"oh","zip":"45365","x":"-84.1568","y":"40.2854","tags":"baked goods cheese crafts flowers herbs vegetables honey jams maple meat plants prepared-foods soap"},{"type":"market","name":"The Heights Farmers and Artisans Market","website":"http://theheightsfarmersmarket.homestead.com/about.html","facebook":"https://www.facebook.com/huberheightsfarmersmarket","twitter":"","street":"6178 Chambersburg Road","city":"Huber Heights","state":"oh","zip":"45424","x":"-84.1179","y":"39.8471","tags":""},{"type":"market","name":"The Market at Austin Landing","website":"http://www.austinlanding.com","facebook":"https://www.facebook.com/pages/The-Market-at-Austin-Landing/1490569211192586","twitter":"https://twitter.com/market_austin","street":"10400 Innovation Dr.","city":"Miamisburg","state":"oh","zip":"45342","x":"-84.2358568","y":"39.5999081","tags":"organic baked goods cheese flowers eggs herbs vegetables honey jams maple meat plants poultry soap trees coffee fruits grains juices pet food wild"},{"type":"market","name":"The Market at Wright Stop Plaza","website":"http://www.homefull.org/the-market-at-wright-stop-plaza/","facebook":"https://www.facebook.com/marketwsp/","twitter":"","street":"4 S. Main St. ","city":"Dayton","state":"oh","zip":"45402","x":"-84.1913141","y":"39.7592352","tags":"herbs vegetables honey fruits mushrooms"},{"type":"market","name":"The Mid-Week Farmers Market","website":"","facebook":"","twitter":"","street":"Parking Lot B, Downtown","city":"Ashland","state":"oh","zip":"44805","x":"-82.3205","y":"40.8647","tags":""},{"type":"market","name":"The Original Delaware County Community Farmers Market","website":"http://www.dccmc.com","facebook":"https://www.facebook.com/TheOriginalDelawareCountyCommunityFarmersMarket","twitter":"","street":"236 Pennsylvania Ave","city":"Delaware","state":"oh","zip":"43015","x":"-83.0801","y":"40.3141","tags":""},{"type":"market","name":"Timothy's Farmers Market","website":"","facebook":"","twitter":"","street":"Corner of East Xenia & Maysutle St","city":"Bowersville","state":"oh","zip":"","x":"-83.7243","y":"39.5805","tags":""},{"type":"market","name":"Tipp City Marketplace","website":"http://www.tippecanoefarmersmarket.com/","facebook":"","twitter":"","street":"Broadway & South ThirdStreets","city":"Tipp City","state":"oh","zip":"45371","x":"-84.1712","y":"39.9591","tags":""},{"type":"market","name":"Toledo Farmers' Market","website":"http://www.toledofarmersmarket.com","facebook":"https://www.facebook.com/toledofarmersmarket","twitter":"","street":"525 Market","city":"Toledo ","state":"oh","zip":"43604","x":"-83.542051","y":"41.645297","tags":"organic baked goods cheese crafts flowers eggs herbs vegetables honey jams maple meat nuts plants poultry prepared-foods soap trees wine coffee fruits grains juices wild"},{"type":"market","name":"Tremont Farmers' Market","website":"http://www.tremontfarmersmarket.com","facebook":"","twitter":"","street":"Lincoln Park West 14th Street between Starkweather Avenue and Kenilworth Avenue","city":"Cleveland","state":"oh","zip":"44113","x":"-81.690903","y":"41.478361","tags":"organic baked goods cheese crafts flowers eggs herbs vegetables honey jams maple meat plants poultry prepared-foods soap coffee beans fruits grains juices mushrooms pet food tofu wild"},{"type":"market","name":"Tuscarawas Valley Farmers  Market","website":"http://www.tvffm.org","facebook":"https://www.facebook.com/tuscfarmersmarket","twitter":"","street":"259 S. Tuscarawas Ave","city":"Dover","state":"oh","zip":"44622","x":"-81.47244","y":"40.51448","tags":"organic baked goods cheese flowers eggs herbs vegetables honey jams maple meat plants poultry prepared-foods soap trees fruits"},{"type":"market","name":"Twinsburg Farmers Market","website":"http://www.twinsburgivistorcenter.com","facebook":"","twitter":"","street":"Church Street","city":"Twinsburg","state":"oh","zip":"44087","x":"-81.441","y":"41.3121","tags":""},{"type":"market","name":"Union County Farmers Market","website":"","facebook":"","twitter":"","street":"Corner of 5th & Main St.","city":"Marysville","state":"oh","zip":"43040","x":"-83.3669","y":"40.2365","tags":""},{"type":"market","name":"Union County Farmers Market - Richwood Location","website":"","facebook":"www.facebook.com/richwoodfarmersmarket","twitter":"","street":"4 E Ottawa Street","city":"Richwood, OH","state":"oh","zip":"43344","x":"-83.296015","y":"40.426013","tags":"baked goods crafts herbs vegetables honey jams maple meat plants soap fruits"},{"type":"market","name":"Upper Arlington Farmers Market","website":"http://www.getfreshmarkets.org","facebook":"","twitter":"","street":"2850 Tremont Rd","city":"Upper Arlington","state":"oh","zip":"43221","x":"-83.066903","y":"40.013849","tags":"organic baked goods flowers eggs seafood vegetables honey jams meat plants poultry coffee fruits"},{"type":"market","name":"Uptown Westerville Farmers' Market","website":"https://www.marketwednesday.com/","facebook":"https://www.facebook.com/MarketWednesday/","twitter":"https://twitter.com/marketwednesday","street":"62 N. State St.","city":"Westerville","state":"oh","zip":"43081","x":"-82.932051","y":"40.127570","tags":"baked goods cheese flowers eggs seafood herbs vegetables honey jams maple meat plants poultry fruits"},{"type":"market","name":"Van Wert County Farmers Market","website":"","facebook":"","twitter":"","street":"Central Avenue & Market Street","city":"Van Wert","state":"oh","zip":"","x":"-84.5807","y":"40.8687","tags":""},{"type":"market","name":"Vandalia Community Farmers Market ","website":"http://www.vandaliafarmersmarket.com","facebook":"Vandalia Farmers Market","twitter":"","street":"31 Tionda Street","city":"Vandalia","state":"oh","zip":"45377","x":"-84.1977263","y":"39.8890201","tags":"baked goods cheese crafts flowers eggs herbs vegetables honey jams maple meat nuts plants poultry prepared-foods soap trees coffee fruits pet food"},{"type":"market","name":"Village Market- Slavic Village","website":"http://slavicvillage.org/villagemarket","facebook":"https://www.facebook.com/VillageMarketSlavicVillage/","twitter":"","street":"5106 Fleet Ave","city":"Cleveland ","state":"oh","zip":"44105","x":"-81.654595","y":"41.455724","tags":"baked goods herbs vegetables honey jams plants fruits"},{"type":"market","name":"Village of Chesterhill Farmers Market","website":"","facebook":"","twitter":"","street":"Lot adjacent to the Church of Christ on Rt. 377","city":"Chesterhill","state":"oh","zip":"43728","x":"-81.866","y":"39.4884","tags":""},{"type":"market","name":"Volk Fruit Farm","website":"","facebook":"","twitter":"","street":"5782 Addison-New Carlisle Pike","city":"Casstown","state":"oh","zip":"45312","x":"-84.0296","y":"40.0429","tags":""},{"type":"market","name":"Wadsworth Farmers Market","website":"http://www.wadsworthfarmersmarket.com","facebook":"https://www.facebook.com/MainStreetWadsworthFarmersMarket/","twitter":"","street":"151 Main Street","city":"Wadsworth","state":"oh","zip":"44281","x":"-81.732318","y":"41.028681","tags":"baked goods cheese crafts flowers herbs vegetables honey jams maple meat plants trees coffee fruits pet food"},{"type":"market","name":"Wapakoneta Farmers' Market","website":"","facebook":"","twitter":"","street":"Behind Town By Auglaize River","city":"Wapakoneta","state":"oh","zip":"45895","x":"-84.193602","y":"40.571217","tags":"baked goods crafts flowers herbs vegetables honey jams maple plants soap coffee fruits"},{"type":"market","name":"Warren County Farmers Market","website":"","facebook":"","twitter":"","street":"505 Central Avenue","city":"Springboro","state":"oh","zip":"","x":"-84.2526","y":"39.5617","tags":""},{"type":"market","name":"Warren Farmer's Market","website":"http://warrenfarmersmarket.org/","facebook":"https://www.facebook.com/WarrenOhioFarmersMarket?ref=aymt_homepage_panel","twitter":"","street":"170 North Park Ave.","city":"Warren","state":"oh","zip":"44481","x":"-80.818098","y":"41.237225","tags":"organic baked goods cheese eggs herbs vegetables honey jams maple plants poultry prepared-foods coffee fruits"},{"type":"market","name":"Warren Flea Market","website":"","facebook":"","twitter":"","street":"428 Main Stret","city":"Warren","state":"oh","zip":"44481","x":"-80.8198","y":"41.2331","tags":""},{"type":"market","name":"Wayne County Arts & Crafts Guild","website":"","facebook":"","twitter":"","street":"50 Riffel Rd.","city":"Wooster","state":"oh","zip":"44691","x":"-81.942","y":"40.8513","tags":""},{"type":"market","name":"Wegerzyn's Farmers Market","website":"","facebook":"","twitter":"","street":"Courthouse Square 3rd & Main Street","city":"Dayton","state":"oh","zip":"45402","x":"-84.1918","y":"39.7595","tags":""},{"type":"market","name":"Wellington Farmers' Market","website":"http://www.wellingtonfarmersmarket.org","facebook":"https://www.facebook.com/pages/Wellington-Farmers-Market/213277332020136","twitter":"","street":"115 Willard Memorial Square","city":"Wellington","state":"oh","zip":"44090","x":"-82.2179354","y":"41.1689421","tags":"baked goods cheese crafts eggs herbs vegetables honey jams maple meat plants poultry prepared-foods soap trees fruits pet food"},{"type":"market","name":"Wesler Orchards & Farm Market","website":"http://www.weslerorchards.com","facebook":"Wesler Orchards","twitter":"","street":"9319 Wesler Road","city":"New Paris","state":"oh","zip":"45347","x":"-84.802843","y":"39.867714","tags":""},{"type":"market","name":"West Elm Street Farmers Market","website":"","facebook":"","twitter":"","street":"3000 W. Elm Street","city":"Lima","state":"oh","zip":"","x":"-84.159","y":"40.737","tags":""},{"type":"market","name":"West Jefferson Farmer's Market+ ","website":"","facebook":"https://www.facebook.com/pages/West-Jefferson-Ohio-Farmers-Market/164535836937303","twitter":"","street":"55 W. Main St","city":"West Jefferson","state":"oh","zip":"43162","x":"-83.2701","y":"39.9447","tags":""},{"type":"market","name":"West Orchards","website":"","facebook":"","twitter":"","street":"3096 N. Ridge Road","city":"Perry","state":"oh","zip":"44081","x":"-81.1722","y":"41.7709","tags":""},{"type":"market","name":"Westerville Saturday Farmers Market","website":"http://www.UptownWestervilleInc.com","facebook":"Westerville Saturday Farmers Market","twitter":"","street":"1 S Grove St","city":"Westerville","state":"oh","zip":"43081","x":"-82.935814","y":"40.125435","tags":"organic baked goods crafts flowers eggs herbs vegetables honey jams meat nuts plants poultry prepared-foods soap coffee fruits grains juices mushrooms pet food"},{"type":"market","name":"Westgate Farmers Market","website":"http://www.westgatefarmersmarket.com","facebook":" https://www.facebook.com/WestgateFarmersMarket/","twitter":"","street":"2925 W. Broad Street","city":"Columbus","state":"oh","zip":"43204","x":"-83.078781","y":"39.954491","tags":"baked goods crafts flowers eggs herbs vegetables honey jams meat poultry prepared-foods soap coffee fruits mushrooms"},{"type":"market","name":"Westgate Farmers' Market @ Elder Beerman","website":"http://www.toledofarmersmarket.com","facebook":"Toledo Farmers Market","twitter":"","street":"3300 Secor Road","city":"Toledo ","state":"oh","zip":"43606","x":"-83.623510","y":"41.680346","tags":"organic baked goods cheese crafts flowers eggs herbs honey jams maple plants prepared-foods soap trees coffee fruits juices"},{"type":"market","name":"White Barn Local","website":"http://www.whitebarnlocal.com","facebook":"www.facebook.com/whitebarnlocal","twitter":"","street":"Online","city":"Chardon","state":"oh","zip":"","x":"-81.183629","y":"41.604726","tags":"eggs herbs vegetables jams maple meat poultry fruits"},{"type":"market","name":"Whitehouse Farmers' Market","website":"http://www.whitehouseoh.gov","facebook":"","twitter":"","street":"10911 Toledo Street","city":"Whitehouse","state":"oh","zip":"43571","x":"-83.8041040","y":"41.5178910","tags":"baked goods crafts flowers herbs vegetables plants prepared-foods soap trees fruits"},{"type":"market","name":"Williams County Farmer's Market","website":"","facebook":"","twitter":"","street":"High Street ","city":"Bryan ","state":"oh","zip":"43506","x":"-84.551292","y":"41.474364","tags":"baked goods flowers herbs vegetables maple plants soap fruits"},{"type":"market","name":"Willoughby Lakefront Outdoor Farmer's Market","website":"http://www.willoughbylakefront.com","facebook":"","twitter":"","street":"38575 Lakeshore Blvd.","city":"Willoughby","state":"oh","zip":"44094","x":"-81.395222","y":"41.696999","tags":"organic baked goods cheese crafts flowers plants prepared-foods fruits juices"},{"type":"market","name":"Willoughby Outdoor Market","website":"","facebook":"","twitter":"","street":"1 Public Square","city":"Willoughby","state":"oh","zip":"44094","x":"-81.4059","y":"41.6393","tags":""},{"type":"market","name":"Wooster Downtown Farmers Market","website":"http://www.mainstreetwooster.org","facebook":"https://www.facebook.com/downtownwoosterfarmersmarket","twitter":"","street":"Liberty & Market Street","city":"Wooster","state":"oh","zip":"44691","x":"-81.9399841","y":"40.7981618","tags":"organic baked goods flowers eggs herbs vegetables honey jams maple plants poultry soap coffee fruits grains mushrooms"},{"type":"market","name":"Worthington Farmers Market","website":"http://www.worthingtonfarmersmarket.com","facebook":"https://www.facebook.com/worthingtonfarmersmarket","twitter":"https://twitter.com/WorthingtonFM","street":"High Street between 161 and New England Street.","city":"Worthington","state":"oh","zip":"43085","x":"-83.018120","y":"40.087885","tags":"organic baked goods cheese flowers eggs seafood herbs vegetables honey maple meat plants poultry soap coffee beans fruits grains mushrooms pet food"},{"type":"market","name":"Wyoming Ave. Farmers' Market, LLC","website":"http://www.wyomingavefarmersmarket.com","facebook":"http://www.facebook.com/wyomingavefarmersmarket/","twitter":"http://twitter.com/wyomfarmmkt","street":"Wyoming Ave. at Oak on the Village Green","city":"Wyoming","state":"oh","zip":"45215","x":"-84.465898","y":"39.227619","tags":"baked goods eggs herbs vegetables honey jams meat nuts plants poultry prepared-foods coffee fruits"},{"type":"market","name":"Xenia Station Farmers Market","website":"","facebook":"","twitter":"","street":" Miami Ave.","city":"Xenia","state":"oh","zip":"45385","x":"-83.9137","y":"39.6643","tags":""},{"type":"market","name":"Yellow Springs Farmers' Market in King's Yard","website":"http://www.yellowspringsfarmersmarket.com","facebook":"","twitter":"","street":"Walnut St. behind the Trail Tavern","city":"Yellow Springs","state":"oh","zip":"45387","x":"-83.8898","y":"39.8062","tags":""},{"type":"market","name":"Yellow Springs SOUTH TOWN FARMERS' MARKET","website":"","facebook":"","twitter":"","street":"1485 XENIA AVE. ST RT 68","city":"YELLOW SPRINGS","state":"oh","zip":"","x":"-83.899","y":"39.7901","tags":""},{"type":"market","name":"Yellow Springs Winter Farmer's Market","website":"","facebook":"https://www.facebook.com/YellowSpringsWinterFarmersMarket","twitter":"","street":"Yellow Springs Methodist Church/ 202 South Winter Street","city":"YELLOW SPRINGS","state":"oh","zip":"45387","x":"-83.8913500","y":"39.8065740","tags":"baked goods eggs herbs vegetables honey jams maple soap"},{"type":"market","name":"Yoder Cider Barn","website":"","facebook":"","twitter":"","street":"3361 Martinsburg Rd.","city":"Martinsburg","state":"oh","zip":"","x":"-82.3617","y":"40.276","tags":""},{"type":"market","name":"Zanesville Farmers Market","website":"","facebook":"","twitter":"","street":"Muskingum County Fairgrounds","city":"Zanesville","state":"oh","zip":"43701","x":"-82.023","y":"39.9239","tags":""}]
